{"type":"FeatureCollection","features":[{"type":"Feature","geometry":{"type":"Point","coordinates":[121.4938,25.0726]},"properties":{"city":"新北市","district":"三重區","site_id":"67","site_name":"三重","status":"普通","aqi":"75","pollutant":"細懸浮微粒","so2_ppb":"0.5","co_ppm":"0.41","o3_ppb":"8","o3_8hr_ppb":"4","pm10_ug_m3":"19","pm2_5_ug_m3":"9","no2_ppb":"10","nox_ppb":"13.3","no_ppb":"2.4","wind_speed_m_sec":"","wind_direction_degree":"","co_8hr_ppm":"0.9","pm2_5_avg_ug_m3":"21.3","pm10_avg_ug_m3":"32","so2_avg_ppb":"0","publish_time":"2026/05/03 04:00:00","import_date":"","source_dataset":"MOENV AQX_P_432","updated_at":"2026-05-03T04:37:46+08:00","pressure_type":"空氣","score":"75"}},{"type":"Feature","geometry":{"type":"Point","coordinates":[121.481,25.069]},"properties":{"city":"新北市","district":"三重區","site_id":"8","site_name":"菜寮","status":"普通","aqi":"75","pollutant":"細懸浮微粒","so2_ppb":"0.7","co_ppm":"0.44","o3_ppb":"6","o3_8hr_ppb":"4","pm10_ug_m3":"19","pm2_5_ug_m3":"16","no2_ppb":"15","nox_ppb":"17.4","no_ppb":"2.1","wind_speed_m_sec":"0.5","wind_direction_degree":"302","co_8hr_ppm":"0.8","pm2_5_avg_ug_m3":"21.2","pm10_avg_ug_m3":"32","so2_avg_ppb":"0","publish_time":"2026/05/03 04:00:00","import_date":"","source_dataset":"MOENV AQX_P_432","updated_at":"2026-05-03T04:37:46+08:00","pressure_type":"空氣","score":"75"}},{"type":"Feature","geometry":{"type":"Point","coordinates":[121.4519,24.9825]},"properties":{"city":"新北市","district":"土城區","site_id":"5","site_name":"土城","status":"普通","aqi":"69","pollutant":"細懸浮微粒","so2_ppb":"0.6","co_ppm":"0.42","o3_ppb":"2","o3_8hr_ppb":"8","pm10_ug_m3":"36","pm2_5_ug_m3":"13","no2_ppb":"13","nox_ppb":"15.1","no_ppb":"1.7","wind_speed_m_sec":"0.3","wind_direction_degree":"142","co_8hr_ppm":"0.4","pm2_5_avg_ug_m3":"19.2","pm10_avg_ug_m3":"36","so2_avg_ppb":"0","publish_time":"2026/05/03 04:00:00","import_date":"","source_dataset":"MOENV AQX_P_432","updated_at":"2026-05-03T04:37:46+08:00","pressure_type":"空氣","score":"69"}},{"type":"Feature","geometry":{"type":"Point","coordinates":[121.5378,24.9772]},"properties":{"city":"新北市","district":"新店區","site_id":"4","site_name":"新店","status":"普通","aqi":"54","pollutant":"細懸浮微粒","so2_ppb":"0.3","co_ppm":"0.22","o3_ppb":"15","o3_8hr_ppb":"19","pm10_ug_m3":"18","pm2_5_ug_m3":"14","no2_ppb":"3","nox_ppb":"3.8","no_ppb":"0.4","wind_speed_m_sec":"1.2","wind_direction_degree":"151","co_8hr_ppm":"0.2","pm2_5_avg_ug_m3":"13.5","pm10_avg_ug_m3":"21","so2_avg_ppb":"0","publish_time":"2026/05/03 04:00:00","import_date":"","source_dataset":"MOENV AQX_P_432","updated_at":"2026-05-03T04:37:46+08:00","pressure_type":"空氣","score":"54"}},{"type":"Feature","geometry":{"type":"Point","coordinates":[121.4325,25.038]},"properties":{"city":"新北市","district":"新莊區","site_id":"7","site_name":"新莊","status":"普通","aqi":"81","pollutant":"細懸浮微粒","so2_ppb":"0.3","co_ppm":"0.53","o3_ppb":"3","o3_8hr_ppb":"5","pm10_ug_m3":"42","pm2_5_ug_m3":"28","no2_ppb":"16","nox_ppb":"17.9","no_ppb":"1","wind_speed_m_sec":"0.6","wind_direction_degree":"262","co_8hr_ppm":"0.6","pm2_5_avg_ug_m3":"23.3","pm10_avg_ug_m3":"41","so2_avg_ppb":"0","publish_time":"2026/05/03 04:00:00","import_date":"","source_dataset":"MOENV AQX_P_432","updated_at":"2026-05-03T04:37:46+08:00","pressure_type":"空氣","score":"81"}},{"type":"Feature","geometry":{"type":"Point","coordinates":[121.4587,25.013]},"properties":{"city":"新北市","district":"板橋區","site_id":"6","site_name":"板橋","status":"普通","aqi":"73","pollutant":"細懸浮微粒","so2_ppb":"1.1","co_ppm":"0.48","o3_ppb":"4","o3_8hr_ppb":"9","pm10_ug_m3":"28","pm2_5_ug_m3":"21","no2_ppb":"14","nox_ppb":"15.6","no_ppb":"1","wind_speed_m_sec":"0.2","wind_direction_degree":"269","co_8hr_ppm":"0.5","pm2_5_avg_ug_m3":"20.5","pm10_avg_ug_m3":"33","so2_avg_ppb":"1","publish_time":"2026/05/03 04:00:00","import_date":"","source_dataset":"MOENV AQX_P_432","updated_at":"2026-05-03T04:37:46+08:00","pressure_type":"空氣","score":"73"}},{"type":"Feature","geometry":{"type":"Point","coordinates":[121.3655,25.078]},"properties":{"city":"新北市","district":"林口區","site_id":"9","site_name":"林口","status":"普通","aqi":"72","pollutant":"細懸浮微粒","so2_ppb":"2.4","co_ppm":"0.4","o3_ppb":"29","o3_8hr_ppb":"27","pm10_ug_m3":"30","pm2_5_ug_m3":"22","no2_ppb":"11","nox_ppb":"11.9","no_ppb":"0.5","wind_speed_m_sec":"0.4","wind_direction_degree":"152","co_8hr_ppm":"0.4","pm2_5_avg_ug_m3":"20","pm10_avg_ug_m3":"32","so2_avg_ppb":"1","publish_time":"2026/05/03 04:00:00","import_date":"","source_dataset":"MOENV AQX_P_432","updated_at":"2026-05-03T04:37:46+08:00","pressure_type":"空氣","score":"72"}},{"type":"Feature","geometry":{"type":"Point","coordinates":[121.3835,24.949]},"properties":{"city":"新北市","district":"樹林區","site_id":"311","site_name":"新北（樹林）","status":"普通","aqi":"68","pollutant":"細懸浮微粒","so2_ppb":"0","co_ppm":"0.27","o3_ppb":"6","o3_8hr_ppb":"11","pm10_ug_m3":"31","pm2_5_ug_m3":"16","no2_ppb":"5","nox_ppb":"6.7","no_ppb":"1.1","wind_speed_m_sec":"0.2","wind_direction_degree":"92","co_8hr_ppm":"0.3","pm2_5_avg_ug_m3":"18.6","pm10_avg_ug_m3":"29","so2_avg_ppb":"1","publish_time":"2026/05/03 04:00:00","import_date":"","source_dataset":"MOENV AQX_P_432","updated_at":"2026-05-03T04:37:46+08:00","pressure_type":"空氣","score":"68"}},{"type":"Feature","geometry":{"type":"Point","coordinates":[121.5163,25.017]},"properties":{"city":"新北市","district":"永和區","site_id":"70","site_name":"永和","status":"普通","aqi":"52","pollutant":"細懸浮微粒","so2_ppb":"0.7","co_ppm":"0.25","o3_ppb":"13","o3_8hr_ppb":"13","pm10_ug_m3":"19","pm2_5_ug_m3":"9","no2_ppb":"3","nox_ppb":"5","no_ppb":"1.3","wind_speed_m_sec":"1","wind_direction_degree":"133","co_8hr_ppm":"0.4","pm2_5_avg_ug_m3":"12.9","pm10_avg_ug_m3":"23","so2_avg_ppb":"1","publish_time":"2026/05/03 04:00:00","import_date":"","source_dataset":"MOENV AQX_P_432","updated_at":"2026-05-03T04:37:46+08:00","pressure_type":"空氣","score":"52"}},{"type":"Feature","geometry":{"type":"Point","coordinates":[121.6408,25.0662]},"properties":{"city":"新北市","district":"汐止區","site_id":"2","site_name":"汐止","status":"普通","aqi":"52","pollutant":"細懸浮微粒","so2_ppb":"1","co_ppm":"0.35","o3_ppb":"4","o3_8hr_ppb":"5","pm10_ug_m3":"19","pm2_5_ug_m3":"11","no2_ppb":"11","nox_ppb":"13.3","no_ppb":"2","wind_speed_m_sec":"0.4","wind_direction_degree":"126","co_8hr_ppm":"0.4","pm2_5_avg_ug_m3":"13","pm10_avg_ug_m3":"24","so2_avg_ppb":"1","publish_time":"2026/05/03 04:00:00","import_date":"","source_dataset":"MOENV AQX_P_432","updated_at":"2026-05-03T04:37:46+08:00","pressure_type":"空氣","score":"52"}},{"type":"Feature","geometry":{"type":"Point","coordinates":[121.4492,25.1645]},"properties":{"city":"新北市","district":"淡水區","site_id":"10","site_name":"淡水","status":"普通","aqi":"72","pollutant":"細懸浮微粒","so2_ppb":"1.2","co_ppm":"0.57","o3_ppb":"4","o3_8hr_ppb":"12","pm10_ug_m3":"29","pm2_5_ug_m3":"19","no2_ppb":"19","nox_ppb":"20.2","no_ppb":"0.6","wind_speed_m_sec":"","wind_direction_degree":"","co_8hr_ppm":"0.6","pm2_5_avg_ug_m3":"20","pm10_avg_ug_m3":"34","so2_avg_ppb":"1","publish_time":"2026/05/03 04:00:00","import_date":"","source_dataset":"MOENV AQX_P_432","updated_at":"2026-05-03T04:37:46+08:00","pressure_type":"空氣","score":"72"}},{"type":"Feature","geometry":{"type":"Point","coordinates":[121.5366,25.2968]},"properties":{"city":"新北市","district":"石門區","site_id":"84","site_name":"富貴角","status":"普通","aqi":"56","pollutant":"細懸浮微粒","so2_ppb":"0.7","co_ppm":"0.28","o3_ppb":"31","o3_8hr_ppb":"36","pm10_ug_m3":"27","pm2_5_ug_m3":"13","no2_ppb":"5","nox_ppb":"5.3","no_ppb":"0","wind_speed_m_sec":"1.2","wind_direction_degree":"234","co_8hr_ppm":"0.2","pm2_5_avg_ug_m3":"14.5","pm10_avg_ug_m3":"27","so2_avg_ppb":"0","publish_time":"2026/05/03 04:00:00","import_date":"","source_dataset":"MOENV AQX_P_432","updated_at":"2026-05-03T04:37:46+08:00","pressure_type":"空氣","score":"56"}},{"type":"Feature","geometry":{"type":"Point","coordinates":[121.5265,25.0624]},"properties":{"city":"臺北市","district":"中山區","site_id":"12","site_name":"中山","status":"普通","aqi":"67","pollutant":"細懸浮微粒","so2_ppb":"0.5","co_ppm":"0.28","o3_ppb":"14","o3_8hr_ppb":"12","pm10_ug_m3":"23","pm2_5_ug_m3":"15","no2_ppb":"7","nox_ppb":"8.5","no_ppb":"0.6","wind_speed_m_sec":"0.9","wind_direction_degree":"208","co_8hr_ppm":"0.5","pm2_5_avg_ug_m3":"18.3","pm10_avg_ug_m3":"30","so2_avg_ppb":"0","publish_time":"2026/05/03 04:00:00","import_date":"","source_dataset":"MOENV AQX_P_432","updated_at":"2026-05-03T04:37:46+08:00","pressure_type":"空氣","score":"67"}},{"type":"Feature","geometry":{"type":"Point","coordinates":[121.5167,25.1033]},"properties":{"city":"臺北市","district":"北投區","site_id":"11","site_name":"士林","status":"普通","aqi":"61","pollutant":"細懸浮微粒","so2_ppb":"0.8","co_ppm":"0.36","o3_ppb":"9","o3_8hr_ppb":"17","pm10_ug_m3":"21","pm2_5_ug_m3":"14","no2_ppb":"9","nox_ppb":"10.2","no_ppb":"1.1","wind_speed_m_sec":"0.4","wind_direction_degree":"18","co_8hr_ppm":"0.4","pm2_5_avg_ug_m3":"16.1","pm10_avg_ug_m3":"26","so2_avg_ppb":"1","publish_time":"2026/05/03 04:00:00","import_date":"","source_dataset":"MOENV AQX_P_432","updated_at":"2026-05-03T04:37:46+08:00","pressure_type":"空氣","score":"61"}},{"type":"Feature","geometry":{"type":"Point","coordinates":[121.5296,25.1827]},"properties":{"city":"臺北市","district":"北投區","site_id":"64","site_name":"陽明","status":"良好","aqi":"44","pollutant":"","so2_ppb":"1.1","co_ppm":"0.26","o3_ppb":"57","o3_8hr_ppb":"47","pm10_ug_m3":"38","pm2_5_ug_m3":"18","no2_ppb":"4","nox_ppb":"4.3","no_ppb":"0.1","wind_speed_m_sec":"","wind_direction_degree":"","co_8hr_ppm":"0.2","pm2_5_avg_ug_m3":"11","pm10_avg_ug_m3":"26","so2_avg_ppb":"1","publish_time":"2026/05/03 04:00:00","import_date":"","source_dataset":"MOENV AQX_P_432","updated_at":"2026-05-03T04:37:46+08:00","pressure_type":"空氣","score":"44"}},{"type":"Feature","geometry":{"type":"Point","coordinates":[121.5134,25.0633]},"properties":{"city":"臺北市","district":"大同區","site_id":"16","site_name":"大同","status":"普通","aqi":"73","pollutant":"細懸浮微粒","so2_ppb":"0.3","co_ppm":"0.44","o3_ppb":"10","o3_8hr_ppb":"4","pm10_ug_m3":"15","pm2_5_ug_m3":"16","no2_ppb":"11","nox_ppb":"13.7","no_ppb":"2.5","wind_speed_m_sec":"","wind_direction_degree":"","co_8hr_ppm":"0.9","pm2_5_avg_ug_m3":"20.6","pm10_avg_ug_m3":"27","so2_avg_ppb":"0","publish_time":"2026/05/03 04:00:00","import_date":"","source_dataset":"MOENV AQX_P_432","updated_at":"2026-05-03T04:37:46+08:00","pressure_type":"空氣","score":"73"}},{"type":"Feature","geometry":{"type":"Point","coordinates":[121.5296,25.0206]},"properties":{"city":"臺北市","district":"大安區","site_id":"14","site_name":"古亭","status":"普通","aqi":"52","pollutant":"細懸浮微粒","so2_ppb":"1.1","co_ppm":"0.25","o3_ppb":"13","o3_8hr_ppb":"17","pm10_ug_m3":"20","pm2_5_ug_m3":"16","no2_ppb":"5","nox_ppb":"6.5","no_ppb":"0.7","wind_speed_m_sec":"0.8","wind_direction_degree":"154","co_8hr_ppm":"0.3","pm2_5_avg_ug_m3":"12.9","pm10_avg_ug_m3":"24","so2_avg_ppb":"1","publish_time":"2026/05/03 04:00:00","import_date":"","source_dataset":"MOENV AQX_P_432","updated_at":"2026-05-03T04:37:46+08:00","pressure_type":"空氣","score":"52"}},{"type":"Feature","geometry":{"type":"Point","coordinates":[121.5786,25.05]},"properties":{"city":"臺北市","district":"松山區","site_id":"15","site_name":"松山","status":"良好","aqi":"49","pollutant":"","so2_ppb":"0","co_ppm":"0.33","o3_ppb":"13","o3_8hr_ppb":"12","pm10_ug_m3":"20","pm2_5_ug_m3":"11","no2_ppb":"10","nox_ppb":"13.5","no_ppb":"2.9","wind_speed_m_sec":"0.4","wind_direction_degree":"194","co_8hr_ppm":"0.4","pm2_5_avg_ug_m3":"12.2","pm10_avg_ug_m3":"24","so2_avg_ppb":"2","publish_time":"2026/05/03 04:00:00","import_date":"","source_dataset":"MOENV AQX_P_432","updated_at":"2026-05-03T04:37:46+08:00","pressure_type":"空氣","score":"49"}},{"type":"Feature","geometry":{"type":"Point","coordinates":[121.508,25.0465]},"properties":{"city":"臺北市","district":"萬華區","site_id":"13","site_name":"萬華","status":"普通","aqi":"60","pollutant":"細懸浮微粒","so2_ppb":"0.5","co_ppm":"0.27","o3_ppb":"13","o3_8hr_ppb":"13","pm10_ug_m3":"17","pm2_5_ug_m3":"13","no2_ppb":"6","nox_ppb":"6.7","no_ppb":"0.5","wind_speed_m_sec":"0.6","wind_direction_degree":"151","co_8hr_ppm":"0.4","pm2_5_avg_ug_m3":"15.8","pm10_avg_ug_m3":"27","so2_avg_ppb":"0","publish_time":"2026/05/03 04:00:00","import_date":"","source_dataset":"MOENV AQX_P_432","updated_at":"2026-05-03T04:37:46+08:00","pressure_type":"空氣","score":"60"}}]}