{
   "type": "FeatureCollection",
   "features": [
  {
    "type": "Feature",
    "geometry": {
       "type": "Point",
       "coordinates":  [ 121.6284,25.2194 ]
    },
    "properties": {
    "city":"newtaipei",
    "facility_type":"hospital",
    "category":"醫院",
    "name":"國立臺灣大學醫學院附設醫院金山分院",
    "district_code":"",
    "district":"金山區",
    "address":"新北市金山區五湖里玉爐路7號",
    "source_dataset":"newtaipei_hospital"
    }
  },
  {
    "type": "Feature",
    "geometry": {
       "type": "Point",
       "coordinates":  [ 121.4523,24.9973 ]
    },
    "properties": {
    "city":"newtaipei",
    "facility_type":"hospital",
    "category":"醫院",
    "name":"醫療財團法人徐元智先生醫藥基金會亞東紀念醫院",
    "district_code":"",
    "district":"板橋區",
    "address":"新北市板橋區南雅南路二段21號及高爾富路300號",
    "source_dataset":"newtaipei_hospital"
    }
  },
  {
    "type": "Feature",
    "geometry": {
       "type": "Point",
       "coordinates":  [ 121.4603,25.002 ]
    },
    "properties": {
    "city":"newtaipei",
    "facility_type":"hospital",
    "category":"醫院",
    "name":"板橋中興醫院",
    "district_code":"",
    "district":"板橋區",
    "address":"新北市板橋區忠孝路十五號",
    "source_dataset":"newtaipei_hospital"
    }
  },
  {
    "type": "Feature",
    "geometry": {
       "type": "Point",
       "coordinates":  [ 121.4601,25.002 ]
    },
    "properties": {
    "city":"newtaipei",
    "facility_type":"hospital",
    "category":"醫院",
    "name":"板橋國泰醫院",
    "district_code":"",
    "district":"板橋區",
    "address":"新北市板橋區忠孝路五、七、九、十一號一至三樓。",
    "source_dataset":"newtaipei_hospital"
    }
  },
  {
    "type": "Feature",
    "geometry": {
       "type": "Point",
       "coordinates":  [ 121.4564,25.0169 ]
    },
    "properties": {
    "city":"newtaipei",
    "facility_type":"hospital",
    "category":"醫院",
    "name":"板新醫院",
    "district_code":"",
    "district":"板橋區",
    "address":"新北市板橋區中正路１８９號",
    "source_dataset":"newtaipei_hospital"
    }
  },
  {
    "type": "Feature",
    "geometry": {
       "type": "Point",
       "coordinates":  [ 121.4646,25.0185 ]
    },
    "properties": {
    "city":"newtaipei",
    "facility_type":"hospital",
    "category":"醫院",
    "name":"中英醫療社團法人板英醫院",
    "district_code":"",
    "district":"板橋區",
    "address":"新北市板橋區文化路1段267、269、271號1-4樓",
    "source_dataset":"newtaipei_hospital"
    }
  },
  {
    "type": "Feature",
    "geometry": {
       "type": "Point",
       "coordinates":  [ 121.4662,25.0198 ]
    },
    "properties": {
    "city":"newtaipei",
    "facility_type":"hospital",
    "category":"醫院",
    "name":"中英醫療社團法人中英醫院",
    "district_code":"",
    "district":"板橋區",
    "address":"新北市板橋區文化路一段192之1號1樓、194號1至4樓、196號1至4樓、198號1至4樓、200號1至4樓、202號1至4樓、204號1至4樓",
    "source_dataset":"newtaipei_hospital"
    }
  },
  {
    "type": "Feature",
    "geometry": {
       "type": "Point",
       "coordinates":  [ 121.4565,25.007 ]
    },
    "properties": {
    "city":"newtaipei",
    "facility_type":"hospital",
    "category":"醫院",
    "name":"蕭中正醫院",
    "district_code":"",
    "district":"板橋區",
    "address":"新北市板橋區南雅南路一段15號之1、17號、19號(1、2、3、4樓)",
    "source_dataset":"newtaipei_hospital"
    }
  },
  {
    "type": "Feature",
    "geometry": {
       "type": "Point",
       "coordinates":  [ 121.6611,25.0729 ]
    },
    "properties": {
    "city":"newtaipei",
    "facility_type":"hospital",
    "category":"醫院",
    "name":"國泰醫療財團法人汐止國泰綜合醫院",
    "district_code":"",
    "district":"汐止區",
    "address":"新北市汐止區建成路59巷2號地下4樓至地上12樓",
    "source_dataset":"newtaipei_hospital"
    }
  },
  {
    "type": "Feature",
    "geometry": {
       "type": "Point",
       "coordinates":  [ 121.8026,25.1083 ]
    },
    "properties": {
    "city":"newtaipei",
    "facility_type":"hospital",
    "category":"醫院",
    "name":"瑞芳礦工醫院",
    "district_code":"",
    "district":"瑞芳區",
    "address":"新北市瑞芳區一坑路71之2號",
    "source_dataset":"newtaipei_hospital"
    }
  },
  {
    "type": "Feature",
    "geometry": {
       "type": "Point",
       "coordinates":  [ 121.5356,24.9841 ]
    },
    "properties": {
    "city":"newtaipei",
    "facility_type":"hospital",
    "category":"醫院",
    "name":"佛教慈濟醫療財團法人台北慈濟醫院",
    "district_code":"",
    "district":"新店區",
    "address":"新北市新店區建國路277號地上1、3、4樓及289號地下1至3樓至地上1至15樓",
    "source_dataset":"newtaipei_hospital"
    }
  },
  {
    "type": "Feature",
    "geometry": {
       "type": "Point",
       "coordinates":  [ 121.488,24.9386 ]
    },
    "properties": {
    "city":"newtaipei",
    "facility_type":"hospital",
    "category":"醫院",
    "name":"宏慈療養院",
    "district_code":"",
    "district":"新店區",
    "address":"新北市新店區安泰路１５７號",
    "source_dataset":"newtaipei_hospital"
    }
  },
  {
    "type": "Feature",
    "geometry": {
       "type": "Point",
       "coordinates":  [ 121.4997,24.9555 ]
    },
    "properties": {
    "city":"newtaipei",
    "facility_type":"hospital",
    "category":"醫院",
    "name":"新北仁康醫院",
    "district_code":"",
    "district":"新店區",
    "address":"新北市新店區安康路2段323號地上1至2樓",
    "source_dataset":"newtaipei_hospital"
    }
  },
  {
    "type": "Feature",
    "geometry": {
       "type": "Point",
       "coordinates":  [ 121.5377,24.9828 ]
    },
    "properties": {
    "city":"newtaipei",
    "facility_type":"hospital",
    "category":"醫院",
    "name":"同仁醫院",
    "district_code":"",
    "district":"新店區",
    "address":"新北市新店區民權路８９號",
    "source_dataset":"newtaipei_hospital"
    }
  },
  {
    "type": "Feature",
    "geometry": {
       "type": "Point",
       "coordinates":  [ 121.514,24.9589 ]
    },
    "properties": {
    "city":"newtaipei",
    "facility_type":"hospital",
    "category":"醫院",
    "name":"怡濟慈園醫療社團法人宏濟神經精神科醫院",
    "district_code":"",
    "district":"新店區",
    "address":"新北市新店區安忠路57巷5號",
    "source_dataset":"newtaipei_hospital"
    }
  },
  {
    "type": "Feature",
    "geometry": {
       "type": "Point",
       "coordinates":  [ 121.5356,24.9761 ]
    },
    "properties": {
    "city":"newtaipei",
    "facility_type":"hospital",
    "category":"醫院",
    "name":"天主教耕莘醫療財團法人耕莘醫院",
    "district_code":"",
    "district":"新店區",
    "address":"新北市新店區中正路362號",
    "source_dataset":"newtaipei_hospital"
    }
  },
  {
    "type": "Feature",
    "geometry": {
       "type": "Point",
       "coordinates":  [ 121.5179,25.0119 ]
    },
    "properties": {
    "city":"newtaipei",
    "facility_type":"hospital",
    "category":"醫院",
    "name":"天主教耕莘醫療財團法人永和耕莘醫院",
    "district_code":"",
    "district":"永和區",
    "address":"新北市永和區中興街80號地下1樓至地上6樓及國光路123號地下3樓至地上11樓",
    "source_dataset":"newtaipei_hospital"
    }
  },
  {
    "type": "Feature",
    "geometry": {
       "type": "Point",
       "coordinates":  [ 121.512,25.004 ]
    },
    "properties": {
    "city":"newtaipei",
    "facility_type":"hospital",
    "category":"醫院",
    "name":"永和復康醫院",
    "district_code":"",
    "district":"永和區",
    "address":"新北市永和區中和路575、577、579號1至4樓",
    "source_dataset":"newtaipei_hospital"
    }
  },
  {
    "type": "Feature",
    "geometry": {
       "type": "Point",
       "coordinates":  [ 121.4941,24.9937 ]
    },
    "properties": {
    "city":"newtaipei",
    "facility_type":"hospital",
    "category":"醫院",
    "name":"衛生福利部雙和醫院(委託臺北醫學大學興建經營)",
    "district_code":"",
    "district":"中和區",
    "address":"新北市中和區中正路291號醫療大樓地下2層至地上12層",
    "source_dataset":"newtaipei_hospital"
    }
  },
  {
    "type": "Feature",
    "geometry": {
       "type": "Point",
       "coordinates":  { }
    },
    "properties": {
    "city":"newtaipei",
    "facility_type":"hospital",
    "category":"醫院",
    "name":"祥顥醫院",
    "district_code":"",
    "district":"新莊區",
    "address":"新北市新莊區思源路2號1、4、5、6樓",
    "source_dataset":"newtaipei_hospital"
    }
  },
  {
    "type": "Feature",
    "geometry": {
       "type": "Point",
       "coordinates":  [ 121.4985,25.0019 ]
    },
    "properties": {
    "city":"newtaipei",
    "facility_type":"hospital",
    "category":"醫院",
    "name":"怡和醫院",
    "district_code":"",
    "district":"中和區",
    "address":"新北市中和區連城路49號1至4樓",
    "source_dataset":"newtaipei_hospital"
    }
  },
  {
    "type": "Feature",
    "geometry": {
       "type": "Point",
       "coordinates":  [ 121.4809,25.0054 ]
    },
    "properties": {
    "city":"newtaipei",
    "facility_type":"hospital",
    "category":"醫院",
    "name":"蕙生醫院",
    "district_code":"",
    "district":"中和區",
    "address":"新北市中和區中山路二段551號地下一樓至地上一至六樓",
    "source_dataset":"newtaipei_hospital"
    }
  },
  {
    "type": "Feature",
    "geometry": {
       "type": "Point",
       "coordinates":  [ 121.5021,25.0032 ]
    },
    "properties": {
    "city":"newtaipei",
    "facility_type":"hospital",
    "category":"醫院",
    "name":"中祥醫院",
    "district_code":"",
    "district":"中和區",
    "address":"新北市中和區中山路二段138號〈二至四樓〉?140及142號〈一至四樓〉",
    "source_dataset":"newtaipei_hospital"
    }
  },
  {
    "type": "Feature",
    "geometry": {
       "type": "Point",
       "coordinates":  [ 121.455,24.9822 ]
    },
    "properties": {
    "city":"newtaipei",
    "facility_type":"hospital",
    "category":"醫院",
    "name":"廣川醫院",
    "district_code":"",
    "district":"土城區",
    "address":"新北市土城區裕民路２７４．２７６．２７８號",
    "source_dataset":"newtaipei_hospital"
    }
  },
  {
    "type": "Feature",
    "geometry": {
       "type": "Point",
       "coordinates":  [ 121.4487,24.9911 ]
    },
    "properties": {
    "city":"newtaipei",
    "facility_type":"hospital",
    "category":"醫院",
    "name":"恩樺醫院",
    "district_code":"",
    "district":"土城區",
    "address":"新北市土城區中央路一段7-18號地下1樓、1樓、2樓、4至10樓",
    "source_dataset":"newtaipei_hospital"
    }
  },
  {
    "type": "Feature",
    "geometry": {
       "type": "Point",
       "coordinates":  [ 121.4474,24.9895 ]
    },
    "properties": {
    "city":"newtaipei",
    "facility_type":"hospital",
    "category":"醫院",
    "name":"仁安醫院",
    "district_code":"",
    "district":"土城區",
    "address":"新北市土城區中央路1段六二．六四號1-５樓中華路一段一號2-5樓三號1-5樓",
    "source_dataset":"newtaipei_hospital"
    }
  },
  {
    "type": "Feature",
    "geometry": {
       "type": "Point",
       "coordinates":  { }
    },
    "properties": {
    "city":"newtaipei",
    "facility_type":"hospital",
    "category":"醫院",
    "name":"新北市立土城醫院(委託長庚醫療財團法人興建經營)",
    "district_code":"",
    "district":"土城區",
    "address":"新北市土城區金城路二段6號",
    "source_dataset":"newtaipei_hospital"
    }
  },
  {
    "type": "Feature",
    "geometry": {
       "type": "Point",
       "coordinates":  [ 121.4403,24.9728 ]
    },
    "properties": {
    "city":"newtaipei",
    "facility_type":"hospital",
    "category":"醫院",
    "name":"元復醫院",
    "district_code":"",
    "district":"土城區",
    "address":"新北市土城區中央路2段318．320．322．324號1至4樓",
    "source_dataset":"newtaipei_hospital"
    }
  },
  {
    "type": "Feature",
    "geometry": {
       "type": "Point",
       "coordinates":  [ 121.3782,24.9307 ]
    },
    "properties": {
    "city":"newtaipei",
    "facility_type":"hospital",
    "category":"醫院",
    "name":"永聖醫療社團法人文化醫院",
    "district_code":"",
    "district":"三峽區",
    "address":"新北市三峽區介壽路1段199號",
    "source_dataset":"newtaipei_hospital"
    }
  },
  {
    "type": "Feature",
    "geometry": {
       "type": "Point",
       "coordinates":  [ 121.3802,24.929 ]
    },
    "properties": {
    "city":"newtaipei",
    "facility_type":"hospital",
    "category":"醫院",
    "name":"清福醫院",
    "district_code":"",
    "district":"三峽區",
    "address":"新北市三峽區介壽路一段286號2樓",
    "source_dataset":"newtaipei_hospital"
    }
  }
]
}