{"type": "FeatureCollection", "features": [{"type": "Feature", "geometry": {"type": "Point", "coordinates": [121.38151, 25.14027]}, "properties": {"city": "新北市", "city_code": 65000, "district": "八里區", "device_id": "ntpc-1", "road_segment": "", "location": "中山路3段與下罟子漁港路口（往八里）", "address": "中山路3段與下罟子漁港路口（往八里）", "violation_type": "闖紅燈、超速", "direction": "西南向東北", "speed_limit": "50", "department": "新北市政府警察局", "branch": "交通大隊", "source_dataset": "新北市固定式測速照相 OpenAPI", "violation_group": "複合取締"}}, {"type": "Feature", "geometry": {"type": "Point", "coordinates": [121.42318, 25.15862]}, "properties": {"city": "新北市", "city_code": 65000, "district": "八里區", "device_id": "ntpc-2", "road_segment": "", "location": "中華路1段與中山路口（往臺北）", "address": "中華路1段與中山路口（往臺北）", "violation_type": "闖紅燈、超速", "direction": "西南向東北", "speed_limit": "50", "department": "新北市政府警察局", "branch": "交通大隊", "source_dataset": "新北市固定式測速照相 OpenAPI", "violation_group": "複合取締"}}, {"type": "Feature", "geometry": {"type": "Point", "coordinates": [121.40706, 25.15087]}, "properties": {"city": "新北市", "city_code": 65000, "district": "八里區", "device_id": "ntpc-3", "road_segment": "", "location": "中華路2段165巷（往龍米路3段）", "address": "中華路2段165巷（往龍米路3段）", "violation_type": "闖紅燈、超速", "direction": "西南向東北", "speed_limit": "50", "department": "新北市政府警察局", "branch": "交通大隊", "source_dataset": "新北市固定式測速照相 OpenAPI", "violation_group": "複合取締"}}, {"type": "Feature", "geometry": {"type": "Point", "coordinates": [121.39088, 25.12536]}, "properties": {"city": "新北市", "city_code": 65000, "district": "八里區", "device_id": "ntpc-4", "road_segment": "", "location": "中華路3段236號長坑國小前（往八里）", "address": "中華路3段236號長坑國小前（往八里）", "violation_type": "超速", "direction": "南向北", "speed_limit": "40", "department": "新北市政府警察局", "branch": "交通大隊", "source_dataset": "新北市固定式測速照相 OpenAPI", "violation_group": "超速"}}, {"type": "Feature", "geometry": {"type": "Point", "coordinates": [121.45148, 25.13215]}, "properties": {"city": "新北市", "city_code": 65000, "district": "八里區", "device_id": "ntpc-5", "road_segment": "", "location": "龍米路1段與龍形三街口（往臺北）", "address": "龍米路1段與龍形三街口（往臺北）", "violation_type": "闖紅燈、超速", "direction": "北向南", "speed_limit": "50", "department": "新北市政府警察局", "branch": "交通大隊", "source_dataset": "新北市固定式測速照相 OpenAPI", "violation_group": "複合取締"}}, {"type": "Feature", "geometry": {"type": "Point", "coordinates": [121.44082, 25.15291]}, "properties": {"city": "新北市", "city_code": 65000, "district": "八里區", "device_id": "ntpc-6", "road_segment": "", "location": "龍米路2段153之3號前（往八里）", "address": "龍米路2段153之3號前（往八里）", "violation_type": "超速", "direction": "東南向西北", "speed_limit": "50", "department": "新北市政府警察局", "branch": "交通大隊", "source_dataset": "新北市固定式測速照相 OpenAPI", "violation_group": "超速"}}, {"type": "Feature", "geometry": {"type": "Point", "coordinates": [121.44565, 25.14733]}, "properties": {"city": "新北市", "city_code": 65000, "district": "八里區", "device_id": "ntpc-7", "road_segment": "", "location": "龍米路2段米倉國小前（雙向）", "address": "龍米路2段米倉國小前（雙向）", "violation_type": "超速", "direction": "東南向西北", "speed_limit": "50", "department": "新北市政府警察局", "branch": "交通大隊", "source_dataset": "新北市固定式測速照相 OpenAPI", "violation_group": "超速"}}, {"type": "Feature", "geometry": {"type": "Point", "coordinates": [121.434679, 25.158132]}, "properties": {"city": "新北市", "city_code": 65000, "district": "八里區", "device_id": "ntpc-8", "road_segment": "", "location": "龍米路2段與渡船頭街口（往中山路）", "address": "龍米路2段與渡船頭街口（往中山路）", "violation_type": "闖紅燈、超速", "direction": "東向西", "speed_limit": "50", "department": "新北市政府警察局", "branch": "交通大隊", "source_dataset": "新北市固定式測速照相 OpenAPI", "violation_group": "複合取締"}}, {"type": "Feature", "geometry": {"type": "Point", "coordinates": [121.42531, 25.15932]}, "properties": {"city": "新北市", "city_code": 65000, "district": "八里區", "device_id": "ntpc-9", "road_segment": "", "location": "龍米路3段48-51號（往中山路）", "address": "龍米路3段48-51號（往中山路）", "violation_type": "超速", "direction": "東向西", "speed_limit": "50", "department": "新北市政府警察局", "branch": "交通大隊", "source_dataset": "新北市固定式測速照相 OpenAPI", "violation_group": "超速"}}, {"type": "Feature", "geometry": {"type": "Point", "coordinates": [121.488767, 25.059224]}, "properties": {"city": "新北市", "city_code": 65000, "district": "三重區", "device_id": "ntpc-10", "road_segment": "", "location": "中山高架橋上（往新莊）", "address": "中山高架橋上（往新莊）", "violation_type": "超速", "direction": "東南向西北", "speed_limit": "50", "department": "新北市政府警察局", "branch": "交通大隊", "source_dataset": "新北市固定式測速照相 OpenAPI", "violation_group": "超速"}}, {"type": "Feature", "geometry": {"type": "Point", "coordinates": [121.480477, 25.059704]}, "properties": {"city": "新北市", "city_code": 65000, "district": "三重區", "device_id": "ntpc-11", "road_segment": "", "location": "水漾路1段300號前（雙向）", "address": "水漾路1段300號前（雙向）", "violation_type": "超速", "direction": "西北向東南", "speed_limit": "50", "department": "新北市政府警察局", "branch": "三重分局", "source_dataset": "新北市固定式測速照相 OpenAPI", "violation_group": "超速"}}, {"type": "Feature", "geometry": {"type": "Point", "coordinates": [121.467046, 25.040998]}, "properties": {"city": "新北市", "city_code": 65000, "district": "三重區", "device_id": "ntpc-12", "road_segment": "", "location": "重新堤外道8.9公里處（往新莊）", "address": "重新堤外道8.9公里處（往新莊）", "violation_type": "超速", "direction": "東北向西南", "speed_limit": "50", "department": "新北市政府警察局", "branch": "交通大隊", "source_dataset": "新北市固定式測速照相 OpenAPI", "violation_group": "超速"}}, {"type": "Feature", "geometry": {"type": "Point", "coordinates": [121.48974, 25.058707]}, "properties": {"city": "新北市", "city_code": 65000, "district": "三重區", "device_id": "ntpc-13", "road_segment": "", "location": "重新路3段157號前（雙向）", "address": "重新路3段157號前（雙向）", "violation_type": "闖紅燈、超速", "direction": "東北向西南", "speed_limit": "50", "department": "新北市政府警察局", "branch": "交通大隊", "source_dataset": "新北市固定式測速照相 OpenAPI", "violation_group": "複合取締"}}, {"type": "Feature", "geometry": {"type": "Point", "coordinates": [121.491539, 25.05026]}, "properties": {"city": "新北市", "city_code": 65000, "district": "三重區", "device_id": "ntpc-14", "road_segment": "", "location": "新北環河快速道路3.2公里處（往中和）", "address": "新北環河快速道路3.2公里處（往中和）", "violation_type": "超速", "direction": "東北向西南", "speed_limit": "70", "department": "新北市政府警察局", "branch": "交通大隊", "source_dataset": "新北市固定式測速照相 OpenAPI", "violation_group": "超速"}}, {"type": "Feature", "geometry": {"type": "Point", "coordinates": [121.485684, 25.047055]}, "properties": {"city": "新北市", "city_code": 65000, "district": "三重區", "device_id": "ntpc-15", "road_segment": "", "location": "新北環河快速道路新北大橋旁（往中和）", "address": "新北環河快速道路新北大橋旁（往中和）", "violation_type": "超速", "direction": "東向西", "speed_limit": "70", "department": "新北市政府警察局", "branch": "交通大隊", "source_dataset": "新北市固定式測速照相 OpenAPI", "violation_group": "超速"}}, {"type": "Feature", "geometry": {"type": "Point", "coordinates": [121.499081, 25.082372]}, "properties": {"city": "新北市", "city_code": 65000, "district": "三重區", "device_id": "ntpc-16", "road_segment": "", "location": "環河北路2段304號（往蘆洲）", "address": "環河北路2段304號（往蘆洲）", "violation_type": "超速", "direction": "東南向西北", "speed_limit": "50", "department": "新北市政府警察局", "branch": "交通大隊", "source_dataset": "新北市固定式測速照相 OpenAPI", "violation_group": "超速"}}, {"type": "Feature", "geometry": {"type": "Point", "coordinates": [121.494252, 25.088356]}, "properties": {"city": "新北市", "city_code": 65000, "district": "三重區", "device_id": "ntpc-17", "road_segment": "", "location": "環河北路3段166號前（往三重或蘆洲）", "address": "環河北路3段166號前（往三重或蘆洲）", "violation_type": "超速", "direction": "東南向西北", "speed_limit": "50", "department": "新北市政府警察局", "branch": "交通大隊", "source_dataset": "新北市固定式測速照相 OpenAPI", "violation_group": "超速"}}, {"type": "Feature", "geometry": {"type": "Point", "coordinates": [121.497331, 25.085076]}, "properties": {"city": "新北市", "city_code": 65000, "district": "三重區", "device_id": "ntpc-18", "road_segment": "", "location": "環河北路3段重陽橋下（往三重）", "address": "環河北路3段重陽橋下（往三重）", "violation_type": "超速", "direction": "西北向東南", "speed_limit": "50", "department": "新北市政府警察局", "branch": "交通大隊", "source_dataset": "新北市固定式測速照相 OpenAPI", "violation_group": "超速"}}, {"type": "Feature", "geometry": {"type": "Point", "coordinates": [121.50368, 25.06275]}, "properties": {"city": "新北市", "city_code": 65000, "district": "三重區", "device_id": "ntpc-19", "road_segment": "", "location": "環河南路17號前（雙向）", "address": "環河南路17號前（雙向）", "violation_type": "超速", "direction": "北向南", "speed_limit": "50", "department": "新北市政府警察局", "branch": "交通大隊", "source_dataset": "新北市固定式測速照相 OpenAPI", "violation_group": "超速"}}, {"type": "Feature", "geometry": {"type": "Point", "coordinates": [121.499142, 25.056368]}, "properties": {"city": "新北市", "city_code": 65000, "district": "三重區", "device_id": "ntpc-20", "road_segment": "", "location": "環河南路與正義南路口（北向）", "address": "環河南路與正義南路口（北向）", "violation_type": "超速", "direction": "西南向東北", "speed_limit": "50", "department": "新北市政府警察局", "branch": "交通大隊", "source_dataset": "新北市固定式測速照相 OpenAPI", "violation_group": "超速"}}, {"type": "Feature", "geometry": {"type": "Point", "coordinates": [121.499283, 25.056678]}, "properties": {"city": "新北市", "city_code": 65000, "district": "三重區", "device_id": "ntpc-21", "road_segment": "", "location": "環河南路與正義南路口（南向）", "address": "環河南路與正義南路口（南向）", "violation_type": "超速", "direction": "東北向西南", "speed_limit": "50", "department": "新北市政府警察局", "branch": "交通大隊", "source_dataset": "新北市固定式測速照相 OpenAPI", "violation_group": "超速"}}, {"type": "Feature", "geometry": {"type": "Point", "coordinates": [121.371385, 24.895566]}, "properties": {"city": "新北市", "city_code": 65000, "district": "三峽區", "device_id": "ntpc-22", "road_segment": "", "location": "大埔路台7乙線1.97公里處（往三峽）", "address": "大埔路台7乙線1.97公里處（往三峽）", "violation_type": "超速", "direction": "東南向西北", "speed_limit": "40", "department": "新北市政府警察局", "branch": "交通大隊", "source_dataset": "新北市固定式測速照相 OpenAPI", "violation_group": "超速"}}, {"type": "Feature", "geometry": {"type": "Point", "coordinates": [121.360742, 24.860182]}, "properties": {"city": "新北市", "city_code": 65000, "district": "三峽區", "device_id": "ntpc-23", "road_segment": "", "location": "大埔路台7乙線7.37公里處（往桃園）", "address": "大埔路台7乙線7.37公里處（往桃園）", "violation_type": "超速", "direction": "東北向西南", "speed_limit": "40", "department": "新北市政府警察局", "branch": "交通大隊", "source_dataset": "新北市固定式測速照相 OpenAPI", "violation_group": "超速"}}, {"type": "Feature", "geometry": {"type": "Point", "coordinates": [121.37678, 24.948079]}, "properties": {"city": "新北市", "city_code": 65000, "district": "三峽區", "device_id": "ntpc-24", "road_segment": "", "location": "大義路與學林路口（雙向）", "address": "大義路與學林路口（雙向）", "violation_type": "超速", "direction": "南向北", "speed_limit": "50", "department": "新北市政府警察局", "branch": "交通大隊", "source_dataset": "新北市固定式測速照相 OpenAPI", "violation_group": "超速"}}, {"type": "Feature", "geometry": {"type": "Point", "coordinates": [121.369398, 24.920136]}, "properties": {"city": "新北市", "city_code": 65000, "district": "三峽區", "device_id": "ntpc-25", "road_segment": "", "location": "中正路1段524號旁（往大溪）", "address": "中正路1段524號旁（往大溪）", "violation_type": "超速", "direction": "東向西", "speed_limit": "50", "department": "新北市政府警察局", "branch": "交通大隊", "source_dataset": "新北市固定式測速照相 OpenAPI", "violation_group": "超速"}}, {"type": "Feature", "geometry": {"type": "Point", "coordinates": [121.371871, 24.92668]}, "properties": {"city": "新北市", "city_code": 65000, "district": "三峽區", "device_id": "ntpc-26", "road_segment": "", "location": "中正路1段與大同路口（往復興路）", "address": "中正路1段與大同路口（往復興路）", "violation_type": "闖紅燈、超速", "direction": "南向北", "speed_limit": "50", "department": "新北市政府警察局", "branch": "交通大隊", "source_dataset": "新北市固定式測速照相 OpenAPI", "violation_group": "複合取締"}}, {"type": "Feature", "geometry": {"type": "Point", "coordinates": [121.365904, 24.912419]}, "properties": {"city": "新北市", "city_code": 65000, "district": "三峽區", "device_id": "ntpc-27", "road_segment": "", "location": "中正路2段264號前（往大溪）", "address": "中正路2段264號前（往大溪）", "violation_type": "超速", "direction": "北向南", "speed_limit": "50", "department": "新北市政府警察局", "branch": "交通大隊", "source_dataset": "新北市固定式測速照相 OpenAPI", "violation_group": "超速"}}, {"type": "Feature", "geometry": {"type": "Point", "coordinates": [121.337598, 24.897878]}, "properties": {"city": "新北市", "city_code": 65000, "district": "三峽區", "device_id": "ntpc-28", "road_segment": "", "location": "中正路3段262號前（雙向）", "address": "中正路3段262號前（雙向）", "violation_type": "超速", "direction": "東北向西南", "speed_limit": "50", "department": "新北市政府警察局", "branch": "交通大隊", "source_dataset": "新北市固定式測速照相 OpenAPI", "violation_group": "超速"}}, {"type": "Feature", "geometry": {"type": "Point", "coordinates": [121.401156, 24.943188]}, "properties": {"city": "新北市", "city_code": 65000, "district": "三峽區", "device_id": "ntpc-29", "road_segment": "", "location": "介壽路3段148號前（往土城）", "address": "介壽路3段148號前（往土城）", "violation_type": "超速", "direction": "西南向東北", "speed_limit": "50", "department": "新北市政府警察局", "branch": "交通大隊", "source_dataset": "新北市固定式測速照相 OpenAPI", "violation_group": "超速"}}, {"type": "Feature", "geometry": {"type": "Point", "coordinates": [121.45453, 24.932031]}, "properties": {"city": "新北市", "city_code": 65000, "district": "三峽區", "device_id": "ntpc-30", "road_segment": "", "location": "安坑路40號前（往三峽）", "address": "安坑路40號前（往三峽）", "violation_type": "超速", "direction": "東北向西南", "speed_limit": "40", "department": "新北市政府警察局", "branch": "交通大隊", "source_dataset": "新北市固定式測速照相 OpenAPI", "violation_group": "超速"}}, {"type": "Feature", "geometry": {"type": "Point", "coordinates": [121.373346, 24.90294]}, "properties": {"city": "新北市", "city_code": 65000, "district": "三峽區", "device_id": "ntpc-31", "road_segment": "", "location": "添福路107之15號旁（往插角）", "address": "添福路107之15號旁（往插角）", "violation_type": "超速", "direction": "西北向東南", "speed_limit": "40", "department": "新北市政府警察局", "branch": "交通大隊", "source_dataset": "新北市固定式測速照相 OpenAPI", "violation_group": "超速"}}, {"type": "Feature", "geometry": {"type": "Point", "coordinates": [121.407264, 24.932315]}, "properties": {"city": "新北市", "city_code": 65000, "district": "三峽區", "device_id": "ntpc-32", "road_segment": "", "location": "溪東路（市道110號30K+500M往三峽）", "address": "溪東路（市道110號30K+500M往三峽）", "violation_type": "超速", "direction": "東南向西北", "speed_limit": "30", "department": "新北市政府警察局", "branch": "交通大隊", "source_dataset": "新北市固定式測速照相 OpenAPI", "violation_group": "超速"}}, {"type": "Feature", "geometry": {"type": "Point", "coordinates": [121.375142, 24.87059]}, "properties": {"city": "新北市", "city_code": 65000, "district": "三峽區", "device_id": "ntpc-33", "road_segment": "", "location": "台7乙線5.3公里（往桃園）", "address": "台7乙線5.3公里（往桃園）", "violation_type": "超速", "direction": "東北向西南", "speed_limit": "40", "department": "新北市政府警察局", "branch": "三峽分局", "source_dataset": "新北市固定式測速照相 OpenAPI", "violation_group": "超速"}}, {"type": "Feature", "geometry": {"type": "Point", "coordinates": [121.431923, 24.965427]}, "properties": {"city": "新北市", "city_code": 65000, "district": "土城區", "device_id": "ntpc-34", "road_segment": "", "location": "中央路3段與大安路（往土城交流道）", "address": "中央路3段與大安路（往土城交流道）", "violation_type": "闖紅燈、超速", "direction": "西向東", "speed_limit": "50", "department": "新北市政府警察局", "branch": "交通大隊", "source_dataset": "新北市固定式測速照相 OpenAPI", "violation_group": "複合取締"}}, {"type": "Feature", "geometry": {"type": "Point", "coordinates": [121.42565, 24.962937]}, "properties": {"city": "新北市", "city_code": 65000, "district": "土城區", "device_id": "ntpc-35", "road_segment": "", "location": "中央路3段與中興路口（往三峽）", "address": "中央路3段與中興路口（往三峽）", "violation_type": "闖紅燈", "direction": "東北向西南", "speed_limit": "50", "department": "新北市政府警察局", "branch": "交通大隊", "source_dataset": "新北市固定式測速照相 OpenAPI", "violation_group": "闖紅燈"}}, {"type": "Feature", "geometry": {"type": "Point", "coordinates": [121.442624, 24.971012]}, "properties": {"city": "新北市", "city_code": 65000, "district": "土城區", "device_id": "ntpc-36", "road_segment": "", "location": "金城路1段62號（雙向）", "address": "金城路1段62號（雙向）", "violation_type": "超速", "direction": "東北向西南", "speed_limit": "50", "department": "新北市政府警察局", "branch": "交通大隊", "source_dataset": "新北市固定式測速照相 OpenAPI", "violation_group": "超速"}}, {"type": "Feature", "geometry": {"type": "Point", "coordinates": [121.438093, 24.980164]}, "properties": {"city": "新北市", "city_code": 65000, "district": "土城區", "device_id": "ntpc-37", "road_segment": "", "location": "台65線快速公路10.4公里（往土城）", "address": "台65線快速公路10.4公里（往土城）", "violation_type": "超速", "direction": "北向南", "speed_limit": "60", "department": "新北市政府警察局", "branch": "交通大隊", "source_dataset": "新北市固定式測速照相 OpenAPI", "violation_group": "超速"}}, {"type": "Feature", "geometry": {"type": "Point", "coordinates": [121.438283, 24.980099]}, "properties": {"city": "新北市", "city_code": 65000, "district": "土城區", "device_id": "ntpc-38", "road_segment": "", "location": "台65線快速公路10.4公里（往板橋）", "address": "台65線快速公路10.4公里（往板橋）", "violation_type": "超速", "direction": "南向北", "speed_limit": "60", "department": "新北市政府警察局", "branch": "交通大隊", "source_dataset": "新北市固定式測速照相 OpenAPI", "violation_group": "超速"}}, {"type": "Feature", "geometry": {"type": "Point", "coordinates": [121.439363, 24.983473]}, "properties": {"city": "新北市", "city_code": 65000, "district": "土城區", "device_id": "ntpc-39", "road_segment": "", "location": "擺接堡路1號裕德國小前（往土城或板橋）", "address": "擺接堡路1號裕德國小前（往土城或板橋）", "violation_type": "超速", "direction": "北向南", "speed_limit": "50", "department": "新北市政府警察局", "branch": "交通大隊", "source_dataset": "新北市固定式測速照相 OpenAPI", "violation_group": "超速"}}, {"type": "Feature", "geometry": {"type": "Point", "coordinates": [121.431781, 24.972386]}, "properties": {"city": "新北市", "city_code": 65000, "district": "土城區", "device_id": "ntpc-40", "road_segment": "", "location": "擺接堡路2.5公里處與自強街口（往板橋）", "address": "擺接堡路2.5公里處與自強街口（往板橋）", "violation_type": "闖紅燈、超速", "direction": "西南向東北", "speed_limit": "50", "department": "新北市政府警察局", "branch": "交通大隊", "source_dataset": "新北市固定式測速照相 OpenAPI", "violation_group": "複合取締"}}, {"type": "Feature", "geometry": {"type": "Point", "coordinates": [121.41541, 24.964461]}, "properties": {"city": "新北市", "city_code": 65000, "district": "土城區", "device_id": "ntpc-41", "road_segment": "", "location": "擺接堡路與民權街（往板橋）", "address": "擺接堡路與民權街（往板橋）", "violation_type": "闖紅燈、超速", "direction": "西南向東北", "speed_limit": "50", "department": "新北市政府警察局", "branch": "交通大隊", "source_dataset": "新北市固定式測速照相 OpenAPI", "violation_group": "複合取締"}}, {"type": "Feature", "geometry": {"type": "Point", "coordinates": [121.416254, 24.964877]}, "properties": {"city": "新北市", "city_code": 65000, "district": "土城區", "device_id": "ntpc-42", "road_segment": "", "location": "擺接堡路與民權街口（往三峽）", "address": "擺接堡路與民權街口（往三峽）", "violation_type": "闖紅燈、超速", "direction": "東北向西南", "speed_limit": "50", "department": "新北市政府警察局", "branch": "交通大隊", "source_dataset": "新北市固定式測速照相 OpenAPI", "violation_group": "複合取締"}}, {"type": "Feature", "geometry": {"type": "Point", "coordinates": [121.480166, 25.010177]}, "properties": {"city": "新北市", "city_code": 65000, "district": "中和區", "device_id": "ntpc-43", "road_segment": "", "location": "中正路1203號前（往中山路方向）", "address": "中正路1203號前（往中山路方向）", "violation_type": "超速", "direction": "西北向東南", "speed_limit": "50", "department": "新北市政府警察局", "branch": "交通大隊", "source_dataset": "新北市固定式測速照相 OpenAPI", "violation_group": "超速"}}, {"type": "Feature", "geometry": {"type": "Point", "coordinates": [121.482082, 25.009009]}, "properties": {"city": "新北市", "city_code": 65000, "district": "中和區", "device_id": "ntpc-44", "road_segment": "", "location": "台64線快速公路23公里（往西）", "address": "台64線快速公路23公里（往西）", "violation_type": "超速", "direction": "東南向西北", "speed_limit": "70", "department": "新北市政府警察局", "branch": "交通大隊", "source_dataset": "新北市固定式測速照相 OpenAPI", "violation_group": "超速"}}, {"type": "Feature", "geometry": {"type": "Point", "coordinates": [121.488889, 25.011088]}, "properties": {"city": "新北市", "city_code": 65000, "district": "中和區", "device_id": "ntpc-45", "road_segment": "", "location": "環河西路3段091161號燈桿旁（雙向）", "address": "環河西路3段091161號燈桿旁（雙向）", "violation_type": "超速", "direction": "西北向東南", "speed_limit": "50", "department": "新北市政府警察局", "branch": "交通大隊", "source_dataset": "新北市固定式測速照相 OpenAPI", "violation_group": "超速"}}, {"type": "Feature", "geometry": {"type": "Point", "coordinates": [121.452183, 25.099509]}, "properties": {"city": "新北市", "city_code": 65000, "district": "五股區", "device_id": "ntpc-46", "road_segment": "", "location": "台64線快速公路9.5公里（往西）", "address": "台64線快速公路9.5公里（往西）", "violation_type": "超速", "direction": "西南向東北", "speed_limit": "80", "department": "新北市政府警察局", "branch": "交通大隊", "source_dataset": "新北市固定式測速照相 OpenAPI", "violation_group": "超速"}}, {"type": "Feature", "geometry": {"type": "Point", "coordinates": [121.455612, 25.109811]}, "properties": {"city": "新北市", "city_code": 65000, "district": "五股區", "device_id": "ntpc-47", "road_segment": "", "location": "成泰路4段43號前（雙向）", "address": "成泰路4段43號前（雙向）", "violation_type": "超速", "direction": "北向南", "speed_limit": "50", "department": "新北市政府警察局", "branch": "交通大隊", "source_dataset": "新北市固定式測速照相 OpenAPI", "violation_group": "超速"}}, {"type": "Feature", "geometry": {"type": "Point", "coordinates": [121.452599, 25.08391]}, "properties": {"city": "新北市", "city_code": 65000, "district": "五股區", "device_id": "ntpc-48", "road_segment": "", "location": "疏洪一路1K+535（雙向）", "address": "疏洪一路1K+535（雙向）", "violation_type": "超速", "direction": "北向南", "speed_limit": "50", "department": "新北市政府警察局", "branch": "交通大隊", "source_dataset": "新北市固定式測速照相 OpenAPI", "violation_group": "超速"}}, {"type": "Feature", "geometry": {"type": "Point", "coordinates": [121.443413, 25.086545]}, "properties": {"city": "新北市", "city_code": 65000, "district": "五股區", "device_id": "ntpc-49", "road_segment": "", "location": "新五路2段347號前（往新莊或往五股）", "address": "新五路2段347號前（往新莊或往五股）", "violation_type": "闖紅燈、超速", "direction": "東北向西南", "speed_limit": "50", "department": "新北市政府警察局", "branch": "交通大隊", "source_dataset": "新北市固定式測速照相 OpenAPI", "violation_group": "複合取締"}}, {"type": "Feature", "geometry": {"type": "Point", "coordinates": [121.443038, 25.085932]}, "properties": {"city": "新北市", "city_code": 65000, "district": "五股區", "device_id": "ntpc-50", "road_segment": "", "location": "新五路2段572號（往成泰路）", "address": "新五路2段572號（往成泰路）", "violation_type": "超速", "direction": "西南向東北", "speed_limit": "50", "department": "新北市政府警察局", "branch": "交通大隊", "source_dataset": "新北市固定式測速照相 OpenAPI", "violation_group": "超速"}}, {"type": "Feature", "geometry": {"type": "Point", "coordinates": [121.446493, 25.090464]}, "properties": {"city": "新北市", "city_code": 65000, "district": "五股區", "device_id": "ntpc-51", "road_segment": "", "location": "新五路3段210號（往疏洪北路或新城八路）", "address": "新五路3段210號（往疏洪北路或新城八路）", "violation_type": "超速", "direction": "西南向東北", "speed_limit": "50", "department": "新北市政府警察局", "branch": "交通大隊", "source_dataset": "新北市固定式測速照相 OpenAPI", "violation_group": "超速"}}, {"type": "Feature", "geometry": {"type": "Point", "coordinates": [121.448443, 25.092153]}, "properties": {"city": "新北市", "city_code": 65000, "district": "五股區", "device_id": "ntpc-52", "road_segment": "", "location": "台64線快速公路10.4公里（往東）", "address": "台64線快速公路10.4公里（往東）", "violation_type": "超速", "direction": "北向南", "speed_limit": "80", "department": "新北市政府警察局", "branch": "交通大隊", "source_dataset": "新北市固定式測速照相 OpenAPI", "violation_group": "超速"}}, {"type": "Feature", "geometry": {"type": "Point", "coordinates": [121.775065, 25.050633]}, "properties": {"city": "新北市", "city_code": 65000, "district": "平溪區", "device_id": "ntpc-53", "road_segment": "", "location": "台2丙線8.1公里處（往基隆）", "address": "台2丙線8.1公里處（往基隆）", "violation_type": "超速", "direction": "東南向西北", "speed_limit": "50", "department": "新北市政府警察局", "branch": "瑞芳分局", "source_dataset": "新北市固定式測速照相 OpenAPI", "violation_group": "超速"}}, {"type": "Feature", "geometry": {"type": "Point", "coordinates": [121.775112, 25.050533]}, "properties": {"city": "新北市", "city_code": 65000, "district": "平溪區", "device_id": "ntpc-54", "road_segment": "", "location": "台2丙線8.2公里處（往平溪）", "address": "台2丙線8.2公里處（往平溪）", "violation_type": "超速", "direction": "西北向東南", "speed_limit": "50", "department": "新北市政府警察局", "branch": "瑞芳分局", "source_dataset": "新北市固定式測速照相 OpenAPI", "violation_group": "超速"}}, {"type": "Feature", "geometry": {"type": "Point", "coordinates": [121.504739, 25.013285]}, "properties": {"city": "新北市", "city_code": 65000, "district": "永和區", "device_id": "ntpc-55", "road_segment": "", "location": "新北環河高架保生路匝道處（往中和）", "address": "新北環河高架保生路匝道處（往中和）", "violation_type": "超速", "direction": "東北向西南", "speed_limit": "50", "department": "新北市政府警察局", "branch": "交通大隊", "source_dataset": "新北市固定式測速照相 OpenAPI", "violation_group": "超速"}}, {"type": "Feature", "geometry": {"type": "Point", "coordinates": [121.522182, 25.013402]}, "properties": {"city": "新北市", "city_code": 65000, "district": "永和區", "device_id": "ntpc-56", "road_segment": "", "location": "環河東路2段10號（往中和或永和方向）", "address": "環河東路2段10號（往中和或永和方向）", "violation_type": "超速", "direction": "西北向東南", "speed_limit": "50", "department": "新北市政府警察局", "branch": "交通大隊", "source_dataset": "新北市固定式測速照相 OpenAPI", "violation_group": "超速"}}, {"type": "Feature", "geometry": {"type": "Point", "coordinates": [121.560984, 25.290787]}, "properties": {"city": "新北市", "city_code": 65000, "district": "石門區", "device_id": "ntpc-57", "road_segment": "", "location": "台2線27.5公里（石門加油站前）往金山方向", "address": "台2線27.5公里（石門加油站前）往金山方向", "violation_type": "超速", "direction": "西向東", "speed_limit": "50", "department": "新北市政府警察局", "branch": "金山分局", "source_dataset": "新北市固定式測速照相 OpenAPI", "violation_group": "超速"}}, {"type": "Feature", "geometry": {"type": "Point", "coordinates": [121.56824, 25.293731]}, "properties": {"city": "新北市", "city_code": 65000, "district": "石門區", "device_id": "ntpc-58", "road_segment": "", "location": "台2線28.5公里處（往淡水）", "address": "台2線28.5公里處（往淡水）", "violation_type": "超速", "direction": "北向南", "speed_limit": "50", "department": "新北市政府警察局", "branch": "金山分局", "source_dataset": "新北市固定式測速照相 OpenAPI", "violation_group": "超速"}}, {"type": "Feature", "geometry": {"type": "Point", "coordinates": [121.519688, 25.282158]}, "properties": {"city": "新北市", "city_code": 65000, "district": "石門區", "device_id": "ntpc-59", "road_segment": "", "location": "台2線風管所前（往石門）", "address": "台2線風管所前（往石門）", "violation_type": "超速", "direction": "西南向東北", "speed_limit": "60", "department": "新北市政府警察局", "branch": "金山分局", "source_dataset": "新北市固定式測速照相 OpenAPI", "violation_group": "超速"}}, {"type": "Feature", "geometry": {"type": "Point", "coordinates": [121.687076, 24.971546]}, "properties": {"city": "新北市", "city_code": 65000, "district": "石碇區", "device_id": "ntpc-60", "road_segment": "", "location": "106乙線碇坪路2段與華梵路口（往石碇）", "address": "106乙線碇坪路2段與華梵路口（往石碇）", "violation_type": "超速", "direction": "南向北", "speed_limit": "40", "department": "新北市政府警察局", "branch": "交通大隊", "source_dataset": "新北市固定式測速照相 OpenAPI", "violation_group": "超速"}}, {"type": "Feature", "geometry": {"type": "Point", "coordinates": [121.672768, 25.008032]}, "properties": {"city": "新北市", "city_code": 65000, "district": "石碇區", "device_id": "ntpc-61", "road_segment": "", "location": "106線靜安路1段236號前（往平溪）", "address": "106線靜安路1段236號前（往平溪）", "violation_type": "超速", "direction": "南向北", "speed_limit": "40", "department": "新北市政府警察局", "branch": "交通大隊", "source_dataset": "新北市固定式測速照相 OpenAPI", "violation_group": "超速"}}, {"type": "Feature", "geometry": {"type": "Point", "coordinates": [121.68765, 25.009697]}, "properties": {"city": "新北市", "city_code": 65000, "district": "石碇區", "device_id": "ntpc-62", "road_segment": "", "location": "106線靜安路1段282號（往平溪）", "address": "106線靜安路1段282號（往平溪）", "violation_type": "超速", "direction": "北向南", "speed_limit": "40", "department": "新北市政府警察局", "branch": "交通大隊", "source_dataset": "新北市固定式測速照相 OpenAPI", "violation_group": "超速"}}, {"type": "Feature", "geometry": {"type": "Point", "coordinates": [121.698614, 25.01726]}, "properties": {"city": "新北市", "city_code": 65000, "district": "石碇區", "device_id": "ntpc-63", "road_segment": "", "location": "106線靜安路1段356號前（往深坑或平溪）", "address": "106線靜安路1段356號前（往深坑或平溪）", "violation_type": "超速", "direction": "北向南", "speed_limit": "40", "department": "新北市政府警察局", "branch": "交通大隊", "source_dataset": "新北市固定式測速照相 OpenAPI", "violation_group": "超速"}}, {"type": "Feature", "geometry": {"type": "Point", "coordinates": [121.613777, 24.960901]}, "properties": {"city": "新北市", "city_code": 65000, "district": "石碇區", "device_id": "ntpc-64", "road_segment": "", "location": "北宜路4段6號（21.3公里）往坪林方向", "address": "北宜路4段6號（21.3公里）往坪林方向", "violation_type": "超速", "direction": "西南向東北", "speed_limit": "40", "department": "新北市政府警察局", "branch": "交通大隊", "source_dataset": "新北市固定式測速照相 OpenAPI", "violation_group": "超速"}}, {"type": "Feature", "geometry": {"type": "Point", "coordinates": [121.638393, 24.953558]}, "properties": {"city": "新北市", "city_code": 65000, "district": "石碇區", "device_id": "ntpc-65", "road_segment": "", "location": "北宜路5段67號前（往新店）", "address": "北宜路5段67號前（往新店）", "violation_type": "超速", "direction": "東南向西北", "speed_limit": "40", "department": "新北市政府警察局", "branch": "交通大隊", "source_dataset": "新北市固定式測速照相 OpenAPI", "violation_group": "超速"}}, {"type": "Feature", "geometry": {"type": "Point", "coordinates": [121.647745, 24.950347]}, "properties": {"city": "新北市", "city_code": 65000, "district": "石碇區", "device_id": "ntpc-66", "road_segment": "", "location": "台9線26.2公里（往坪林或新店）", "address": "台9線26.2公里（往坪林或新店）", "violation_type": "超速", "direction": "西北向東南", "speed_limit": "40", "department": "新北市政府警察局", "branch": "交通大隊", "source_dataset": "新北市固定式測速照相 OpenAPI", "violation_group": "超速"}}, {"type": "Feature", "geometry": {"type": "Point", "coordinates": [121.675437, 25.065904]}, "properties": {"city": "新北市", "city_code": 65000, "district": "汐止區", "device_id": "ntpc-67", "road_segment": "", "location": "新台五路與茄苳路口（往汐止方向）", "address": "新台五路與茄苳路口（往汐止方向）", "violation_type": "闖紅燈、超速", "direction": "東北向西南", "speed_limit": "50", "department": "新北市政府警察局", "branch": "汐止分局", "source_dataset": "新北市固定式測速照相 OpenAPI", "violation_group": "複合取締"}}, {"type": "Feature", "geometry": {"type": "Point", "coordinates": [121.651413, 25.061492]}, "properties": {"city": "新北市", "city_code": 65000, "district": "汐止區", "device_id": "ntpc-68", "road_segment": "", "location": "台5線14.4公里處（往基隆）", "address": "台5線14.4公里處（往基隆）", "violation_type": "超速", "direction": "西向東", "speed_limit": "50", "department": "新北市政府警察局", "branch": "汐止分局", "source_dataset": "新北市固定式測速照相 OpenAPI", "violation_group": "超速"}}, {"type": "Feature", "geometry": {"type": "Point", "coordinates": [121.664595, 25.066808]}, "properties": {"city": "新北市", "city_code": 65000, "district": "汐止區", "device_id": "ntpc-69", "road_segment": "", "location": "台5線15.86公里處（往汐止）", "address": "台5線15.86公里處（往汐止）", "violation_type": "超速", "direction": "東向西", "speed_limit": "50", "department": "新北市政府警察局", "branch": "汐止分局", "source_dataset": "新北市固定式測速照相 OpenAPI", "violation_group": "超速"}}, {"type": "Feature", "geometry": {"type": "Point", "coordinates": [121.681314, 25.068539]}, "properties": {"city": "新北市", "city_code": 65000, "district": "汐止區", "device_id": "ntpc-70", "road_segment": "", "location": "台5線17.68公里處（往基隆或汐止）", "address": "台5線17.68公里處（往基隆或汐止）", "violation_type": "超速", "direction": "西向東", "speed_limit": "50", "department": "新北市政府警察局", "branch": "汐止分局", "source_dataset": "新北市固定式測速照相 OpenAPI", "violation_group": "超速"}}, {"type": "Feature", "geometry": {"type": "Point", "coordinates": [121.704466, 24.935577]}, "properties": {"city": "新北市", "city_code": 65000, "district": "坪林區", "device_id": "ntpc-71", "road_segment": "", "location": "台9線37.4公里（往宜蘭）", "address": "台9線37.4公里（往宜蘭）", "violation_type": "超速", "direction": "西北向東南", "speed_limit": "40", "department": "新北市政府警察局", "branch": "交通大隊", "source_dataset": "新北市固定式測速照相 OpenAPI", "violation_group": "超速"}}, {"type": "Feature", "geometry": {"type": "Point", "coordinates": [121.709543, 24.932625]}, "properties": {"city": "新北市", "city_code": 65000, "district": "坪林區", "device_id": "ntpc-72", "road_segment": "", "location": "台9線38.4公里（往坪林）", "address": "台9線38.4公里（往坪林）", "violation_type": "超速", "direction": "東北向西南", "speed_limit": "40", "department": "新北市政府警察局", "branch": "交通大隊", "source_dataset": "新北市固定式測速照相 OpenAPI", "violation_group": "超速"}}, {"type": "Feature", "geometry": {"type": "Point", "coordinates": [121.716806, 24.910906]}, "properties": {"city": "新北市", "city_code": 65000, "district": "坪林區", "device_id": "ntpc-73", "road_segment": "", "location": "台9線42.2公里（往宜蘭或坪林）", "address": "台9線42.2公里（往宜蘭或坪林）", "violation_type": "超速", "direction": "西向東", "speed_limit": "40", "department": "新北市政府警察局", "branch": "交通大隊", "source_dataset": "新北市固定式測速照相 OpenAPI", "violation_group": "超速"}}, {"type": "Feature", "geometry": {"type": "Point", "coordinates": [121.440862, 24.997871]}, "properties": {"city": "新北市", "city_code": 65000, "district": "板橋區", "device_id": "ntpc-74", "road_segment": "", "location": "堤外便道1K+900（往板橋）", "address": "堤外便道1K+900（往板橋）", "violation_type": "超速", "direction": "南向北", "speed_limit": "40", "department": "新北市政府警察局", "branch": "交通大隊", "source_dataset": "新北市固定式測速照相 OpenAPI", "violation_group": "超速"}}, {"type": "Feature", "geometry": {"type": "Point", "coordinates": [121.478936, 25.035914]}, "properties": {"city": "新北市", "city_code": 65000, "district": "板橋區", "device_id": "ntpc-75", "road_segment": "", "location": "華江橋下坡處（往板橋）", "address": "華江橋下坡處（往板橋）", "violation_type": "超速", "direction": "東向西", "speed_limit": "50", "department": "新北市政府警察局", "branch": "交通大隊", "source_dataset": "新北市固定式測速照相 OpenAPI", "violation_group": "超速"}}, {"type": "Feature", "geometry": {"type": "Point", "coordinates": [121.48416, 25.025955]}, "properties": {"city": "新北市", "city_code": 65000, "district": "板橋區", "device_id": "ntpc-76", "road_segment": "", "location": "新北環河快速道路7公里處（往三重）", "address": "新北環河快速道路7公里處（往三重）", "violation_type": "超速", "direction": "南向北", "speed_limit": "70", "department": "新北市政府警察局", "branch": "交通大隊", "source_dataset": "新北市固定式測速照相 OpenAPI", "violation_group": "超速"}}, {"type": "Feature", "geometry": {"type": "Point", "coordinates": [121.428317, 24.981302]}, "properties": {"city": "新北市", "city_code": 65000, "district": "板橋區", "device_id": "ntpc-77", "road_segment": "", "location": "溪城路與金門街369巷（往樹林）", "address": "溪城路與金門街369巷（往樹林）", "violation_type": "闖紅燈、超速", "direction": "東南向西北", "speed_limit": "50", "department": "新北市政府警察局", "branch": "交通大隊", "source_dataset": "新北市固定式測速照相 OpenAPI", "violation_group": "複合取締"}}, {"type": "Feature", "geometry": {"type": "Point", "coordinates": [121.465116, 25.028219]}, "properties": {"city": "新北市", "city_code": 65000, "district": "板橋區", "device_id": "ntpc-78", "road_segment": "", "location": "台64線快速公路20.24公里（往東）", "address": "台64線快速公路20.24公里（往東）", "violation_type": "超速", "direction": "北向南", "speed_limit": "60", "department": "新北市政府警察局", "branch": "交通大隊", "source_dataset": "新北市固定式測速照相 OpenAPI", "violation_group": "超速"}}, {"type": "Feature", "geometry": {"type": "Point", "coordinates": [121.446014, 25.020022]}, "properties": {"city": "新北市", "city_code": 65000, "district": "板橋區", "device_id": "ntpc-79", "road_segment": "", "location": "台65線快速公路5.4公里（往土城）", "address": "台65線快速公路5.4公里（往土城）", "violation_type": "超速", "direction": "西北向東南", "speed_limit": "80", "department": "新北市政府警察局", "branch": "交通大隊", "source_dataset": "新北市固定式測速照相 OpenAPI", "violation_group": "超速"}}, {"type": "Feature", "geometry": {"type": "Point", "coordinates": [121.451836, 25.006509]}, "properties": {"city": "新北市", "city_code": 65000, "district": "板橋區", "device_id": "ntpc-80", "road_segment": "", "location": "台65線快速公路7公里（往新莊）", "address": "台65線快速公路7公里（往新莊）", "violation_type": "超速", "direction": "南向北", "speed_limit": "80", "department": "新北市政府警察局", "branch": "交通大隊", "source_dataset": "新北市固定式測速照相 OpenAPI", "violation_group": "超速"}}, {"type": "Feature", "geometry": {"type": "Point", "coordinates": [121.482931, 25.0294]}, "properties": {"city": "新北市", "city_code": 65000, "district": "板橋區", "device_id": "ntpc-81", "road_segment": "", "location": "環河西路4段002597號燈桿旁（往三重）", "address": "環河西路4段002597號燈桿旁（往三重）", "violation_type": "超速", "direction": "南向北", "speed_limit": "50", "department": "新北市政府警察局", "branch": "交通大隊", "source_dataset": "新北市固定式測速照相 OpenAPI", "violation_group": "超速"}}, {"type": "Feature", "geometry": {"type": "Point", "coordinates": [121.471033, 25.036417]}, "properties": {"city": "新北市", "city_code": 65000, "district": "板橋區", "device_id": "ntpc-82", "road_segment": "", "location": "環河西路4段與華江六路口（往土城或三重）", "address": "環河西路4段與華江六路口（往土城或三重）", "violation_type": "超速", "direction": "西向東", "speed_limit": "50", "department": "新北市政府警察局", "branch": "交通大隊", "source_dataset": "新北市固定式測速照相 OpenAPI", "violation_group": "超速"}}, {"type": "Feature", "geometry": {"type": "Point", "coordinates": [121.441367, 25.005368]}, "properties": {"city": "新北市", "city_code": 65000, "district": "板橋區", "device_id": "ntpc-83", "road_segment": "", "location": "環河西路5段「歡仔園防汛陸橋」前（往土城）", "address": "環河西路5段「歡仔園防汛陸橋」前（往土城）", "violation_type": "超速", "direction": "北向南", "speed_limit": "50", "department": "新北市政府警察局", "branch": "交通大隊", "source_dataset": "新北市固定式測速照相 OpenAPI", "violation_group": "超速"}}, {"type": "Feature", "geometry": {"type": "Point", "coordinates": [121.451402, 25.025661]}, "properties": {"city": "新北市", "city_code": 65000, "district": "板橋區", "device_id": "ntpc-84", "road_segment": "", "location": "環河西路5段00640燈桿（往板橋或土城）", "address": "環河西路5段00640燈桿（往板橋或土城）", "violation_type": "超速", "direction": "東北向西南", "speed_limit": "50", "department": "新北市政府警察局", "branch": "交通大隊", "source_dataset": "新北市固定式測速照相 OpenAPI", "violation_group": "超速"}}, {"type": "Feature", "geometry": {"type": "Point", "coordinates": [121.428918, 24.979713]}, "properties": {"city": "新北市", "city_code": 65000, "district": "板橋區", "device_id": "ntpc-85", "road_segment": "", "location": "環漢路沙崙抽水站前（往新莊）", "address": "環漢路沙崙抽水站前（往新莊）", "violation_type": "超速", "direction": "西南向東北", "speed_limit": "50", "department": "新北市政府警察局", "branch": "交通大隊", "source_dataset": "新北市固定式測速照相 OpenAPI", "violation_group": "超速"}}, {"type": "Feature", "geometry": {"type": "Point", "coordinates": [121.378152, 25.083604]}, "properties": {"city": "新北市", "city_code": 65000, "district": "林口區", "device_id": "ntpc-86", "road_segment": "", "location": "中山路562號（往文化三路2段方向）", "address": "中山路562號（往文化三路2段方向）", "violation_type": "超速", "direction": "東南向西北", "speed_limit": "50", "department": "新北市政府警察局", "branch": "交通大隊", "source_dataset": "新北市固定式測速照相 OpenAPI", "violation_group": "超速"}}, {"type": "Feature", "geometry": {"type": "Point", "coordinates": [121.386031, 25.076376]}, "properties": {"city": "新北市", "city_code": 65000, "district": "林口區", "device_id": "ntpc-87", "road_segment": "", "location": "仁愛路1段691號前與竹林路口（往林口）", "address": "仁愛路1段691號前與竹林路口（往林口）", "violation_type": "闖紅燈、超速", "direction": "西南向東北", "speed_limit": "50", "department": "新北市政府警察局", "branch": "交通大隊", "source_dataset": "新北市固定式測速照相 OpenAPI", "violation_group": "複合取締"}}, {"type": "Feature", "geometry": {"type": "Point", "coordinates": [121.375269, 25.072582]}, "properties": {"city": "新北市", "city_code": 65000, "district": "林口區", "device_id": "ntpc-88", "road_segment": "", "location": "文化一路1段與麗園一街口（往林口）", "address": "文化一路1段與麗園一街口（往林口）", "violation_type": "超速", "direction": "西南向東北", "speed_limit": "60", "department": "新北市政府警察局", "branch": "交通大隊", "source_dataset": "新北市固定式測速照相 OpenAPI", "violation_group": "超速"}}, {"type": "Feature", "geometry": {"type": "Point", "coordinates": [121.375784, 25.073011]}, "properties": {"city": "新北市", "city_code": 65000, "district": "林口區", "device_id": "ntpc-89", "road_segment": "", "location": "文化一路1段與麗園一街口（往龜山）", "address": "文化一路1段與麗園一街口（往龜山）", "violation_type": "超速", "direction": "東北向西南", "speed_limit": "60", "department": "新北市政府警察局", "branch": "交通大隊", "source_dataset": "新北市固定式測速照相 OpenAPI", "violation_group": "超速"}}, {"type": "Feature", "geometry": {"type": "Point", "coordinates": [121.375477, 25.07782]}, "properties": {"city": "新北市", "city_code": 65000, "district": "林口區", "device_id": "ntpc-90", "road_segment": "", "location": "文化二路1段571號（雙向）", "address": "文化二路1段571號（雙向）", "violation_type": "超速", "direction": "東北向西南", "speed_limit": "50", "department": "新北市政府警察局", "branch": "交通大隊", "source_dataset": "新北市固定式測速照相 OpenAPI", "violation_group": "超速"}}, {"type": "Feature", "geometry": {"type": "Point", "coordinates": [121.370329, 25.073161]}, "properties": {"city": "新北市", "city_code": 65000, "district": "林口區", "device_id": "ntpc-91", "road_segment": "", "location": "文化二路與仁愛二路口（往八里）", "address": "文化二路與仁愛二路口（往八里）", "violation_type": "闖紅燈、超速", "direction": "西南向東北", "speed_limit": "50", "department": "新北市政府警察局", "branch": "交通大隊", "source_dataset": "新北市固定式測速照相 OpenAPI", "violation_group": "複合取締"}}, {"type": "Feature", "geometry": {"type": "Point", "coordinates": [121.363406, 25.071289]}, "properties": {"city": "新北市", "city_code": 65000, "district": "林口區", "device_id": "ntpc-92", "road_segment": "", "location": "文化三路1段249巷旁（往林口）", "address": "文化三路1段249巷旁（往林口）", "violation_type": "超速、闖紅燈", "direction": "西南向東北", "speed_limit": "50", "department": "新北市政府警察局", "branch": "交通大隊", "source_dataset": "新北市固定式測速照相 OpenAPI", "violation_group": "複合取締"}}, {"type": "Feature", "geometry": {"type": "Point", "coordinates": [121.358605, 25.071409]}, "properties": {"city": "新北市", "city_code": 65000, "district": "林口區", "device_id": "ntpc-93", "road_segment": "", "location": "文化北路1段261號前（往忠孝路）", "address": "文化北路1段261號前（往忠孝路）", "violation_type": "超速", "direction": "西南向東北", "speed_limit": "50", "department": "新北市政府警察局", "branch": "交通大隊", "source_dataset": "新北市固定式測速照相 OpenAPI", "violation_group": "超速"}}, {"type": "Feature", "geometry": {"type": "Point", "coordinates": [121.363232, 25.075266]}, "properties": {"city": "新北市", "city_code": 65000, "district": "林口區", "device_id": "ntpc-94", "road_segment": "", "location": "文化北路1段390號（雙向）", "address": "文化北路1段390號（雙向）", "violation_type": "超速", "direction": "西南向東北", "speed_limit": "50", "department": "新北市政府警察局", "branch": "交通大隊", "source_dataset": "新北市固定式測速照相 OpenAPI", "violation_group": "超速"}}, {"type": "Feature", "geometry": {"type": "Point", "coordinates": [121.364954, 25.135007]}, "properties": {"city": "新北市", "city_code": 65000, "district": "林口區", "device_id": "ntpc-95", "road_segment": "", "location": "台15線汕頭32號前（往北）", "address": "台15線汕頭32號前（往北）", "violation_type": "超速", "direction": "西向東", "speed_limit": "50", "department": "新北市政府警察局", "branch": "交通大隊", "source_dataset": "新北市固定式測速照相 OpenAPI", "violation_group": "超速"}}, {"type": "Feature", "geometry": {"type": "Point", "coordinates": [121.356695, 25.132078]}, "properties": {"city": "新北市", "city_code": 65000, "district": "林口區", "device_id": "ntpc-96", "road_segment": "", "location": "台61線8.95公里處（往林口）", "address": "台61線8.95公里處（往林口）", "violation_type": "超速", "direction": "東北向西南", "speed_limit": "80", "department": "新北市政府警察局", "branch": "交通大隊", "source_dataset": "新北市固定式測速照相 OpenAPI", "violation_group": "超速"}}, {"type": "Feature", "geometry": {"type": "Point", "coordinates": [121.292141, 25.118312]}, "properties": {"city": "新北市", "city_code": 65000, "district": "林口區", "device_id": "ntpc-97", "road_segment": "", "location": "台61線快速公路15.7公里處（往桃園）", "address": "台61線快速公路15.7公里處（往桃園）", "violation_type": "超速", "direction": "東北向西南", "speed_limit": "90", "department": "新北市政府警察局", "branch": "交通大隊", "source_dataset": "新北市固定式測速照相 OpenAPI", "violation_group": "超速"}}, {"type": "Feature", "geometry": {"type": "Point", "coordinates": [121.359719, 25.133181]}, "properties": {"city": "新北市", "city_code": 65000, "district": "林口區", "device_id": "ntpc-98", "road_segment": "", "location": "台61線快速公路8.6公里處（往八里）", "address": "台61線快速公路8.6公里處（往八里）", "violation_type": "超速", "direction": "西南向東北", "speed_limit": "80", "department": "新北市政府警察局", "branch": "交通大隊", "source_dataset": "新北市固定式測速照相 OpenAPI", "violation_group": "超速"}}, {"type": "Feature", "geometry": {"type": "Point", "coordinates": [121.623611, 25.219724]}, "properties": {"city": "新北市", "city_code": 65000, "district": "金山區", "device_id": "ntpc-99", "road_segment": "", "location": "台2甲線0.9公里處（往金山或往臺北）", "address": "台2甲線0.9公里處（往金山或往臺北）", "violation_type": "超速", "direction": "西向東", "speed_limit": "50", "department": "新北市政府警察局", "branch": "金山分局", "source_dataset": "新北市固定式測速照相 OpenAPI", "violation_group": "超速"}}, {"type": "Feature", "geometry": {"type": "Point", "coordinates": [121.623618, 25.271377]}, "properties": {"city": "新北市", "city_code": 65000, "district": "金山區", "device_id": "ntpc-100", "road_segment": "", "location": "台2線35.3公里處（往金山）", "address": "台2線35.3公里處（往金山）", "violation_type": "超速", "direction": "西北向東南", "speed_limit": "70", "department": "新北市政府警察局", "branch": "金山分局", "source_dataset": "新北市固定式測速照相 OpenAPI", "violation_group": "超速"}}, {"type": "Feature", "geometry": {"type": "Point", "coordinates": [121.633407, 25.241701]}, "properties": {"city": "新北市", "city_code": 65000, "district": "金山區", "device_id": "ntpc-101", "road_segment": "", "location": "台2線38.9公里處（海興路93號旁）往金山方向", "address": "台2線38.9公里處（海興路93號旁）往金山方向", "violation_type": "超速", "direction": "北向南", "speed_limit": "60", "department": "新北市政府警察局", "branch": "金山分局", "source_dataset": "新北市固定式測速照相 OpenAPI", "violation_group": "超速"}}, {"type": "Feature", "geometry": {"type": "Point", "coordinates": [121.401747, 25.056649]}, "properties": {"city": "新北市", "city_code": 65000, "district": "泰山區", "device_id": "ntpc-102", "road_segment": "", "location": "大科路331之6號旁（往新莊）", "address": "大科路331之6號旁（往新莊）", "violation_type": "超速", "direction": "西向東", "speed_limit": "50", "department": "新北市政府警察局", "branch": "交通大隊", "source_dataset": "新北市固定式測速照相 OpenAPI", "violation_group": "超速"}}, {"type": "Feature", "geometry": {"type": "Point", "coordinates": [121.389719, 25.065547]}, "properties": {"city": "新北市", "city_code": 65000, "district": "泰山區", "device_id": "ntpc-103", "road_segment": "", "location": "大科路686號前（往泰山方向）", "address": "大科路686號前（往泰山方向）", "violation_type": "超速", "direction": "西向東", "speed_limit": "40", "department": "新北市政府警察局", "branch": "交通大隊", "source_dataset": "新北市固定式測速照相 OpenAPI", "violation_group": "超速"}}, {"type": "Feature", "geometry": {"type": "Point", "coordinates": [121.426687, 25.055083]}, "properties": {"city": "新北市", "city_code": 65000, "district": "泰山區", "device_id": "ntpc-104", "road_segment": "", "location": "公園路同榮國民小學附幼側門（往明志路）", "address": "公園路同榮國民小學附幼側門（往明志路）", "violation_type": "超速", "direction": "西向東", "speed_limit": "40", "department": "新北市政府警察局", "branch": "交通大隊", "source_dataset": "新北市固定式測速照相 OpenAPI", "violation_group": "超速"}}, {"type": "Feature", "geometry": {"type": "Point", "coordinates": [121.427456, 25.037588]}, "properties": {"city": "新北市", "city_code": 65000, "district": "泰山區", "device_id": "ntpc-105", "road_segment": "", "location": "新北大道6段85號（往台麗街）", "address": "新北大道6段85號（往台麗街）", "violation_type": "超速", "direction": "東北向西南", "speed_limit": "60", "department": "新北市政府警察局", "branch": "交通大隊", "source_dataset": "新北市固定式測速照相 OpenAPI", "violation_group": "超速"}}, {"type": "Feature", "geometry": {"type": "Point", "coordinates": [121.948995, 25.017965]}, "properties": {"city": "新北市", "city_code": 65000, "district": "貢寮區", "device_id": "ntpc-106", "road_segment": "", "location": "東興街42號前（往瑞芳）", "address": "東興街42號前（往瑞芳）", "violation_type": "超速", "direction": "東向西", "speed_limit": "50", "department": "新北市政府警察局", "branch": "瑞芳分局", "source_dataset": "新北市固定式測速照相 OpenAPI", "violation_group": "超速"}}, {"type": "Feature", "geometry": {"type": "Point", "coordinates": [121.907942, 25.017378]}, "properties": {"city": "新北市", "city_code": 65000, "district": "貢寮區", "device_id": "ntpc-107", "road_segment": "", "location": "台2丙線25.95公里（泮宮路45號）", "address": "台2丙線25.95公里（泮宮路45號）", "violation_type": "超速", "direction": "北向南", "speed_limit": "50", "department": "新北市政府警察局", "branch": "瑞芳分局", "source_dataset": "新北市固定式測速照相 OpenAPI", "violation_group": "超速"}}, {"type": "Feature", "geometry": {"type": "Point", "coordinates": [121.980156, 25.0229]}, "properties": {"city": "新北市", "city_code": 65000, "district": "貢寮區", "device_id": "ntpc-108", "road_segment": "", "location": "台2線104.6公里處（往宜蘭或瑞芳）", "address": "台2線104.6公里處（往宜蘭或瑞芳）", "violation_type": "超速", "direction": "西北向東南", "speed_limit": "50", "department": "新北市政府警察局", "branch": "瑞芳分局", "source_dataset": "新北市固定式測速照相 OpenAPI", "violation_group": "超速"}}, {"type": "Feature", "geometry": {"type": "Point", "coordinates": [121.914466, 25.079581]}, "properties": {"city": "新北市", "city_code": 65000, "district": "貢寮區", "device_id": "ntpc-109", "road_segment": "", "location": "台2線91公里（往宜蘭或瑞芳）", "address": "台2線91公里（往宜蘭或瑞芳）", "violation_type": "超速", "direction": "北向南", "speed_limit": "60", "department": "新北市政府警察局", "branch": "瑞芳分局", "source_dataset": "新北市固定式測速照相 OpenAPI", "violation_group": "超速"}}, {"type": "Feature", "geometry": {"type": "Point", "coordinates": [121.926695, 25.039959]}, "properties": {"city": "新北市", "city_code": 65000, "district": "貢寮區", "device_id": "ntpc-110", "road_segment": "", "location": "台2線96.55公里處（往宜蘭或基隆）", "address": "台2線96.55公里處（往宜蘭或基隆）", "violation_type": "超速", "direction": "南向北", "speed_limit": "60", "department": "新北市政府警察局", "branch": "瑞芳分局", "source_dataset": "新北市固定式測速照相 OpenAPI", "violation_group": "超速"}}, {"type": "Feature", "geometry": {"type": "Point", "coordinates": [121.459384, 25.153019]}, "properties": {"city": "新北市", "city_code": 65000, "district": "淡水區", "device_id": "ntpc-111", "road_segment": "", "location": "中正東路與八勢路口（往淡水）", "address": "中正東路與八勢路口（往淡水）", "violation_type": "闖紅燈、超速", "direction": "南向北", "speed_limit": "50", "department": "新北市政府警察局", "branch": "交通大隊", "source_dataset": "新北市固定式測速照相 OpenAPI", "violation_group": "複合取締"}}, {"type": "Feature", "geometry": {"type": "Point", "coordinates": [121.435768, 25.173383]}, "properties": {"city": "新北市", "city_code": 65000, "district": "淡水區", "device_id": "ntpc-112", "road_segment": "", "location": "文化路與中正路口（往漁人碼頭）", "address": "文化路與中正路口（往漁人碼頭）", "violation_type": "闖紅燈、超速", "direction": "東向西", "speed_limit": "50", "department": "新北市政府警察局", "branch": "交通大隊", "source_dataset": "新北市固定式測速照相 OpenAPI", "violation_group": "複合取締"}}, {"type": "Feature", "geometry": {"type": "Point", "coordinates": [121.450789, 25.182007]}, "properties": {"city": "新北市", "city_code": 65000, "district": "淡水區", "device_id": "ntpc-113", "road_segment": "", "location": "淡金路2段125號（往淡水）", "address": "淡金路2段125號（往淡水）", "violation_type": "超速", "direction": "西北向東南", "speed_limit": "60", "department": "新北市政府警察局", "branch": "交通大隊", "source_dataset": "新北市固定式測速照相 OpenAPI", "violation_group": "超速"}}, {"type": "Feature", "geometry": {"type": "Point", "coordinates": [121.446291, 25.193409]}, "properties": {"city": "新北市", "city_code": 65000, "district": "淡水區", "device_id": "ntpc-114", "road_segment": "", "location": "台2線8.1公里與埤島里（往臺北）", "address": "台2線8.1公里與埤島里（往臺北）", "violation_type": "闖紅燈、超速", "direction": "北向南", "speed_limit": "70", "department": "新北市政府警察局", "branch": "交通大隊", "source_dataset": "新北市固定式測速照相 OpenAPI", "violation_group": "複合取締"}}, {"type": "Feature", "geometry": {"type": "Point", "coordinates": [121.446777, 25.192116]}, "properties": {"city": "新北市", "city_code": 65000, "district": "淡水區", "device_id": "ntpc-115", "road_segment": "", "location": "台2線8公里與新市二路4段（往三芝）", "address": "台2線8公里與新市二路4段（往三芝）", "violation_type": "闖紅燈、超速", "direction": "南向北", "speed_limit": "70", "department": "新北市政府警察局", "branch": "交通大隊", "source_dataset": "新北市固定式測速照相 OpenAPI", "violation_group": "複合取締"}}, {"type": "Feature", "geometry": {"type": "Point", "coordinates": [121.451898, 25.224242]}, "properties": {"city": "新北市", "city_code": 65000, "district": "淡水區", "device_id": "ntpc-116", "road_segment": "", "location": "台2線與正德國中賢孝校區前（往臺北）", "address": "台2線與正德國中賢孝校區前（往臺北）", "violation_type": "闖紅燈、超速", "direction": "北向南", "speed_limit": "50", "department": "新北市政府警察局", "branch": "交通大隊", "source_dataset": "新北市固定式測速照相 OpenAPI", "violation_group": "複合取締"}}, {"type": "Feature", "geometry": {"type": "Point", "coordinates": [121.459367, 25.154763]}, "properties": {"city": "新北市", "city_code": 65000, "district": "淡水區", "device_id": "ntpc-117", "road_segment": "", "location": "台2線與紅樹林捷運站前（往臺北）", "address": "台2線與紅樹林捷運站前（往臺北）", "violation_type": "闖紅燈、超速", "direction": "北向南", "speed_limit": "50", "department": "新北市政府警察局", "branch": "淡水分局", "source_dataset": "新北市固定式測速照相 OpenAPI", "violation_group": "複合取締"}}, {"type": "Feature", "geometry": {"type": "Point", "coordinates": [121.60344, 24.999569]}, "properties": {"city": "新北市", "city_code": 65000, "district": "深坑區", "device_id": "ntpc-118", "road_segment": "", "location": "106乙線0.5公里（往深坑）", "address": "106乙線0.5公里（往深坑）", "violation_type": "超速", "direction": "西北向東南", "speed_limit": "60", "department": "新北市政府警察局", "branch": "交通大隊", "source_dataset": "新北市固定式測速照相 OpenAPI", "violation_group": "超速"}}, {"type": "Feature", "geometry": {"type": "Point", "coordinates": [121.621448, 25.000071]}, "properties": {"city": "新北市", "city_code": 65000, "district": "深坑區", "device_id": "ntpc-119", "road_segment": "", "location": "106乙線文山路2段喜樂橋頭（往石碇方向）", "address": "106乙線文山路2段喜樂橋頭（往石碇方向）", "violation_type": "超速", "direction": "西向東", "speed_limit": "60", "department": "新北市政府警察局", "branch": "交通大隊", "source_dataset": "新北市固定式測速照相 OpenAPI", "violation_group": "超速"}}, {"type": "Feature", "geometry": {"type": "Point", "coordinates": [121.631317, 25.006112]}, "properties": {"city": "新北市", "city_code": 65000, "district": "深坑區", "device_id": "ntpc-120", "road_segment": "", "location": "文山路1段與北深路1段229巷口（往臺北方向）", "address": "文山路1段與北深路1段229巷口（往臺北方向）", "violation_type": "闖紅燈、超速", "direction": "北向南", "speed_limit": "60", "department": "新北市政府警察局", "branch": "交通大隊", "source_dataset": "新北市固定式測速照相 OpenAPI", "violation_group": "複合取締"}}, {"type": "Feature", "geometry": {"type": "Point", "coordinates": [121.627619, 25.002403]}, "properties": {"city": "新北市", "city_code": 65000, "district": "深坑區", "device_id": "ntpc-121", "road_segment": "", "location": "文山路1段與旺躭路45巷口（往石碇方向）", "address": "文山路1段與旺躭路45巷口（往石碇方向）", "violation_type": "闖紅燈、超速", "direction": "西南向東北", "speed_limit": "60", "department": "新北市政府警察局", "branch": "交通大隊", "source_dataset": "新北市固定式測速照相 OpenAPI", "violation_group": "複合取締"}}, {"type": "Feature", "geometry": {"type": "Point", "coordinates": [121.616708, 24.99896]}, "properties": {"city": "新北市", "city_code": 65000, "district": "深坑區", "device_id": "ntpc-122", "road_segment": "", "location": "文山路2段30巷口（往臺北）", "address": "文山路2段30巷口（往臺北）", "violation_type": "闖紅燈", "direction": "東向西", "speed_limit": "60", "department": "新北市政府警察局", "branch": "交通大隊", "source_dataset": "新北市固定式測速照相 OpenAPI", "violation_group": "闖紅燈"}}, {"type": "Feature", "geometry": {"type": "Point", "coordinates": [121.625635, 25.016526]}, "properties": {"city": "新北市", "city_code": 65000, "district": "深坑區", "device_id": "ntpc-123", "road_segment": "", "location": "深南路與風格街口（往南港或深坑方向）", "address": "深南路與風格街口（往南港或深坑方向）", "violation_type": "超速", "direction": "西北向東南", "speed_limit": "40", "department": "新北市政府警察局", "branch": "交通大隊", "source_dataset": "新北市固定式測速照相 OpenAPI", "violation_group": "超速"}}, {"type": "Feature", "geometry": {"type": "Point", "coordinates": [121.54622, 24.969749]}, "properties": {"city": "新北市", "city_code": 65000, "district": "新店區", "device_id": "ntpc-124", "road_segment": "", "location": "中興路2段39號前（往碧潭或景美）", "address": "中興路2段39號前（往碧潭或景美）", "violation_type": "超速", "direction": "東北向西南", "speed_limit": "50", "department": "新北市政府警察局", "branch": "交通大隊", "source_dataset": "新北市固定式測速照相 OpenAPI", "violation_group": "超速"}}, {"type": "Feature", "geometry": {"type": "Point", "coordinates": [121.539451, 24.95511]}, "properties": {"city": "新北市", "city_code": 65000, "district": "新店區", "device_id": "ntpc-125", "road_segment": "", "location": "北宜路1段105巷口（往新店）", "address": "北宜路1段105巷口（往新店）", "violation_type": "闖紅燈", "direction": "東南向西北", "speed_limit": "50", "department": "新北市政府警察局", "branch": "交通大隊", "source_dataset": "新北市固定式測速照相 OpenAPI", "violation_group": "闖紅燈"}}, {"type": "Feature", "geometry": {"type": "Point", "coordinates": [121.544842, 24.953021]}, "properties": {"city": "新北市", "city_code": 65000, "district": "新店區", "device_id": "ntpc-126", "road_segment": "", "location": "北宜路1段246號前（往坪林）", "address": "北宜路1段246號前（往坪林）", "violation_type": "超速", "direction": "西向東", "speed_limit": "50", "department": "新北市政府警察局", "branch": "交通大隊", "source_dataset": "新北市固定式測速照相 OpenAPI", "violation_group": "超速"}}, {"type": "Feature", "geometry": {"type": "Point", "coordinates": [121.56291, 24.953763]}, "properties": {"city": "新北市", "city_code": 65000, "district": "新店區", "device_id": "ntpc-127", "road_segment": "", "location": "北宜路2段348號對面（往新店）", "address": "北宜路2段348號對面（往新店）", "violation_type": "闖紅燈、超速", "direction": "東向西", "speed_limit": "50", "department": "新北市政府警察局", "branch": "交通大隊", "source_dataset": "新北市固定式測速照相 OpenAPI", "violation_group": "複合取締"}}, {"type": "Feature", "geometry": {"type": "Point", "coordinates": [121.553307, 24.953354]}, "properties": {"city": "新北市", "city_code": 65000, "district": "新店區", "device_id": "ntpc-128", "road_segment": "", "location": "北宜路2段82巷口（往坪林）", "address": "北宜路2段82巷口（往坪林）", "violation_type": "闖紅燈、超速", "direction": "西向東", "speed_limit": "50", "department": "新北市政府警察局", "branch": "交通大隊", "source_dataset": "新北市固定式測速照相 OpenAPI", "violation_group": "複合取締"}}, {"type": "Feature", "geometry": {"type": "Point", "coordinates": [121.54082, 24.984812]}, "properties": {"city": "新北市", "city_code": 65000, "district": "新店區", "device_id": "ntpc-129", "road_segment": "", "location": "北新路3段與順安街口（往新店）", "address": "北新路3段與順安街口（往新店）", "violation_type": "闖紅燈、超速", "direction": "北向南", "speed_limit": "50", "department": "新北市政府警察局", "branch": "交通大隊", "source_dataset": "新北市固定式測速照相 OpenAPI", "violation_group": "複合取締"}}, {"type": "Feature", "geometry": {"type": "Point", "coordinates": [121.527938, 24.978976]}, "properties": {"city": "新北市", "city_code": 65000, "district": "新店區", "device_id": "ntpc-130", "road_segment": "", "location": "央北二路與啓文路口（往中央路）", "address": "央北二路與啓文路口（往中央路）", "violation_type": "超速", "direction": "西北向東南", "speed_limit": "50", "department": "新北市政府警察局", "branch": "交通大隊", "source_dataset": "新北市固定式測速照相 OpenAPI", "violation_group": "超速"}}, {"type": "Feature", "geometry": {"type": "Point", "coordinates": [121.546072, 24.948413]}, "properties": {"city": "新北市", "city_code": 65000, "district": "新店區", "device_id": "ntpc-131", "road_segment": "", "location": "新烏路1段60號旁（往烏來）", "address": "新烏路1段60號旁（往烏來）", "violation_type": "超速", "direction": "北向南", "speed_limit": "40", "department": "新北市政府警察局", "branch": "交通大隊", "source_dataset": "新北市固定式測速照相 OpenAPI", "violation_group": "超速"}}, {"type": "Feature", "geometry": {"type": "Point", "coordinates": [121.523107, 24.980021]}, "properties": {"city": "新北市", "city_code": 65000, "district": "新店區", "device_id": "ntpc-132", "road_segment": "", "location": "溪園路375號前（往環河路或中安大橋方向）", "address": "溪園路375號前（往環河路或中安大橋方向）", "violation_type": "超速", "direction": "南向北", "speed_limit": "60", "department": "新北市政府警察局", "branch": "交通大隊", "source_dataset": "新北市固定式測速照相 OpenAPI", "violation_group": "超速"}}, {"type": "Feature", "geometry": {"type": "Point", "coordinates": [121.549437, 24.922884]}, "properties": {"city": "新北市", "city_code": 65000, "district": "新店區", "device_id": "ntpc-133", "road_segment": "", "location": "台9甲線新烏路2段與屈尺路（往烏來）", "address": "台9甲線新烏路2段與屈尺路（往烏來）", "violation_type": "闖紅燈、超速", "direction": "北向南", "speed_limit": "50", "department": "新北市政府警察局", "branch": "交通大隊", "source_dataset": "新北市固定式測速照相 OpenAPI", "violation_group": "複合取締"}}, {"type": "Feature", "geometry": {"type": "Point", "coordinates": [121.525027, 24.975635]}, "properties": {"city": "新北市", "city_code": 65000, "district": "新店區", "device_id": "ntpc-134", "road_segment": "", "location": "環河路168號前（往臺北或新店方向）", "address": "環河路168號前（往臺北或新店方向）", "violation_type": "超速", "direction": "西北向東南", "speed_limit": "60", "department": "新北市政府警察局", "branch": "交通大隊", "source_dataset": "新北市固定式測速照相 OpenAPI", "violation_group": "超速"}}, {"type": "Feature", "geometry": {"type": "Point", "coordinates": [121.422169, 25.02877]}, "properties": {"city": "新北市", "city_code": 65000, "district": "新莊區", "device_id": "ntpc-135", "road_segment": "", "location": "中正路757號前（往臺北或往桃園）", "address": "中正路757號前（往臺北或往桃園）", "violation_type": "超速", "direction": "西向東", "speed_limit": "50", "department": "新北市政府警察局", "branch": "交通大隊", "source_dataset": "新北市固定式測速照相 OpenAPI", "violation_group": "超速"}}, {"type": "Feature", "geometry": {"type": "Point", "coordinates": [121.417545, 25.025896]}, "properties": {"city": "新北市", "city_code": 65000, "district": "新莊區", "device_id": "ntpc-136", "road_segment": "", "location": "中正路879號（雙向）", "address": "中正路879號（雙向）", "violation_type": "超速", "direction": "南向北", "speed_limit": "50", "department": "新北市政府警察局", "branch": "交通大隊", "source_dataset": "新北市固定式測速照相 OpenAPI", "violation_group": "超速"}}, {"type": "Feature", "geometry": {"type": "Point", "coordinates": [121.460897, 25.03921]}, "properties": {"city": "新北市", "city_code": 65000, "district": "新莊區", "device_id": "ntpc-137", "road_segment": "", "location": "中正路與思源路口（往桃園）", "address": "中正路與思源路口（往桃園）", "violation_type": "闖紅燈", "direction": "東北向西南", "speed_limit": "50", "department": "新北市政府警察局", "branch": "交通大隊", "source_dataset": "新北市固定式測速照相 OpenAPI", "violation_group": "闖紅燈"}}, {"type": "Feature", "geometry": {"type": "Point", "coordinates": [121.442272, 25.043478]}, "properties": {"city": "新北市", "city_code": 65000, "district": "新莊區", "device_id": "ntpc-138", "road_segment": "", "location": "中環路2段台65線高架下（新泰路401巷29號對面）", "address": "中環路2段台65線高架下（新泰路401巷29號對面）", "violation_type": "超速", "direction": "南向北", "speed_limit": "50", "department": "新北市政府警察局", "branch": "交通大隊", "source_dataset": "新北市固定式測速照相 OpenAPI", "violation_group": "超速"}}, {"type": "Feature", "geometry": {"type": "Point", "coordinates": [121.442402, 25.051252]}, "properties": {"city": "新北市", "city_code": 65000, "district": "新莊區", "device_id": "ntpc-139", "road_segment": "", "location": "中環路3段台65線下橋墩（往中原路）", "address": "中環路3段台65線下橋墩（往中原路）", "violation_type": "超速", "direction": "南向北", "speed_limit": "50", "department": "新北市政府警察局", "branch": "交通大隊", "source_dataset": "新北市固定式測速照相 OpenAPI", "violation_group": "超速"}}, {"type": "Feature", "geometry": {"type": "Point", "coordinates": [121.460019, 25.051751]}, "properties": {"city": "新北市", "city_code": 65000, "district": "新莊區", "device_id": "ntpc-140", "road_segment": "", "location": "思源路370巷口（往五股）", "address": "思源路370巷口（往五股）", "violation_type": "超速", "direction": "南向北", "speed_limit": "40", "department": "新北市政府警察局", "branch": "交通大隊", "source_dataset": "新北市固定式測速照相 OpenAPI", "violation_group": "超速"}}, {"type": "Feature", "geometry": {"type": "Point", "coordinates": [121.459989, 25.042726]}, "properties": {"city": "新北市", "city_code": 65000, "district": "新莊區", "device_id": "ntpc-141", "road_segment": "", "location": "思源路與長青街口（往五股）", "address": "思源路與長青街口（往五股）", "violation_type": "超速", "direction": "南向北", "speed_limit": "50", "department": "新北市政府警察局", "branch": "交通大隊", "source_dataset": "新北市固定式測速照相 OpenAPI", "violation_group": "超速"}}, {"type": "Feature", "geometry": {"type": "Point", "coordinates": [121.465556, 25.040173]}, "properties": {"city": "新北市", "city_code": 65000, "district": "新莊區", "device_id": "ntpc-142", "road_segment": "", "location": "重新堤外道9.06公里處（往三重）", "address": "重新堤外道9.06公里處（往三重）", "violation_type": "超速", "direction": "西南向東北", "speed_limit": "50", "department": "新北市政府警察局", "branch": "交通大隊", "source_dataset": "新北市固定式測速照相 OpenAPI", "violation_group": "超速"}}, {"type": "Feature", "geometry": {"type": "Point", "coordinates": [121.442335, 25.050781]}, "properties": {"city": "新北市", "city_code": 65000, "district": "新莊區", "device_id": "ntpc-143", "road_segment": "", "location": "台65線快速公路1.8公里（往五股）", "address": "台65線快速公路1.8公里（往五股）", "violation_type": "超速", "direction": "北向南", "speed_limit": "80", "department": "新北市政府警察局", "branch": "交通大隊", "source_dataset": "新北市固定式測速照相 OpenAPI", "violation_group": "超速"}}, {"type": "Feature", "geometry": {"type": "Point", "coordinates": [121.44222, 25.050745]}, "properties": {"city": "新北市", "city_code": 65000, "district": "新莊區", "device_id": "ntpc-144", "road_segment": "", "location": "台65線快速公路1.8公里（往板橋）", "address": "台65線快速公路1.8公里（往板橋）", "violation_type": "超速", "direction": "南向北", "speed_limit": "80", "department": "新北市政府警察局", "branch": "交通大隊", "source_dataset": "新北市固定式測速照相 OpenAPI", "violation_group": "超速"}}, {"type": "Feature", "geometry": {"type": "Point", "coordinates": [121.775067, 25.103571]}, "properties": {"city": "新北市", "city_code": 65000, "district": "瑞芳區", "device_id": "ntpc-145", "road_segment": "", "location": "楓仔瀨路瑞楓陸橋前台2丁線5.95k（往基隆方向）", "address": "楓仔瀨路瑞楓陸橋前台2丁線5.95k（往基隆方向）", "violation_type": "超速", "direction": "南向北", "speed_limit": "50", "department": "新北市政府警察局", "branch": "瑞芳分局", "source_dataset": "新北市固定式測速照相 OpenAPI", "violation_group": "超速"}}, {"type": "Feature", "geometry": {"type": "Point", "coordinates": [121.863547, 25.122597]}, "properties": {"city": "新北市", "city_code": 65000, "district": "瑞芳區", "device_id": "ntpc-146", "road_segment": "", "location": "台2線78.4公里處與北34路口（往貢寮方向）", "address": "台2線78.4公里處與北34路口（往貢寮方向）", "violation_type": "闖紅燈、超速", "direction": "西北向東南", "speed_limit": "0", "department": "新北市政府警察局", "branch": "瑞芳分局", "source_dataset": "新北市固定式測速照相 OpenAPI", "violation_group": "複合取締"}}, {"type": "Feature", "geometry": {"type": "Point", "coordinates": [121.886591, 25.121658]}, "properties": {"city": "新北市", "city_code": 65000, "district": "瑞芳區", "device_id": "ntpc-147", "road_segment": "", "location": "台2線81公里欽賢國中旁（往宜蘭）", "address": "台2線81公里欽賢國中旁（往宜蘭）", "violation_type": "超速", "direction": "西北向東南", "speed_limit": "50", "department": "新北市政府警察局", "branch": "瑞芳分局", "source_dataset": "新北市固定式測速照相 OpenAPI", "violation_group": "超速"}}, {"type": "Feature", "geometry": {"type": "Point", "coordinates": [121.77535, 25.115045]}, "properties": {"city": "新北市", "city_code": 65000, "district": "瑞芳區", "device_id": "ntpc-148", "road_segment": "", "location": "台62甲線5公里處（往四腳亭方向）", "address": "台62甲線5公里處（往四腳亭方向）", "violation_type": "超速", "direction": "北向南", "speed_limit": "60", "department": "新北市政府警察局", "branch": "瑞芳分局", "source_dataset": "新北市固定式測速照相 OpenAPI", "violation_group": "超速"}}, {"type": "Feature", "geometry": {"type": "Point", "coordinates": [121.797094, 25.112539]}, "properties": {"city": "新北市", "city_code": 65000, "district": "瑞芳區", "device_id": "ntpc-149", "road_segment": "", "location": "台62線下明燈路3段匝道（往瑞芳方向）", "address": "台62線下明燈路3段匝道（往瑞芳方向）", "violation_type": "超速", "direction": "西向東", "speed_limit": "40", "department": "新北市政府警察局", "branch": "瑞芳分局", "source_dataset": "新北市固定式測速照相 OpenAPI", "violation_group": "超速"}}, {"type": "Feature", "geometry": {"type": "Point", "coordinates": [121.803068, 25.117173]}, "properties": {"city": "新北市", "city_code": 65000, "district": "瑞芳區", "device_id": "ntpc-150", "road_segment": "", "location": "台62線快速公路16.83公里處（往基隆方向）", "address": "台62線快速公路16.83公里處（往基隆方向）", "violation_type": "超速", "direction": "東北向西南", "speed_limit": "80", "department": "新北市政府警察局", "branch": "瑞芳分局", "source_dataset": "新北市固定式測速照相 OpenAPI", "violation_group": "超速"}}, {"type": "Feature", "geometry": {"type": "Point", "coordinates": [121.804016, 25.117487]}, "properties": {"city": "新北市", "city_code": 65000, "district": "瑞芳區", "device_id": "ntpc-151", "road_segment": "", "location": "台62線快速公路16.95公里處（往瑞芳方向）", "address": "台62線快速公路16.95公里處（往瑞芳方向）", "violation_type": "超速", "direction": "西南向東北", "speed_limit": "80", "department": "新北市政府警察局", "branch": "瑞芳分局", "source_dataset": "新北市固定式測速照相 OpenAPI", "violation_group": "超速"}}, {"type": "Feature", "geometry": {"type": "Point", "coordinates": [121.687612, 25.183181]}, "properties": {"city": "新北市", "city_code": 65000, "district": "萬里區", "device_id": "ntpc-152", "road_segment": "", "location": "瑪鋉路340號前（台2線49.537K往基隆或金山）", "address": "瑪鋉路340號前（台2線49.537K往基隆或金山）", "violation_type": "超速", "direction": "西北向東南", "speed_limit": "60", "department": "新北市政府警察局", "branch": "金山分局", "source_dataset": "新北市固定式測速照相 OpenAPI", "violation_group": "超速"}}, {"type": "Feature", "geometry": {"type": "Point", "coordinates": [121.646543, 25.212321]}, "properties": {"city": "新北市", "city_code": 65000, "district": "萬里區", "device_id": "ntpc-153", "road_segment": "", "location": "台2線43.5公里大鵬派出所前（往基隆）", "address": "台2線43.5公里大鵬派出所前（往基隆）", "violation_type": "闖紅燈", "direction": "西北向東南", "speed_limit": "50", "department": "新北市政府警察局", "branch": "金山分局", "source_dataset": "新北市固定式測速照相 OpenAPI", "violation_group": "闖紅燈"}}, {"type": "Feature", "geometry": {"type": "Point", "coordinates": [121.677723, 25.200483]}, "properties": {"city": "新北市", "city_code": 65000, "district": "萬里區", "device_id": "ntpc-154", "road_segment": "", "location": "台2線47.1公里萬里隧道出口處（往金山）", "address": "台2線47.1公里萬里隧道出口處（往金山）", "violation_type": "超速", "direction": "東向西", "speed_limit": "50", "department": "新北市政府警察局", "branch": "金山分局", "source_dataset": "新北市固定式測速照相 OpenAPI", "violation_group": "超速"}}, {"type": "Feature", "geometry": {"type": "Point", "coordinates": [121.683962, 25.191902]}, "properties": {"city": "新北市", "city_code": 65000, "district": "萬里區", "device_id": "ntpc-155", "road_segment": "", "location": "台2線48.3公里萬里隧道出口處（往基隆）", "address": "台2線48.3公里萬里隧道出口處（往基隆）", "violation_type": "超速", "direction": "東北向西南", "speed_limit": "50", "department": "新北市政府警察局", "branch": "金山分局", "source_dataset": "新北市固定式測速照相 OpenAPI", "violation_group": "超速"}}, {"type": "Feature", "geometry": {"type": "Point", "coordinates": [121.652785, 25.208886]}, "properties": {"city": "新北市", "city_code": 65000, "district": "萬里區", "device_id": "ntpc-156", "road_segment": "", "location": "台2線大鵬國小對面（往金山）", "address": "台2線大鵬國小對面（往金山）", "violation_type": "超速", "direction": "東向西", "speed_limit": "60", "department": "新北市政府警察局", "branch": "金山分局", "source_dataset": "新北市固定式測速照相 OpenAPI", "violation_group": "超速"}}, {"type": "Feature", "geometry": {"type": "Point", "coordinates": [121.408424, 24.969753]}, "properties": {"city": "新北市", "city_code": 65000, "district": "樹林區", "device_id": "ntpc-157", "road_segment": "", "location": "八德街336號（往板橋）", "address": "八德街336號（往板橋）", "violation_type": "超速", "direction": "西向東", "speed_limit": "50", "department": "新北市政府警察局", "branch": "交通大隊", "source_dataset": "新北市固定式測速照相 OpenAPI", "violation_group": "超速"}}, {"type": "Feature", "geometry": {"type": "Point", "coordinates": [121.391958, 24.968606]}, "properties": {"city": "新北市", "city_code": 65000, "district": "樹林區", "device_id": "ntpc-158", "road_segment": "", "location": "八德街與堤外道路（往鶯歌方向）", "address": "八德街與堤外道路（往鶯歌方向）", "violation_type": "闖紅燈、超速", "direction": "東向西", "speed_limit": "50", "department": "新北市政府警察局", "branch": "交通大隊", "source_dataset": "新北市固定式測速照相 OpenAPI", "violation_group": "複合取締"}}, {"type": "Feature", "geometry": {"type": "Point", "coordinates": [121.395372, 25.014333]}, "properties": {"city": "新北市", "city_code": 65000, "district": "樹林區", "device_id": "ntpc-159", "road_segment": "", "location": "三興路61號前（往樹林）", "address": "三興路61號前（往樹林）", "violation_type": "闖紅燈、超速", "direction": "西南向東北", "speed_limit": "50", "department": "新北市政府警察局", "branch": "交通大隊", "source_dataset": "新北市固定式測速照相 OpenAPI", "violation_group": "複合取締"}}, {"type": "Feature", "geometry": {"type": "Point", "coordinates": [121.412806, 24.984458]}, "properties": {"city": "新北市", "city_code": 65000, "district": "樹林區", "device_id": "ntpc-160", "road_segment": "", "location": "大安路537巷口（往新莊）", "address": "大安路537巷口（往新莊）", "violation_type": "闖紅燈、超速", "direction": "西南向東北", "speed_limit": "50", "department": "新北市政府警察局", "branch": "交通大隊", "source_dataset": "新北市固定式測速照相 OpenAPI", "violation_group": "複合取締"}}, {"type": "Feature", "geometry": {"type": "Point", "coordinates": [121.404629, 24.977729]}, "properties": {"city": "新北市", "city_code": 65000, "district": "樹林區", "device_id": "ntpc-161", "road_segment": "", "location": "中山路2段187號（雙向）", "address": "中山路2段187號（雙向）", "violation_type": "超速", "direction": "西南向東北", "speed_limit": "50", "department": "新北市政府警察局", "branch": "交通大隊", "source_dataset": "新北市固定式測速照相 OpenAPI", "violation_group": "超速"}}, {"type": "Feature", "geometry": {"type": "Point", "coordinates": [121.384269, 24.967121]}, "properties": {"city": "新北市", "city_code": 65000, "district": "樹林區", "device_id": "ntpc-162", "road_segment": "", "location": "中山路高架橋頭（往樹林）", "address": "中山路高架橋頭（往樹林）", "violation_type": "超速", "direction": "西南向東北", "speed_limit": "50", "department": "新北市政府警察局", "branch": "交通大隊", "source_dataset": "新北市固定式測速照相 OpenAPI", "violation_group": "超速"}}, {"type": "Feature", "geometry": {"type": "Point", "coordinates": [121.426763, 24.999967]}, "properties": {"city": "新北市", "city_code": 65000, "district": "樹林區", "device_id": "ntpc-163", "road_segment": "", "location": "樹林陸橋樹林端（板橋往樹林方向）", "address": "樹林陸橋樹林端（板橋往樹林方向）", "violation_type": "超速", "direction": "東南向西北", "speed_limit": "40", "department": "新北市政府警察局", "branch": "交通大隊", "source_dataset": "新北市固定式測速照相 OpenAPI", "violation_group": "超速"}}, {"type": "Feature", "geometry": {"type": "Point", "coordinates": [121.419166, 24.97285]}, "properties": {"city": "新北市", "city_code": 65000, "district": "樹林區", "device_id": "ntpc-164", "road_segment": "", "location": "環漢路5段與東豐街口（往板橋）", "address": "環漢路5段與東豐街口（往板橋）", "violation_type": "闖紅燈、超速", "direction": "西南向東北", "speed_limit": "50", "department": "新北市政府警察局", "branch": "交通大隊", "source_dataset": "新北市固定式測速照相 OpenAPI", "violation_group": "複合取締"}}, {"type": "Feature", "geometry": {"type": "Point", "coordinates": [121.788042, 25.021789]}, "properties": {"city": "新北市", "city_code": 65000, "district": "雙溪區", "device_id": "ntpc-165", "road_segment": "", "location": "台2丙線12.1公里（平雙隧道內避車彎）", "address": "台2丙線12.1公里（平雙隧道內避車彎）", "violation_type": "超速", "direction": "東南向西北", "speed_limit": "50", "department": "新北市政府警察局", "branch": "瑞芳分局", "source_dataset": "新北市固定式測速照相 OpenAPI", "violation_group": "超速"}}, {"type": "Feature", "geometry": {"type": "Point", "coordinates": [121.793645, 25.019227]}, "properties": {"city": "新北市", "city_code": 65000, "district": "雙溪區", "device_id": "ntpc-166", "road_segment": "", "location": "台2丙線12.7公里（往雙溪）", "address": "台2丙線12.7公里（往雙溪）", "violation_type": "超速", "direction": "西北向東南", "speed_limit": "50", "department": "新北市政府警察局", "branch": "瑞芳分局", "source_dataset": "新北市固定式測速照相 OpenAPI", "violation_group": "超速"}}, {"type": "Feature", "geometry": {"type": "Point", "coordinates": [121.812427, 25.021003]}, "properties": {"city": "新北市", "city_code": 65000, "district": "雙溪區", "device_id": "ntpc-167", "road_segment": "", "location": "台2丙線14.95公里與雙柑公路口（往貢寮）", "address": "台2丙線14.95公里與雙柑公路口（往貢寮）", "violation_type": "超速", "direction": "西向東", "speed_limit": "60", "department": "新北市政府警察局", "branch": "瑞芳分局", "source_dataset": "新北市固定式測速照相 OpenAPI", "violation_group": "超速"}}, {"type": "Feature", "geometry": {"type": "Point", "coordinates": [121.83002, 25.028564]}, "properties": {"city": "新北市", "city_code": 65000, "district": "雙溪區", "device_id": "ntpc-168", "road_segment": "", "location": "台2丙線17公里（往雙溪）", "address": "台2丙線17公里（往雙溪）", "violation_type": "超速", "direction": "西南向東北", "speed_limit": "60", "department": "新北市政府警察局", "branch": "瑞芳分局", "source_dataset": "新北市固定式測速照相 OpenAPI", "violation_group": "超速"}}, {"type": "Feature", "geometry": {"type": "Point", "coordinates": [121.455851, 25.089067]}, "properties": {"city": "新北市", "city_code": 65000, "district": "蘆洲區", "device_id": "ntpc-169", "road_segment": "", "location": "環堤大道與永樂街口（雙向）", "address": "環堤大道與永樂街口（雙向）", "violation_type": "闖紅燈、超速", "direction": "南向北", "speed_limit": "50", "department": "新北市政府警察局", "branch": "交通大隊", "source_dataset": "新北市固定式測速照相 OpenAPI", "violation_group": "複合取締"}}, {"type": "Feature", "geometry": {"type": "Point", "coordinates": [121.34703, 24.95701]}, "properties": {"city": "新北市", "city_code": 65000, "district": "鶯歌區", "device_id": "ntpc-170", "road_segment": "", "location": "中山路196號（雙向）", "address": "中山路196號（雙向）", "violation_type": "超速", "direction": "東向西", "speed_limit": "50", "department": "新北市政府警察局", "branch": "交通大隊", "source_dataset": "新北市固定式測速照相 OpenAPI", "violation_group": "超速"}}, {"type": "Feature", "geometry": {"type": "Point", "coordinates": [121.36128, 24.957019]}, "properties": {"city": "新北市", "city_code": 65000, "district": "鶯歌區", "device_id": "ntpc-171", "road_segment": "", "location": "中正一路426號前（往樹林）", "address": "中正一路426號前（往樹林）", "violation_type": "超速", "direction": "西向東", "speed_limit": "50", "department": "新北市政府警察局", "branch": "交通大隊", "source_dataset": "新北市固定式測速照相 OpenAPI", "violation_group": "超速"}}, {"type": "Feature", "geometry": {"type": "Point", "coordinates": [121.344029, 24.949122]}, "properties": {"city": "新北市", "city_code": 65000, "district": "鶯歌區", "device_id": "ntpc-172", "road_segment": "", "location": "中正二路204463號燈桿旁（往鶯歌）", "address": "中正二路204463號燈桿旁（往鶯歌）", "violation_type": "超速", "direction": "西南向東北", "speed_limit": "50", "department": "新北市政府警察局", "branch": "交通大隊", "source_dataset": "新北市固定式測速照相 OpenAPI", "violation_group": "超速"}}, {"type": "Feature", "geometry": {"type": "Point", "coordinates": [121.335574, 24.939499]}, "properties": {"city": "新北市", "city_code": 65000, "district": "鶯歌區", "device_id": "ntpc-173", "road_segment": "", "location": "中正三路193巷口（往大溪）", "address": "中正三路193巷口（往大溪）", "violation_type": "超速", "direction": "東北向西南", "speed_limit": "40", "department": "新北市政府警察局", "branch": "交通大隊", "source_dataset": "新北市固定式測速照相 OpenAPI", "violation_group": "超速"}}, {"type": "Feature", "geometry": {"type": "Point", "coordinates": [121.338389, 24.963926]}, "properties": {"city": "新北市", "city_code": 65000, "district": "鶯歌區", "device_id": "ntpc-174", "road_segment": "", "location": "西湖街191號前（往樹林）", "address": "西湖街191號前（往樹林）", "violation_type": "超速", "direction": "北向南", "speed_limit": "50", "department": "新北市政府警察局", "branch": "交通大隊", "source_dataset": "新北市固定式測速照相 OpenAPI", "violation_group": "超速"}}, {"type": "Feature", "geometry": {"type": "Point", "coordinates": [121.371363, 24.958024]}, "properties": {"city": "新北市", "city_code": 65000, "district": "鶯歌區", "device_id": "ntpc-175", "road_segment": "", "location": "館前路2.4公里（往樹林方向）", "address": "館前路2.4公里（往樹林方向）", "violation_type": "超速", "direction": "西南向東北", "speed_limit": "50", "department": "新北市政府警察局", "branch": "交通大隊", "source_dataset": "新北市固定式測速照相 OpenAPI", "violation_group": "超速"}}, {"type": "Feature", "geometry": {"type": "Point", "coordinates": [121.337791, 24.929587]}, "properties": {"city": "新北市", "city_code": 65000, "district": "鶯歌區", "device_id": "ntpc-176", "road_segment": "", "location": "環河路205389號燈桿旁（雙向）", "address": "環河路205389號燈桿旁（雙向）", "violation_type": "超速", "direction": "西向東", "speed_limit": "40", "department": "新北市政府警察局", "branch": "交通大隊", "source_dataset": "新北市固定式測速照相 OpenAPI", "violation_group": "超速"}}, {"type": "Feature", "geometry": {"type": "Point", "coordinates": [121.6236371, 24.9569297]}, "properties": {"city": "新北市", "city_code": 65000, "district": "石碇區", "device_id": "ntpc-177", "road_segment": "", "location": "台9線19K至23.1K（雙向）", "address": "台9線19K至23.1K（雙向）", "violation_type": "", "direction": "東西雙向(區間測速)", "speed_limit": "40", "department": "新北市政府警察局", "branch": "新店分局", "source_dataset": "新北市固定式測速照相 OpenAPI", "violation_group": "未標示"}}, {"type": "Feature", "geometry": {"type": "Point", "coordinates": [121.6708954, 24.9430715]}, "properties": {"city": "新北市", "city_code": 65000, "district": "坪林區", "device_id": "ntpc-178", "road_segment": "", "location": "台9線26.2K至32.2K（雙向）", "address": "台9線26.2K至32.2K（雙向）", "violation_type": "", "direction": "東西雙向(區間測速)", "speed_limit": "40", "department": "新北市政府警察局", "branch": "新店分局", "source_dataset": "新北市固定式測速照相 OpenAPI", "violation_group": "未標示"}}, {"type": "Feature", "geometry": {"type": "Point", "coordinates": [121.7035178, 24.9360445]}, "properties": {"city": "新北市", "city_code": 65000, "district": "坪林區", "device_id": "ntpc-179", "road_segment": "", "location": "台9線33.3K至37.2K（雙向）", "address": "台9線33.3K至37.2K（雙向）", "violation_type": "", "direction": "東西雙向(區間測速)", "speed_limit": "40", "department": "新北市政府警察局", "branch": "新店分局", "source_dataset": "新北市固定式測速照相 OpenAPI", "violation_group": "未標示"}}, {"type": "Feature", "geometry": {"type": "Point", "coordinates": [121.4912557, 24.9940327]}, "properties": {"city": "新北市", "city_code": 65000, "district": "中和區", "device_id": "ntpc-180", "road_segment": "", "location": "台64線快速公路25.2k至28.2k（雙向）", "address": "台64線快速公路25.2k至28.2k（雙向）", "violation_type": "", "direction": "東西雙向(區間測速)", "speed_limit": "70", "department": "新北市政府警察局", "branch": "中和分局", "source_dataset": "新北市固定式測速照相 OpenAPI", "violation_group": "未標示"}}, {"type": "Feature", "geometry": {"type": "Point", "coordinates": [121.4707713, 25.0189783]}, "properties": {"city": "新北市", "city_code": 65000, "district": "中和區", "device_id": "ntpc-181", "road_segment": "", "location": "台64線快速公路東向21.4K主線至23.2K", "address": "台64線快速公路東向21.4K主線至23.2K", "violation_type": "", "direction": "東向(區間測速)", "speed_limit": "70", "department": "新北市政府警察局", "branch": "中和分局", "source_dataset": "新北市固定式測速照相 OpenAPI", "violation_group": "未標示"}}, {"type": "Feature", "geometry": {"type": "Point", "coordinates": [121.451254, 24.9991346]}, "properties": {"city": "新北市", "city_code": 65000, "district": "新莊區", "device_id": "ntpc-182", "road_segment": "", "location": "台65線快速公路北向7.9K主線至4.5K", "address": "台65線快速公路北向7.9K主線至4.5K", "violation_type": "", "direction": "北向(區間測速)", "speed_limit": "80", "department": "新北市政府警察局", "branch": "新莊分局", "source_dataset": "新北市固定式測速照相 OpenAPI", "violation_group": "未標示"}}, {"type": "Feature", "geometry": {"type": "Point", "coordinates": [121.5292394, 24.9718199]}, "properties": {"city": "新北市", "city_code": 65000, "district": "新店區", "device_id": "ntpc-183", "road_segment": "", "location": "環河路（中央路至白馬寺，雙向）", "address": "環河路（中央路至白馬寺，雙向）", "violation_type": "", "direction": "東西雙向(區間測速)", "speed_limit": "60", "department": "新北市政府警察局", "branch": "新店分局", "source_dataset": "新北市固定式測速照相 OpenAPI", "violation_group": "未標示"}}, {"type": "Feature", "geometry": {"type": "Point", "coordinates": [121.4221989, 25.1116139]}, "properties": {"city": "新北市", "city_code": 65000, "district": "八里區", "device_id": "ntpc-184", "road_segment": "", "location": "省道台64線西向1.6K至5.4K", "address": "省道台64線西向1.6K至5.4K", "violation_type": "", "direction": "西向(區間測速)", "speed_limit": "80", "department": "新北市政府警察局", "branch": "蘆洲分局", "source_dataset": "新北市固定式測速照相 OpenAPI", "violation_group": "未標示"}}, {"type": "Feature", "geometry": {"type": "Point", "coordinates": [121.3982646, 25.043957]}, "properties": {"city": "新北市", "city_code": 65000, "district": "新莊區", "device_id": "ntpc-185", "road_segment": "", "location": "新莊區壽山路（北118線0K至1.2K）（往新莊方向）", "address": "新莊區壽山路（北118線0K至1.2K）（往新莊方向）", "violation_type": "", "direction": "東向(區間測速)", "speed_limit": "40", "department": "新北市政府警察局", "branch": "新莊分局", "source_dataset": "新北市固定式測速照相 OpenAPI", "violation_group": "未標示"}}, {"type": "Feature", "geometry": {"type": "Point", "coordinates": [121.8230243, 25.120868]}, "properties": {"city": "新北市", "city_code": 65000, "district": "瑞芳區", "device_id": "ntpc-186", "road_segment": "", "location": "省道台2線73.7K至79.6K（雙向）", "address": "省道台2線73.7K至79.6K（雙向）", "violation_type": "", "direction": "東西雙向(區間測速)", "speed_limit": "60", "department": "新北市政府警察局", "branch": "瑞芳分局", "source_dataset": "新北市固定式測速照相 OpenAPI", "violation_group": "未標示"}}, {"type": "Feature", "geometry": {"type": "Point", "coordinates": [121.8755036, 25.1233385]}, "properties": {"city": "新北市", "city_code": 65000, "district": "瑞芳區", "device_id": "ntpc-187", "road_segment": "", "location": "省道台2線79.7K至84K（雙向）", "address": "省道台2線79.7K至84K（雙向）", "violation_type": "", "direction": "東西雙向(區間測速)", "speed_limit": "60", "department": "新北市政府警察局", "branch": "瑞芳分局", "source_dataset": "新北市固定式測速照相 OpenAPI", "violation_group": "未標示"}}, {"type": "Feature", "geometry": {"type": "Point", "coordinates": [121.9119988, 25.1129016]}, "properties": {"city": "新北市", "city_code": 65000, "district": "貢寮區", "device_id": "ntpc-188", "road_segment": "", "location": "省道台2線85.8K至87.5K（雙向）", "address": "省道台2線85.8K至87.5K（雙向）", "violation_type": "", "direction": "東西雙向(區間測速)", "speed_limit": "50", "department": "新北市政府警察局", "branch": "瑞芳分局", "source_dataset": "新北市固定式測速照相 OpenAPI", "violation_group": "未標示"}}, {"type": "Feature", "geometry": {"type": "Point", "coordinates": [121.9882414, 25.0158013]}, "properties": {"city": "新北市", "city_code": 65000, "district": "貢寮區", "device_id": "ntpc-189", "road_segment": "", "location": "省道台2線105.8K至113.2K（雙向）", "address": "省道台2線105.8K至113.2K（雙向）", "violation_type": "", "direction": "東西雙向(區間測速)", "speed_limit": "60", "department": "新北市政府警察局", "branch": "瑞芳分局", "source_dataset": "新北市固定式測速照相 OpenAPI", "violation_group": "未標示"}}, {"type": "Feature", "geometry": {"type": "Point", "coordinates": [121.3751827, 24.8705956]}, "properties": {"city": "新北市", "city_code": 65000, "district": "三峽區", "device_id": "ntpc-190", "road_segment": "", "location": "台7乙線5.3K至8.1K（雙向）", "address": "台7乙線5.3K至8.1K（雙向）", "violation_type": "", "direction": "南北雙向(區間測速)", "speed_limit": "40", "department": "新北市政府警察局", "branch": "三峽分局", "source_dataset": "新北市固定式測速照相 OpenAPI", "violation_group": "未標示"}}]}