{"type": "FeatureCollection", "features": [{"type": "Feature", "geometry": {"type": "Point", "coordinates": [121.5199333, 25.07450558]}, "properties": {"city": "臺北市", "city_code": 63000, "district": "大同區", "device_id": 1, "road_segment": "承德路3段", "location": "敦煌路口", "address": "承德路3段敦煌路口", "violation_type": "測速", "direction": "南北雙向", "speed_limit": "50", "department": "臺北市政府警察局", "branch": "", "source_dataset": "臺北市政府警察局固定式違規照相設備及區間測速裝置設置地點一覽表", "violation_group": "超速"}}, {"type": "Feature", "geometry": {"type": "Point", "coordinates": [121.5088674, 25.06589275]}, "properties": {"city": "臺北市", "city_code": 63000, "district": "大同區", "device_id": 2, "road_segment": "環河北路2段", "location": "昌吉街口", "address": "環河北路2段昌吉街口", "violation_type": "測速", "direction": "南北雙向", "speed_limit": "50(往北) 60(往南)", "department": "臺北市政府警察局", "branch": "", "source_dataset": "臺北市政府警察局固定式違規照相設備及區間測速裝置設置地點一覽表", "violation_group": "超速"}}, {"type": "Feature", "geometry": {"type": "Point", "coordinates": [121.5108324, 25.06287864]}, "properties": {"city": "臺北市", "city_code": 63000, "district": "大同區", "device_id": 3, "road_segment": "台北橋機車道下橋", "location": "近民權西路與延平北路口", "address": "台北橋機車道下橋近民權西路與延平北路口", "violation_type": "測速(兼闖紅燈)", "direction": "西向東", "speed_limit": "40", "department": "臺北市政府警察局", "branch": "", "source_dataset": "臺北市政府警察局固定式違規照相設備及區間測速裝置設置地點一覽表", "violation_group": "複合取締"}}, {"type": "Feature", "geometry": {"type": "Point", "coordinates": [121.5182331, 25.06042103]}, "properties": {"city": "臺北市", "city_code": 63000, "district": "大同區", "device_id": 4, "road_segment": "承德路2段", "location": "錦西街口", "address": "承德路2段錦西街口", "violation_type": "闖紅燈", "direction": "北向南", "speed_limit": "50", "department": "臺北市政府警察局", "branch": "", "source_dataset": "臺北市政府警察局固定式違規照相設備及區間測速裝置設置地點一覽表", "violation_group": "闖紅燈"}}, {"type": "Feature", "geometry": {"type": "Point", "coordinates": [121.5167646, 25.04887127]}, "properties": {"city": "臺北市", "city_code": 63000, "district": "大同區", "device_id": 5, "road_segment": "承德路", "location": "市民大道口(東北)", "address": "承德路市民大道口(東北)", "violation_type": "闖紅燈", "direction": "東向西", "speed_limit": "40", "department": "臺北市政府警察局", "branch": "", "source_dataset": "臺北市政府警察局固定式違規照相設備及區間測速裝置設置地點一覽表", "violation_group": "闖紅燈"}}, {"type": "Feature", "geometry": {"type": "Point", "coordinates": [121.5181914, 25.0569504]}, "properties": {"city": "臺北市", "city_code": 63000, "district": "大同區", "device_id": 6, "road_segment": "民生西路", "location": "承德路2段口", "address": "民生西路承德路2段口", "violation_type": "闖紅燈及路口淨空", "direction": "南向北", "speed_limit": "\\", "department": "臺北市政府警察局", "branch": "", "source_dataset": "臺北市政府警察局固定式違規照相設備及區間測速裝置設置地點一覽表", "violation_group": "闖紅燈"}}, {"type": "Feature", "geometry": {"type": "Point", "coordinates": [121.4966843, 25.03301693]}, "properties": {"city": "臺北市", "city_code": 63000, "district": "萬華區", "device_id": 7, "road_segment": "艋舺大道297號前", "location": "台糖公司前", "address": "艋舺大道297號前台糖公司前", "violation_type": "測速", "direction": "東向西", "speed_limit": "50", "department": "臺北市政府警察局", "branch": "", "source_dataset": "臺北市政府警察局固定式違規照相設備及區間測速裝置設置地點一覽表", "violation_group": "超速"}}, {"type": "Feature", "geometry": {"type": "Point", "coordinates": [121.4897124, 25.03051254]}, "properties": {"city": "臺北市", "city_code": 63000, "district": "萬華區", "device_id": 8, "road_segment": "萬板大橋", "location": "台北端引道", "address": "萬板大橋台北端引道", "violation_type": "測速", "direction": "往台北市", "speed_limit": "50", "department": "臺北市政府警察局", "branch": "", "source_dataset": "臺北市政府警察局固定式違規照相設備及區間測速裝置設置地點一覽表", "violation_group": "超速"}}, {"type": "Feature", "geometry": {"type": "Point", "coordinates": [121.5004223, 25.04378495]}, "properties": {"city": "臺北市", "city_code": 63000, "district": "萬華區", "device_id": 9, "road_segment": "環河南路快速道路", "location": "中興橋匝道(環河南路2段250巷口)", "address": "環河南路快速道路中興橋匝道(環河南路2段250巷口)", "violation_type": "測速", "direction": "北向南", "speed_limit": "60", "department": "臺北市政府警察局", "branch": "", "source_dataset": "臺北市政府警察局固定式違規照相設備及區間測速裝置設置地點一覽表", "violation_group": "超速"}}, {"type": "Feature", "geometry": {"type": "Point", "coordinates": [121.4971925, 25.03531226]}, "properties": {"city": "臺北市", "city_code": 63000, "district": "萬華區", "device_id": 10, "road_segment": "和平西路3段199號前", "location": "", "address": "和平西路3段199號前", "violation_type": "測速", "direction": "西向東", "speed_limit": "50", "department": "臺北市政府警察局", "branch": "", "source_dataset": "臺北市政府警察局固定式違規照相設備及區間測速裝置設置地點一覽表", "violation_group": "超速"}}, {"type": "Feature", "geometry": {"type": "Point", "coordinates": [121.501135, 25.04454625]}, "properties": {"city": "臺北市", "city_code": 63000, "district": "萬華區", "device_id": 11, "road_segment": "環河南路1段77號對面", "location": "", "address": "環河南路1段77號對面", "violation_type": "測速", "direction": "北向南", "speed_limit": "40", "department": "臺北市政府警察局", "branch": "", "source_dataset": "臺北市政府警察局固定式違規照相設備及區間測速裝置設置地點一覽表", "violation_group": "超速"}}, {"type": "Feature", "geometry": {"type": "Point", "coordinates": [121.4971515, 25.01908628]}, "properties": {"city": "臺北市", "city_code": 63000, "district": "萬華區", "device_id": 12, "road_segment": "華中橋頭", "location": "萬大路口", "address": "華中橋頭萬大路口", "violation_type": "測速", "direction": "南北雙向", "speed_limit": "50", "department": "臺北市政府警察局", "branch": "", "source_dataset": "臺北市政府警察局固定式違規照相設備及區間測速裝置設置地點一覽表", "violation_group": "超速"}}, {"type": "Feature", "geometry": {"type": "Point", "coordinates": [121.5074916, 25.04001469]}, "properties": {"city": "臺北市", "city_code": 63000, "district": "萬華區", "device_id": 13, "road_segment": "中華路1段406號廣場前", "location": "", "address": "中華路1段406號廣場前", "violation_type": "測速", "direction": "北向南", "speed_limit": "50", "department": "臺北市政府警察局", "branch": "", "source_dataset": "臺北市政府警察局固定式違規照相設備及區間測速裝置設置地點一覽表", "violation_group": "超速"}}, {"type": "Feature", "geometry": {"type": "Point", "coordinates": [121.4990567, 25.04151351]}, "properties": {"city": "臺北市", "city_code": 63000, "district": "萬華區", "device_id": 14, "road_segment": "貴陽疏散門外堤外便道", "location": "", "address": "貴陽疏散門外堤外便道", "violation_type": "測速", "direction": "南向北", "speed_limit": "40", "department": "臺北市政府警察局", "branch": "", "source_dataset": "臺北市政府警察局固定式違規照相設備及區間測速裝置設置地點一覽表", "violation_group": "超速"}}, {"type": "Feature", "geometry": {"type": "Point", "coordinates": [121.5025393, 25.03328791]}, "properties": {"city": "臺北市", "city_code": 63000, "district": "萬華區", "device_id": 15, "road_segment": "艋舺大道", "location": "120巷口", "address": "艋舺大道120巷口", "violation_type": "闖紅燈", "direction": "東向西", "speed_limit": "50", "department": "臺北市政府警察局", "branch": "", "source_dataset": "臺北市政府警察局固定式違規照相設備及區間測速裝置設置地點一覽表", "violation_group": "闖紅燈"}}, {"type": "Feature", "geometry": {"type": "Point", "coordinates": [121.4932307, 25.03027803]}, "properties": {"city": "臺北市", "city_code": 63000, "district": "萬華區", "device_id": 16, "road_segment": "艋舺大道", "location": "雙園街口", "address": "艋舺大道雙園街口", "violation_type": "闖紅燈", "direction": "西向東", "speed_limit": "50", "department": "臺北市政府警察局", "branch": "", "source_dataset": "臺北市政府警察局固定式違規照相設備及區間測速裝置設置地點一覽表", "violation_group": "闖紅燈"}}, {"type": "Feature", "geometry": {"type": "Point", "coordinates": [121.507326, 25.03895031]}, "properties": {"city": "臺北市", "city_code": 63000, "district": "萬華區", "device_id": 17, "road_segment": "中華路1段", "location": "貴陽路口", "address": "中華路1段貴陽路口", "violation_type": "闖紅燈", "direction": "南向北", "speed_limit": "50", "department": "臺北市政府警察局", "branch": "", "source_dataset": "臺北市政府警察局固定式違規照相設備及區間測速裝置設置地點一覽表", "violation_group": "闖紅燈"}}, {"type": "Feature", "geometry": {"type": "Point", "coordinates": [121.4962426, 25.02990258]}, "properties": {"city": "臺北市", "city_code": 63000, "district": "萬華區", "device_id": 18, "road_segment": "西園路2段", "location": "140巷口", "address": "西園路2段140巷口", "violation_type": "闖紅燈", "direction": "南向北", "speed_limit": "50", "department": "臺北市政府警察局", "branch": "", "source_dataset": "臺北市政府警察局固定式違規照相設備及區間測速裝置設置地點一覽表", "violation_group": "闖紅燈"}}, {"type": "Feature", "geometry": {"type": "Point", "coordinates": [121.4927469, 25.02610889]}, "properties": {"city": "臺北市", "city_code": 63000, "district": "萬華區", "device_id": 19, "road_segment": "西園路2段", "location": "光復橋頭往新北市", "address": "西園路2段光復橋頭往新北市", "violation_type": "闖紅燈、測速", "direction": "東西雙向", "speed_limit": "50", "department": "臺北市政府警察局", "branch": "", "source_dataset": "臺北市政府警察局固定式違規照相設備及區間測速裝置設置地點一覽表", "violation_group": "複合取締"}}, {"type": "Feature", "geometry": {"type": "Point", "coordinates": [121.5367159, 25.05268643]}, "properties": {"city": "臺北市", "city_code": 63000, "district": "中山區", "device_id": 20, "road_segment": "建國高架道", "location": "長春路入口", "address": "建國高架道長春路入口", "violation_type": "測速", "direction": "北向南", "speed_limit": "70", "department": "臺北市政府警察局", "branch": "", "source_dataset": "臺北市政府警察局固定式違規照相設備及區間測速裝置設置地點一覽表", "violation_group": "超速"}}, {"type": "Feature", "geometry": {"type": "Point", "coordinates": [121.527737, 25.066527]}, "properties": {"city": "臺北市", "city_code": 63000, "district": "中山區", "device_id": 21, "road_segment": "新生北路高架道", "location": "民族東路入口", "address": "新生北路高架道民族東路入口", "violation_type": "測速", "direction": "北向南", "speed_limit": "70", "department": "臺北市政府警察局", "branch": "", "source_dataset": "臺北市政府警察局固定式違規照相設備及區間測速裝置設置地點一覽表", "violation_group": "超速"}}, {"type": "Feature", "geometry": {"type": "Point", "coordinates": [121.5443293, 25.07178967]}, "properties": {"city": "臺北市", "city_code": 63000, "district": "中山區", "device_id": 22, "road_segment": "復興北路", "location": "車行地下道北出口處", "address": "復興北路車行地下道北出口處", "violation_type": "測速", "direction": "南向北", "speed_limit": "40", "department": "臺北市政府警察局", "branch": "", "source_dataset": "臺北市政府警察局固定式違規照相設備及區間測速裝置設置地點一覽表", "violation_group": "超速"}}, {"type": "Feature", "geometry": {"type": "Point", "coordinates": [121.5663528, 25.07656613]}, "properties": {"city": "臺北市", "city_code": 63000, "district": "中山區", "device_id": 23, "road_segment": "樂群一路", "location": "基湖路口西往東天橋下(金泰公園)", "address": "樂群一路基湖路口西往東天橋下(金泰公園)", "violation_type": "測速", "direction": "西向東", "speed_limit": "50", "department": "臺北市政府警察局", "branch": "", "source_dataset": "臺北市政府警察局固定式違規照相設備及區間測速裝置設置地點一覽表", "violation_group": "超速"}}, {"type": "Feature", "geometry": {"type": "Point", "coordinates": [121.5407676, 25.07762563]}, "properties": {"city": "臺北市", "city_code": 63000, "district": "中山區", "device_id": 24, "road_segment": "明水路325號前", "location": "", "address": "明水路325號前", "violation_type": "測速", "direction": "東西雙向", "speed_limit": "50", "department": "臺北市政府警察局", "branch": "", "source_dataset": "臺北市政府警察局固定式違規照相設備及區間測速裝置設置地點一覽表", "violation_group": "超速"}}, {"type": "Feature", "geometry": {"type": "Point", "coordinates": [121.5424435, 25.04463181]}, "properties": {"city": "臺北市", "city_code": 63000, "district": "中山區", "device_id": 25, "road_segment": "市民高架道", "location": "下建國南路", "address": "市民高架道下建國南路", "violation_type": "測速", "direction": "東西雙向", "speed_limit": "80", "department": "臺北市政府警察局", "branch": "", "source_dataset": "臺北市政府警察局固定式違規照相設備及區間測速裝置設置地點一覽表", "violation_group": "超速"}}, {"type": "Feature", "geometry": {"type": "Point", "coordinates": [121.5363861, 25.07790066]}, "properties": {"city": "臺北市", "city_code": 63000, "district": "中山區", "device_id": 26, "road_segment": "北安路", "location": "海軍司令部前", "address": "北安路海軍司令部前", "violation_type": "測速", "direction": "東西雙向", "speed_limit": "50", "department": "臺北市政府警察局", "branch": "", "source_dataset": "臺北市政府警察局固定式違規照相設備及區間測速裝置設置地點一覽表", "violation_group": "超速"}}, {"type": "Feature", "geometry": {"type": "Point", "coordinates": [121.5198336, 25.04820806]}, "properties": {"city": "臺北市", "city_code": 63000, "district": "中山區", "device_id": 27, "road_segment": "市民大道(高架道)", "location": "京站百貨前", "address": "市民大道(高架道)京站百貨前", "violation_type": "測速", "direction": "西向東", "speed_limit": "80", "department": "臺北市政府警察局", "branch": "", "source_dataset": "臺北市政府警察局固定式違規照相設備及區間測速裝置設置地點一覽表", "violation_group": "超速"}}, {"type": "Feature", "geometry": {"type": "Point", "coordinates": [121.5365678, 25.06500011]}, "properties": {"city": "臺北市", "city_code": 63000, "district": "中山區", "device_id": 28, "road_segment": "建國北路", "location": "農安街口", "address": "建國北路農安街口", "violation_type": "測速(兼闖紅燈)", "direction": "北向南", "speed_limit": "50", "department": "臺北市政府警察局", "branch": "", "source_dataset": "臺北市政府警察局固定式違規照相設備及區間測速裝置設置地點一覽表", "violation_group": "複合取締"}}, {"type": "Feature", "geometry": {"type": "Point", "coordinates": [121.5371673, 25.06208253]}, "properties": {"city": "臺北市", "city_code": 63000, "district": "中山區", "device_id": 29, "road_segment": "民權東路", "location": "建國北路口", "address": "民權東路建國北路口", "violation_type": "闖紅燈", "direction": "南向北", "speed_limit": "50", "department": "臺北市政府警察局", "branch": "", "source_dataset": "臺北市政府警察局固定式違規照相設備及區間測速裝置設置地點一覽表", "violation_group": "闖紅燈"}}, {"type": "Feature", "geometry": {"type": "Point", "coordinates": [121.5418913, 25.05779164]}, "properties": {"city": "臺北市", "city_code": 63000, "district": "中山區", "device_id": 30, "road_segment": "民生東路3段", "location": "遼寧街口（台北大學前）", "address": "民生東路3段遼寧街口（台北大學前）", "violation_type": "闖紅燈", "direction": "西向東", "speed_limit": "50", "department": "臺北市政府警察局", "branch": "", "source_dataset": "臺北市政府警察局固定式違規照相設備及區間測速裝置設置地點一覽表", "violation_group": "闖紅燈"}}, {"type": "Feature", "geometry": {"type": "Point", "coordinates": [121.5530596, 25.08565489]}, "properties": {"city": "臺北市", "city_code": 63000, "district": "中山區", "device_id": 31, "road_segment": "北安路", "location": "明水路口（劍南路口前端）", "address": "北安路明水路口（劍南路口前端）", "violation_type": "闖紅燈", "direction": "東向西", "speed_limit": "50", "department": "臺北市政府警察局", "branch": "", "source_dataset": "臺北市政府警察局固定式違規照相設備及區間測速裝置設置地點一覽表", "violation_group": "闖紅燈"}}, {"type": "Feature", "geometry": {"type": "Point", "coordinates": [121.5331012, 25.06849636]}, "properties": {"city": "臺北市", "city_code": 63000, "district": "中山區", "device_id": 32, "road_segment": "松江路", "location": "民族東路口", "address": "松江路民族東路口", "violation_type": "闖紅燈", "direction": "北向南", "speed_limit": "50", "department": "臺北市政府警察局", "branch": "", "source_dataset": "臺北市政府警察局固定式違規照相設備及區間測速裝置設置地點一覽表", "violation_group": "闖紅燈"}}, {"type": "Feature", "geometry": {"type": "Point", "coordinates": [121.5368553, 25.0481484]}, "properties": {"city": "臺北市", "city_code": 63000, "district": "中山區", "device_id": 33, "road_segment": "建國北路1段", "location": "長安東路口", "address": "建國北路1段長安東路口", "violation_type": "闖紅燈", "direction": "南向北", "speed_limit": "50", "department": "臺北市政府警察局", "branch": "", "source_dataset": "臺北市政府警察局固定式違規照相設備及區間測速裝置設置地點一覽表", "violation_group": "闖紅燈"}}, {"type": "Feature", "geometry": {"type": "Point", "coordinates": [121.5441309, 25.0581323]}, "properties": {"city": "臺北市", "city_code": 63000, "district": "中山區", "device_id": 34, "road_segment": "復興北路", "location": "民生東路口", "address": "復興北路民生東路口", "violation_type": "闖紅燈", "direction": "北向南", "speed_limit": "50", "department": "臺北市政府警察局", "branch": "", "source_dataset": "臺北市政府警察局固定式違規照相設備及區間測速裝置設置地點一覽表", "violation_group": "闖紅燈"}}, {"type": "Feature", "geometry": {"type": "Point", "coordinates": [121.522798, 25.05835785]}, "properties": {"city": "臺北市", "city_code": 63000, "district": "中山區", "device_id": 35, "road_segment": "中山北路2段", "location": "民生西路口", "address": "中山北路2段民生西路口", "violation_type": "闖紅燈", "direction": "北向南", "speed_limit": "50", "department": "臺北市政府警察局", "branch": "", "source_dataset": "臺北市政府警察局固定式違規照相設備及區間測速裝置設置地點一覽表", "violation_group": "闖紅燈"}}, {"type": "Feature", "geometry": {"type": "Point", "coordinates": [121.5332619, 25.06446188]}, "properties": {"city": "臺北市", "city_code": 63000, "district": "中山區", "device_id": 36, "road_segment": "松江路", "location": "農安街口", "address": "松江路農安街口", "violation_type": "闖紅燈", "direction": "南向北", "speed_limit": "50", "department": "臺北市政府警察局", "branch": "", "source_dataset": "臺北市政府警察局固定式違規照相設備及區間測速裝置設置地點一覽表", "violation_group": "闖紅燈"}}, {"type": "Feature", "geometry": {"type": "Point", "coordinates": [121.5227702, 25.05473185]}, "properties": {"city": "臺北市", "city_code": 63000, "district": "中山區", "device_id": 37, "road_segment": "中山北路2段", "location": "長春路口", "address": "中山北路2段長春路口", "violation_type": "闖紅燈、測速", "direction": "南往北", "speed_limit": "50", "department": "臺北市政府警察局", "branch": "", "source_dataset": "臺北市政府警察局固定式違規照相設備及區間測速裝置設置地點一覽表", "violation_group": "複合取締"}}, {"type": "Feature", "geometry": {"type": "Point", "coordinates": [121.5459226, 25.01850222]}, "properties": {"city": "臺北市", "city_code": 63000, "district": "大安區", "device_id": 38, "road_segment": "基隆高架道", "location": "下敦化南路段", "address": "基隆高架道下敦化南路段", "violation_type": "測速", "direction": "南向北", "speed_limit": "60", "department": "臺北市政府警察局", "branch": "", "source_dataset": "臺北市政府警察局固定式違規照相設備及區間測速裝置設置地點一覽表", "violation_group": "超速"}}, {"type": "Feature", "geometry": {"type": "Point", "coordinates": [121.548786, 25.01722043]}, "properties": {"city": "臺北市", "city_code": 63000, "district": "大安區", "device_id": 39, "road_segment": "辛亥路3段", "location": "157巷口(下北二高)", "address": "辛亥路3段157巷口(下北二高)", "violation_type": "測速", "direction": "東向西", "speed_limit": "50", "department": "臺北市政府警察局", "branch": "", "source_dataset": "臺北市政府警察局固定式違規照相設備及區間測速裝置設置地點一覽表", "violation_group": "超速"}}, {"type": "Feature", "geometry": {"type": "Point", "coordinates": [121.5336904, 25.03034497]}, "properties": {"city": "臺北市", "city_code": 63000, "district": "大安區", "device_id": 40, "road_segment": "新生南路", "location": "金華街口", "address": "新生南路金華街口", "violation_type": "測速", "direction": "北向南", "speed_limit": "50", "department": "臺北市政府警察局", "branch": "", "source_dataset": "臺北市政府警察局固定式違規照相設備及區間測速裝置設置地點一覽表", "violation_group": "超速"}}, {"type": "Feature", "geometry": {"type": "Point", "coordinates": [121.5267673, 25.02673255]}, "properties": {"city": "臺北市", "city_code": 63000, "district": "大安區", "device_id": 41, "road_segment": "和平東路1段", "location": "國立師範大學前", "address": "和平東路1段國立師範大學前", "violation_type": "測速", "direction": "西向東", "speed_limit": "50", "department": "臺北市政府警察局", "branch": "", "source_dataset": "臺北市政府警察局固定式違規照相設備及區間測速裝置設置地點一覽表", "violation_group": "超速"}}, {"type": "Feature", "geometry": {"type": "Point", "coordinates": [121.5378418, 25.02772621]}, "properties": {"city": "臺北市", "city_code": 63000, "district": "大安區", "device_id": 42, "road_segment": "建國南路2段179號前", "location": "", "address": "建國南路2段179號前", "violation_type": "測速", "direction": "南向北", "speed_limit": "50", "department": "臺北市政府警察局", "branch": "", "source_dataset": "臺北市政府警察局固定式違規照相設備及區間測速裝置設置地點一覽表", "violation_group": "超速"}}, {"type": "Feature", "geometry": {"type": "Point", "coordinates": [121.5399541, 25.0444703]}, "properties": {"city": "臺北市", "city_code": 63000, "district": "大安區", "device_id": 43, "road_segment": "市民大道3段214號前", "location": "", "address": "市民大道3段214號前", "violation_type": "測速", "direction": "西向東", "speed_limit": "40", "department": "臺北市政府警察局", "branch": "", "source_dataset": "臺北市政府警察局固定式違規照相設備及區間測速裝置設置地點一覽表", "violation_group": "超速"}}, {"type": "Feature", "geometry": {"type": "Point", "coordinates": [121.5438055, 25.01659683]}, "properties": {"city": "臺北市", "city_code": 63000, "district": "大安區", "device_id": 44, "road_segment": "基隆路3段", "location": "長興街口", "address": "基隆路3段長興街口", "violation_type": "測速", "direction": "南向北", "speed_limit": "50", "department": "臺北市政府警察局", "branch": "", "source_dataset": "臺北市政府警察局固定式違規照相設備及區間測速裝置設置地點一覽表", "violation_group": "超速"}}, {"type": "Feature", "geometry": {"type": "Point", "coordinates": [121.5376363, 25.02612189]}, "properties": {"city": "臺北市", "city_code": 63000, "district": "大安區", "device_id": 45, "road_segment": "建國高架道", "location": "和平東路上方", "address": "建國高架道和平東路上方", "violation_type": "測速", "direction": "北向南", "speed_limit": "70", "department": "臺北市政府警察局", "branch": "", "source_dataset": "臺北市政府警察局固定式違規照相設備及區間測速裝置設置地點一覽表", "violation_group": "超速"}}, {"type": "Feature", "geometry": {"type": "Point", "coordinates": [121.534073, 25.02003322]}, "properties": {"city": "臺北市", "city_code": 63000, "district": "大安區", "device_id": 46, "road_segment": "新生南路3段", "location": "58號台大側門", "address": "新生南路3段58號台大側門", "violation_type": "測速", "direction": "南向北", "speed_limit": "50", "department": "臺北市政府警察局", "branch": "", "source_dataset": "臺北市政府警察局固定式違規照相設備及區間測速裝置設置地點一覽表", "violation_group": "超速"}}, {"type": "Feature", "geometry": {"type": "Point", "coordinates": [121.552151, 25.04447883]}, "properties": {"city": "臺北市", "city_code": 63000, "district": "大安區", "device_id": 47, "road_segment": "市民高架道", "location": "下光復南路", "address": "市民高架道下光復南路", "violation_type": "測速", "direction": "東西雙向", "speed_limit": "80", "department": "臺北市政府警察局", "branch": "", "source_dataset": "臺北市政府警察局固定式違規照相設備及區間測速裝置設置地點一覽表", "violation_group": "超速"}}, {"type": "Feature", "geometry": {"type": "Point", "coordinates": [121.5410337, 25.02125585]}, "properties": {"city": "臺北市", "city_code": 63000, "district": "大安區", "device_id": 48, "road_segment": "辛亥路2段", "location": "台大語文中心(快車道)", "address": "辛亥路2段台大語文中心(快車道)", "violation_type": "闖紅燈", "direction": "西向東", "speed_limit": "50", "department": "臺北市政府警察局", "branch": "", "source_dataset": "臺北市政府警察局固定式違規照相設備及區間測速裝置設置地點一覽表", "violation_group": "闖紅燈"}}, {"type": "Feature", "geometry": {"type": "Point", "coordinates": [121.554377, 25.02259143]}, "properties": {"city": "臺北市", "city_code": 63000, "district": "大安區", "device_id": 49, "road_segment": "和平東路3段", "location": "228巷口", "address": "和平東路3段228巷口", "violation_type": "闖紅燈", "direction": "西向東", "speed_limit": "50", "department": "臺北市政府警察局", "branch": "", "source_dataset": "臺北市政府警察局固定式違規照相設備及區間測速裝置設置地點一覽表", "violation_group": "闖紅燈"}}, {"type": "Feature", "geometry": {"type": "Point", "coordinates": [121.5486589, 25.02492164]}, "properties": {"city": "臺北市", "city_code": 63000, "district": "大安區", "device_id": 50, "road_segment": "敦化南路2段", "location": "和平東路口", "address": "敦化南路2段和平東路口", "violation_type": "闖紅燈", "direction": "北向南", "speed_limit": "50", "department": "臺北市政府警察局", "branch": "", "source_dataset": "臺北市政府警察局固定式違規照相設備及區間測速裝置設置地點一覽表", "violation_group": "闖紅燈"}}, {"type": "Feature", "geometry": {"type": "Point", "coordinates": [121.5569768, 25.0331966]}, "properties": {"city": "臺北市", "city_code": 63000, "district": "大安區", "device_id": 51, "road_segment": "光復南路", "location": "信義路4段口北側", "address": "光復南路信義路4段口北側", "violation_type": "闖紅燈及路口淨空", "direction": "西向東", "speed_limit": "\\", "department": "臺北市政府警察局", "branch": "", "source_dataset": "臺北市政府警察局固定式違規照相設備及區間測速裝置設置地點一覽表", "violation_group": "闖紅燈"}}, {"type": "Feature", "geometry": {"type": "Point", "coordinates": [121.508633, 25.04308855]}, "properties": {"city": "臺北市", "city_code": 63000, "district": "中正區", "device_id": 52, "road_segment": "中華路1段53號前", "location": "", "address": "中華路1段53號前", "violation_type": "測速", "direction": "南向北", "speed_limit": "50", "department": "臺北市政府警察局", "branch": "", "source_dataset": "臺北市政府警察局固定式違規照相設備及區間測速裝置設置地點一覽表", "violation_group": "超速"}}, {"type": "Feature", "geometry": {"type": "Point", "coordinates": [121.5301224, 25.03827359]}, "properties": {"city": "臺北市", "city_code": 63000, "district": "中正區", "device_id": 53, "road_segment": "仁愛路2段61號前右車道", "location": "臨沂街口", "address": "仁愛路2段61號前右車道臨沂街口", "violation_type": "測速", "direction": "東向西", "speed_limit": "50", "department": "臺北市政府警察局", "branch": "", "source_dataset": "臺北市政府警察局固定式違規照相設備及區間測速裝置設置地點一覽表", "violation_group": "超速"}}, {"type": "Feature", "geometry": {"type": "Point", "coordinates": [121.5189067, 25.04297255]}, "properties": {"city": "臺北市", "city_code": 63000, "district": "中正區", "device_id": 54, "road_segment": "中山南路", "location": "近濟南路1段口", "address": "中山南路近濟南路1段口", "violation_type": "測速", "direction": "北向南", "speed_limit": "50", "department": "臺北市政府警察局", "branch": "", "source_dataset": "臺北市政府警察局固定式違規照相設備及區間測速裝置設置地點一覽表", "violation_group": "超速"}}, {"type": "Feature", "geometry": {"type": "Point", "coordinates": [121.5156319, 25.02855774]}, "properties": {"city": "臺北市", "city_code": 63000, "district": "中正區", "device_id": 55, "road_segment": "重慶南路3段", "location": "27巷口", "address": "重慶南路3段27巷口", "violation_type": "測速", "direction": "南北雙向", "speed_limit": "50", "department": "臺北市政府警察局", "branch": "", "source_dataset": "臺北市政府警察局固定式違規照相設備及區間測速裝置設置地點一覽表", "violation_group": "超速"}}, {"type": "Feature", "geometry": {"type": "Point", "coordinates": [121.5201766, 25.02085895]}, "properties": {"city": "臺北市", "city_code": 63000, "district": "中正區", "device_id": 56, "road_segment": "水源快速道路", "location": "同安街口", "address": "水源快速道路同安街口", "violation_type": "測速", "direction": "南向北", "speed_limit": "60", "department": "臺北市政府警察局", "branch": "", "source_dataset": "臺北市政府警察局固定式違規照相設備及區間測速裝置設置地點一覽表", "violation_group": "超速"}}, {"type": "Feature", "geometry": {"type": "Point", "coordinates": [121.5189036, 25.04299561]}, "properties": {"city": "臺北市", "city_code": 63000, "district": "中正區", "device_id": 57, "road_segment": "中山南路", "location": "濟南路口", "address": "中山南路濟南路口", "violation_type": "闖紅燈", "direction": "南向北", "speed_limit": "50", "department": "臺北市政府警察局", "branch": "", "source_dataset": "臺北市政府警察局固定式違規照相設備及區間測速裝置設置地點一覽表", "violation_group": "闖紅燈"}}, {"type": "Feature", "geometry": {"type": "Point", "coordinates": [121.5286872, 25.03927407]}, "properties": {"city": "臺北市", "city_code": 63000, "district": "中正區", "device_id": 58, "road_segment": "金山南路", "location": "銅山街口", "address": "金山南路銅山街口", "violation_type": "闖紅燈", "direction": "南向北", "speed_limit": "50", "department": "臺北市政府警察局", "branch": "", "source_dataset": "臺北市政府警察局固定式違規照相設備及區間測速裝置設置地點一覽表", "violation_group": "闖紅燈"}}, {"type": "Feature", "geometry": {"type": "Point", "coordinates": [121.5236733, 25.0447496]}, "properties": {"city": "臺北市", "city_code": 63000, "district": "中正區", "device_id": 59, "road_segment": "忠孝東路1段", "location": "林森南路口", "address": "忠孝東路1段林森南路口", "violation_type": "闖紅燈", "direction": "東向西", "speed_limit": "50", "department": "臺北市政府警察局", "branch": "", "source_dataset": "臺北市政府警察局固定式違規照相設備及區間測速裝置設置地點一覽表", "violation_group": "闖紅燈"}}, {"type": "Feature", "geometry": {"type": "Point", "coordinates": [121.5125242, 25.02882606]}, "properties": {"city": "臺北市", "city_code": 63000, "district": "中正區", "device_id": 60, "road_segment": "和平西路2段", "location": "寧波西街口", "address": "和平西路2段寧波西街口", "violation_type": "闖紅燈", "direction": "東向西", "speed_limit": "50", "department": "臺北市政府警察局", "branch": "", "source_dataset": "臺北市政府警察局固定式違規照相設備及區間測速裝置設置地點一覽表", "violation_group": "闖紅燈"}}, {"type": "Feature", "geometry": {"type": "Point", "coordinates": [121.5158286, 25.0277892]}, "properties": {"city": "臺北市", "city_code": 63000, "district": "中正區", "device_id": 61, "road_segment": "重慶南路3段", "location": "和平西路口", "address": "重慶南路3段和平西路口", "violation_type": "闖紅燈", "direction": "北向南", "speed_limit": "50", "department": "臺北市政府警察局", "branch": "", "source_dataset": "臺北市政府警察局固定式違規照相設備及區間測速裝置設置地點一覽表", "violation_group": "闖紅燈"}}, {"type": "Feature", "geometry": {"type": "Point", "coordinates": [121.5118, 25.0291821]}, "properties": {"city": "臺北市", "city_code": 63000, "district": "中正區", "device_id": 62, "road_segment": "和平西路", "location": "寧波西街口", "address": "和平西路寧波西街口", "violation_type": "闖紅燈、測速", "direction": "西向東", "speed_limit": "50", "department": "臺北市政府警察局", "branch": "", "source_dataset": "臺北市政府警察局固定式違規照相設備及區間測速裝置設置地點一覽表", "violation_group": "複合取締"}}, {"type": "Feature", "geometry": {"type": "Point", "coordinates": [121.5518524, 25.05794115]}, "properties": {"city": "臺北市", "city_code": 63000, "district": "松山區", "device_id": 63, "road_segment": "民生東路4段", "location": "97巷口", "address": "民生東路4段97巷口", "violation_type": "測速", "direction": "西向東", "speed_limit": "50", "department": "臺北市政府警察局", "branch": "", "source_dataset": "臺北市政府警察局固定式違規照相設備及區間測速裝置設置地點一覽表", "violation_group": "超速"}}, {"type": "Feature", "geometry": {"type": "Point", "coordinates": [121.5443102, 25.06684145]}, "properties": {"city": "臺北市", "city_code": 63000, "district": "松山區", "device_id": 64, "road_segment": "復興北路", "location": "車行地下道南出口處", "address": "復興北路車行地下道南出口處", "violation_type": "測速", "direction": "北向南", "speed_limit": "40", "department": "臺北市政府警察局", "branch": "", "source_dataset": "臺北市政府警察局固定式違規照相設備及區間測速裝置設置地點一覽表", "violation_group": "超速"}}, {"type": "Feature", "geometry": {"type": "Point", "coordinates": [121.5656356, 25.05426405]}, "properties": {"city": "臺北市", "city_code": 63000, "district": "松山區", "device_id": 65, "road_segment": "健康路300號前", "location": "", "address": "健康路300號前", "violation_type": "測速", "direction": "東西雙向", "speed_limit": "50", "department": "臺北市政府警察局", "branch": "", "source_dataset": "臺北市政府警察局固定式違規照相設備及區間測速裝置設置地點一覽表", "violation_group": "超速"}}, {"type": "Feature", "geometry": {"type": "Point", "coordinates": [121.5684999, 25.06200353]}, "properties": {"city": "臺北市", "city_code": 63000, "district": "松山區", "device_id": 66, "road_segment": "塔悠路", "location": "近撫遠街261巷口", "address": "塔悠路近撫遠街261巷口", "violation_type": "測速", "direction": "北向南", "speed_limit": "50", "department": "臺北市政府警察局", "branch": "", "source_dataset": "臺北市政府警察局固定式違規照相設備及區間測速裝置設置地點一覽表", "violation_group": "超速"}}, {"type": "Feature", "geometry": {"type": "Point", "coordinates": [121.5574655, 25.06210619]}, "properties": {"city": "臺北市", "city_code": 63000, "district": "松山區", "device_id": 67, "road_segment": "民權東路4段", "location": "民權公園前", "address": "民權東路4段民權公園前", "violation_type": "測速", "direction": "東西雙向", "speed_limit": "50", "department": "臺北市政府警察局", "branch": "", "source_dataset": "臺北市政府警察局固定式違規照相設備及區間測速裝置設置地點一覽表", "violation_group": "超速"}}, {"type": "Feature", "geometry": {"type": "Point", "coordinates": [121.5530366, 25.05169217]}, "properties": {"city": "臺北市", "city_code": 63000, "district": "松山區", "device_id": 68, "road_segment": "南京東路4段", "location": "健康路口", "address": "南京東路4段健康路口", "violation_type": "測速", "direction": "東西雙向", "speed_limit": "50", "department": "臺北市政府警察局", "branch": "", "source_dataset": "臺北市政府警察局固定式違規照相設備及區間測速裝置設置地點一覽表", "violation_group": "超速"}}, {"type": "Feature", "geometry": {"type": "Point", "coordinates": [121.5489474, 25.04785991]}, "properties": {"city": "臺北市", "city_code": 63000, "district": "松山區", "device_id": 69, "road_segment": "敦化南路", "location": "八德路口", "address": "敦化南路八德路口", "violation_type": "闖紅燈", "direction": "南往北", "speed_limit": "50", "department": "臺北市政府警察局", "branch": "", "source_dataset": "臺北市政府警察局固定式違規照相設備及區間測速裝置設置地點一覽表", "violation_group": "闖紅燈"}}, {"type": "Feature", "geometry": {"type": "Point", "coordinates": [121.563371, 25.0628743]}, "properties": {"city": "臺北市", "city_code": 63000, "district": "松山區", "device_id": 70, "road_segment": "民權東路4段", "location": "三民路口", "address": "民權東路4段三民路口", "violation_type": "闖紅燈", "direction": "東向西", "speed_limit": "50", "department": "臺北市政府警察局", "branch": "", "source_dataset": "臺北市政府警察局固定式違規照相設備及區間測速裝置設置地點一覽表", "violation_group": "闖紅燈"}}, {"type": "Feature", "geometry": {"type": "Point", "coordinates": [121.5639723, 25.04762719]}, "properties": {"city": "臺北市", "city_code": 63000, "district": "信義區", "device_id": 71, "road_segment": "市民大道5段50號前", "location": "近東寧路口", "address": "市民大道5段50號前近東寧路口", "violation_type": "測速", "direction": "西向東", "speed_limit": "50", "department": "臺北市政府警察局", "branch": "", "source_dataset": "臺北市政府警察局固定式違規照相設備及區間測速裝置設置地點一覽表", "violation_group": "超速"}}, {"type": "Feature", "geometry": {"type": "Point", "coordinates": [121.5598827, 25.04131564]}, "properties": {"city": "臺北市", "city_code": 63000, "district": "信義區", "device_id": 72, "road_segment": "忠孝東路4段", "location": "近逸仙路口", "address": "忠孝東路4段近逸仙路口", "violation_type": "測速", "direction": "東西雙向", "speed_limit": "50", "department": "臺北市政府警察局", "branch": "", "source_dataset": "臺北市政府警察局固定式違規照相設備及區間測速裝置設置地點一覽表", "violation_group": "超速"}}, {"type": "Feature", "geometry": {"type": "Point", "coordinates": [121.5573087, 25.02906139]}, "properties": {"city": "臺北市", "city_code": 63000, "district": "信義區", "device_id": 73, "road_segment": "基隆路二段109號前", "location": "", "address": "基隆路二段109號前", "violation_type": "測速", "direction": "南往北", "speed_limit": "50", "department": "臺北市政府警察局", "branch": "", "source_dataset": "臺北市政府警察局固定式違規照相設備及區間測速裝置設置地點一覽表", "violation_group": "超速"}}, {"type": "Feature", "geometry": {"type": "Point", "coordinates": [121.5684952, 25.04768719]}, "properties": {"city": "臺北市", "city_code": 63000, "district": "信義區", "device_id": 74, "road_segment": "基隆路1段49號前", "location": "", "address": "基隆路1段49號前", "violation_type": "測速", "direction": "南向北", "speed_limit": "50", "department": "臺北市政府警察局", "branch": "", "source_dataset": "臺北市政府警察局固定式違規照相設備及區間測速裝置設置地點一覽表", "violation_group": "超速"}}, {"type": "Feature", "geometry": {"type": "Point", "coordinates": [121.5724454, 25.0456259]}, "properties": {"city": "臺北市", "city_code": 63000, "district": "信義區", "device_id": 75, "road_segment": "永吉路", "location": "松信路口", "address": "永吉路松信路口", "violation_type": "闖紅燈、測速", "direction": "東向西", "speed_limit": "50", "department": "臺北市政府警察局", "branch": "", "source_dataset": "臺北市政府警察局固定式違規照相設備及區間測速裝置設置地點一覽表", "violation_group": "複合取締"}}, {"type": "Feature", "geometry": {"type": "Point", "coordinates": [121.568355, 25.03614952]}, "properties": {"city": "臺北市", "city_code": 63000, "district": "信義區", "device_id": 76, "road_segment": "松仁路", "location": "松壽路口", "address": "松仁路松壽路口", "violation_type": "闖紅燈", "direction": "北向南", "speed_limit": "50", "department": "臺北市政府警察局", "branch": "", "source_dataset": "臺北市政府警察局固定式違規照相設備及區間測速裝置設置地點一覽表", "violation_group": "闖紅燈"}}, {"type": "Feature", "geometry": {"type": "Point", "coordinates": [121.5613352, 25.03620119]}, "properties": {"city": "臺北市", "city_code": 63000, "district": "信義區", "device_id": 77, "road_segment": "基隆路", "location": "松壽路口", "address": "基隆路松壽路口", "violation_type": "闖紅燈", "direction": "北向南", "speed_limit": "50", "department": "臺北市政府警察局", "branch": "", "source_dataset": "臺北市政府警察局固定式違規照相設備及區間測速裝置設置地點一覽表", "violation_group": "闖紅燈"}}, {"type": "Feature", "geometry": {"type": "Point", "coordinates": [121.5574887, 25.03577554]}, "properties": {"city": "臺北市", "city_code": 63000, "district": "信義區", "device_id": 78, "road_segment": "光復南路", "location": "456巷口", "address": "光復南路456巷口", "violation_type": "闖紅燈", "direction": "北向南", "speed_limit": "50", "department": "臺北市政府警察局", "branch": "", "source_dataset": "臺北市政府警察局固定式違規照相設備及區間測速裝置設置地點一覽表", "violation_group": "闖紅燈"}}, {"type": "Feature", "geometry": {"type": "Point", "coordinates": [121.5073719, 25.08245929]}, "properties": {"city": "臺北市", "city_code": 63000, "district": "士林區", "device_id": 79, "road_segment": "環河北路3段", "location": "葫蘆街口", "address": "環河北路3段葫蘆街口", "violation_type": "測速", "direction": "南向北", "speed_limit": "50", "department": "臺北市政府警察局", "branch": "", "source_dataset": "臺北市政府警察局固定式違規照相設備及區間測速裝置設置地點一覽表", "violation_group": "超速"}}, {"type": "Feature", "geometry": {"type": "Point", "coordinates": [121.5460187, 25.10824082]}, "properties": {"city": "臺北市", "city_code": 63000, "district": "士林區", "device_id": 80, "road_segment": "仰德大道2段", "location": "115巷口", "address": "仰德大道2段115巷口", "violation_type": "測速", "direction": "下山方向", "speed_limit": "40", "department": "臺北市政府警察局", "branch": "", "source_dataset": "臺北市政府警察局固定式違規照相設備及區間測速裝置設置地點一覽表", "violation_group": "超速"}}, {"type": "Feature", "geometry": {"type": "Point", "coordinates": [121.5464555, 25.13206152]}, "properties": {"city": "臺北市", "city_code": 63000, "district": "士林區", "device_id": 81, "road_segment": "仰德大道4段75號", "location": "格致中學前", "address": "仰德大道4段75號格致中學前", "violation_type": "測速", "direction": "上下山雙向", "speed_limit": "40", "department": "臺北市政府警察局", "branch": "", "source_dataset": "臺北市政府警察局固定式違規照相設備及區間測速裝置設置地點一覽表", "violation_group": "超速"}}, {"type": "Feature", "geometry": {"type": "Point", "coordinates": [121.5229866, 25.08651629]}, "properties": {"city": "臺北市", "city_code": 63000, "district": "士林區", "device_id": 82, "road_segment": "承德路4段", "location": "百齡高中前", "address": "承德路4段百齡高中前", "violation_type": "測速", "direction": "南向北", "speed_limit": "50", "department": "臺北市政府警察局", "branch": "", "source_dataset": "臺北市政府警察局固定式違規照相設備及區間測速裝置設置地點一覽表", "violation_group": "超速"}}, {"type": "Feature", "geometry": {"type": "Point", "coordinates": [121.5425043, 25.10405783]}, "properties": {"city": "臺北市", "city_code": 63000, "district": "士林區", "device_id": 83, "road_segment": "仰德大道2段", "location": "29巷口", "address": "仰德大道2段29巷口", "violation_type": "測速", "direction": "下山方向", "speed_limit": "40", "department": "臺北市政府警察局", "branch": "", "source_dataset": "臺北市政府警察局固定式違規照相設備及區間測速裝置設置地點一覽表", "violation_group": "超速"}}, {"type": "Feature", "geometry": {"type": "Point", "coordinates": [121.5082596, 25.07897186]}, "properties": {"city": "臺北市", "city_code": 63000, "district": "士林區", "device_id": 84, "road_segment": "環河北路2段", "location": "近敦煌路口", "address": "環河北路2段近敦煌路口", "violation_type": "測速", "direction": "北向南", "speed_limit": "60", "department": "臺北市政府警察局", "branch": "", "source_dataset": "臺北市政府警察局固定式違規照相設備及區間測速裝置設置地點一覽表", "violation_group": "超速"}}, {"type": "Feature", "geometry": {"type": "Point", "coordinates": [121.5222158, 25.08035547]}, "properties": {"city": "臺北市", "city_code": 63000, "district": "士林區", "device_id": 85, "road_segment": "承德路4段", "location": "通河街口", "address": "承德路4段通河街口", "violation_type": "測速", "direction": "北向南", "speed_limit": "50", "department": "臺北市政府警察局", "branch": "", "source_dataset": "臺北市政府警察局固定式違規照相設備及區間測速裝置設置地點一覽表", "violation_group": "超速"}}, {"type": "Feature", "geometry": {"type": "Point", "coordinates": [121.5181826, 25.08986347]}, "properties": {"city": "臺北市", "city_code": 63000, "district": "士林區", "device_id": 86, "road_segment": "承德路4段", "location": "福港街口", "address": "承德路4段福港街口", "violation_type": "測速", "direction": "北往南", "speed_limit": "50", "department": "臺北市政府警察局", "branch": "", "source_dataset": "臺北市政府警察局固定式違規照相設備及區間測速裝置設置地點一覽表", "violation_group": "超速"}}, {"type": "Feature", "geometry": {"type": "Point", "coordinates": [121.5529741, 25.1198821]}, "properties": {"city": "臺北市", "city_code": 63000, "district": "士林區", "device_id": 87, "road_segment": "仰德大道3段", "location": "陽明山國小前", "address": "仰德大道3段陽明山國小前", "violation_type": "測速(兼闖紅燈)", "direction": "往下山方向", "speed_limit": "40", "department": "臺北市政府警察局", "branch": "", "source_dataset": "臺北市政府警察局固定式違規照相設備及區間測速裝置設置地點一覽表", "violation_group": "複合取締"}}, {"type": "Feature", "geometry": {"type": "Point", "coordinates": [121.5198312, 25.09323]}, "properties": {"city": "臺北市", "city_code": 63000, "district": "士林區", "device_id": 88, "road_segment": "中正路", "location": "基河路口", "address": "中正路基河路口", "violation_type": "闖紅燈", "direction": "西向東", "speed_limit": "50", "department": "臺北市政府警察局", "branch": "", "source_dataset": "臺北市政府警察局固定式違規照相設備及區間測速裝置設置地點一覽表", "violation_group": "闖紅燈"}}, {"type": "Feature", "geometry": {"type": "Point", "coordinates": [121.5112072, 25.08707284]}, "properties": {"city": "臺北市", "city_code": 63000, "district": "士林區", "device_id": 89, "road_segment": "中正路", "location": "重慶北路口", "address": "中正路重慶北路口", "violation_type": "闖紅燈", "direction": "西向東", "speed_limit": "50", "department": "臺北市政府警察局", "branch": "", "source_dataset": "臺北市政府警察局固定式違規照相設備及區間測速裝置設置地點一覽表", "violation_group": "闖紅燈"}}, {"type": "Feature", "geometry": {"type": "Point", "coordinates": [121.5275728, 25.08998891]}, "properties": {"city": "臺北市", "city_code": 63000, "district": "士林區", "device_id": 90, "road_segment": "中山北路5段378巷", "location": "消防隊前", "address": "中山北路5段378巷消防隊前", "violation_type": "闖紅燈", "direction": "南向北", "speed_limit": "50", "department": "臺北市政府警察局", "branch": "", "source_dataset": "臺北市政府警察局固定式違規照相設備及區間測速裝置設置地點一覽表", "violation_group": "闖紅燈"}}, {"type": "Feature", "geometry": {"type": "Point", "coordinates": [121.5277694, 25.0961568]}, "properties": {"city": "臺北市", "city_code": 63000, "district": "士林區", "device_id": 91, "road_segment": "中山北路5段", "location": "中正路口", "address": "中山北路5段中正路口", "violation_type": "闖紅燈、測速", "direction": "北向南", "speed_limit": "50", "department": "臺北市政府警察局", "branch": "", "source_dataset": "臺北市政府警察局固定式違規照相設備及區間測速裝置設置地點一覽表", "violation_group": "複合取締"}}, {"type": "Feature", "geometry": {"type": "Point", "coordinates": [121.5245334, 25.07951372]}, "properties": {"city": "臺北市", "city_code": 63000, "district": "士林區", "device_id": 92, "road_segment": "中山北路4段", "location": "通河街口", "address": "中山北路4段通河街口", "violation_type": "闖紅燈及路口淨空", "direction": "南向北", "speed_limit": "\\", "department": "臺北市政府警察局", "branch": "", "source_dataset": "臺北市政府警察局固定式違規照相設備及區間測速裝置設置地點一覽表", "violation_group": "闖紅燈"}}, {"type": "Feature", "geometry": {"type": "Point", "coordinates": [121.5286791, 25.13483514]}, "properties": {"city": "臺北市", "city_code": 63000, "district": "北投區", "device_id": 93, "road_segment": "行義路241號前", "location": "", "address": "行義路241號前", "violation_type": "測速", "direction": "北向南", "speed_limit": "40", "department": "臺北市政府警察局", "branch": "", "source_dataset": "臺北市政府警察局固定式違規照相設備及區間測速裝置設置地點一覽表", "violation_group": "超速"}}, {"type": "Feature", "geometry": {"type": "Point", "coordinates": [121.5437191, 25.16491378]}, "properties": {"city": "臺北市", "city_code": 63000, "district": "北投區", "device_id": 94, "road_segment": "竹子湖路2-2號對面", "location": "陽金公路53號燈桿後方", "address": "竹子湖路2-2號對面陽金公路53號燈桿後方", "violation_type": "測速", "direction": "往臺北市區", "speed_limit": "40", "department": "臺北市政府警察局", "branch": "", "source_dataset": "臺北市政府警察局固定式違規照相設備及區間測速裝置設置地點一覽表", "violation_group": "超速"}}, {"type": "Feature", "geometry": {"type": "Point", "coordinates": [121.5119366, 25.10519124]}, "properties": {"city": "臺北市", "city_code": 63000, "district": "北投區", "device_id": 95, "road_segment": "承德路6段", "location": "", "address": "承德路6段", "violation_type": "測速", "direction": "北向南", "speed_limit": "60", "department": "臺北市政府警察局", "branch": "", "source_dataset": "臺北市政府警察局固定式違規照相設備及區間測速裝置設置地點一覽表", "violation_group": "超速"}}, {"type": "Feature", "geometry": {"type": "Point", "coordinates": [121.4987819, 25.10799039]}, "properties": {"city": "臺北市", "city_code": 63000, "district": "北投區", "device_id": 96, "road_segment": "洲美快速道路(南向避車彎處)", "location": "", "address": "洲美快速道路(南向避車彎處)", "violation_type": "測速", "direction": "北向南", "speed_limit": "80", "department": "臺北市政府警察局", "branch": "", "source_dataset": "臺北市政府警察局固定式違規照相設備及區間測速裝置設置地點一覽表", "violation_group": "超速"}}, {"type": "Feature", "geometry": {"type": "Point", "coordinates": [121.5120888, 25.10394721]}, "properties": {"city": "臺北市", "city_code": 63000, "district": "北投區", "device_id": 97, "road_segment": "承德路6段", "location": "", "address": "承德路6段", "violation_type": "測速", "direction": "南往北", "speed_limit": "60", "department": "臺北市政府警察局", "branch": "", "source_dataset": "臺北市政府警察局固定式違規照相設備及區間測速裝置設置地點一覽表", "violation_group": "超速"}}, {"type": "Feature", "geometry": {"type": "Point", "coordinates": [121.4989647, 25.10597159]}, "properties": {"city": "臺北市", "city_code": 63000, "district": "北投區", "device_id": 98, "road_segment": "洲美快速道路(北向避車彎處)", "location": "", "address": "洲美快速道路(北向避車彎處)", "violation_type": "測速", "direction": "南向北", "speed_limit": "80", "department": "臺北市政府警察局", "branch": "", "source_dataset": "臺北市政府警察局固定式違規照相設備及區間測速裝置設置地點一覽表", "violation_group": "超速"}}, {"type": "Feature", "geometry": {"type": "Point", "coordinates": [121.4967385, 25.13033974]}, "properties": {"city": "臺北市", "city_code": 63000, "district": "北投區", "device_id": 99, "road_segment": "大業路412號前", "location": "", "address": "大業路412號前", "violation_type": "測速", "direction": "南向北", "speed_limit": "60", "department": "臺北市政府警察局", "branch": "", "source_dataset": "臺北市政府警察局固定式違規照相設備及區間測速裝置設置地點一覽表", "violation_group": "超速"}}, {"type": "Feature", "geometry": {"type": "Point", "coordinates": [121.4777581, 25.12242044]}, "properties": {"city": "臺北市", "city_code": 63000, "district": "北投區", "device_id": 100, "road_segment": "大度路", "location": "往台北方向", "address": "大度路往台北方向", "violation_type": "測速", "direction": "北向南", "speed_limit": "70", "department": "臺北市政府警察局", "branch": "", "source_dataset": "臺北市政府警察局固定式違規照相設備及區間測速裝置設置地點一覽表", "violation_group": "超速"}}, {"type": "Feature", "geometry": {"type": "Point", "coordinates": [121.4803609, 25.12239283]}, "properties": {"city": "臺北市", "city_code": 63000, "district": "北投區", "device_id": 101, "road_segment": "大度路", "location": "往淡水方向", "address": "大度路往淡水方向", "violation_type": "測速", "direction": "南向北", "speed_limit": "70", "department": "臺北市政府警察局", "branch": "", "source_dataset": "臺北市政府警察局固定式違規照相設備及區間測速裝置設置地點一覽表", "violation_group": "超速"}}, {"type": "Feature", "geometry": {"type": "Point", "coordinates": [121.4659106, 25.13011342]}, "properties": {"city": "臺北市", "city_code": 63000, "district": "北投區", "device_id": 102, "road_segment": "學園路(往關渡)", "location": "臺北藝術大學大門口", "address": "學園路(往關渡)臺北藝術大學大門口", "violation_type": "測速", "direction": "下山方向", "speed_limit": "40", "department": "臺北市政府警察局", "branch": "", "source_dataset": "臺北市政府警察局固定式違規照相設備及區間測速裝置設置地點一覽表", "violation_group": "超速"}}, {"type": "Feature", "geometry": {"type": "Point", "coordinates": [121.5025111, 25.11441174]}, "properties": {"city": "臺北市", "city_code": 63000, "district": "北投區", "device_id": 103, "road_segment": "立賢路101號前", "location": "", "address": "立賢路101號前", "violation_type": "測速", "direction": "南往北", "speed_limit": "50", "department": "臺北市政府警察局", "branch": "", "source_dataset": "臺北市政府警察局固定式違規照相設備及區間測速裝置設置地點一覽表", "violation_group": "超速"}}, {"type": "Feature", "geometry": {"type": "Point", "coordinates": [121.5036323, 25.11760608]}, "properties": {"city": "臺北市", "city_code": 63000, "district": "北投區", "device_id": 104, "road_segment": "承德路7段", "location": "吉利街口", "address": "承德路7段吉利街口", "violation_type": "闖紅燈", "direction": "北向南", "speed_limit": "60", "department": "臺北市政府警察局", "branch": "", "source_dataset": "臺北市政府警察局固定式違規照相設備及區間測速裝置設置地點一覽表", "violation_group": "闖紅燈"}}, {"type": "Feature", "geometry": {"type": "Point", "coordinates": [121.5163087, 25.10638054]}, "properties": {"city": "臺北市", "city_code": 63000, "district": "北投區", "device_id": 105, "road_segment": "文林北路", "location": "明德路口", "address": "文林北路明德路口", "violation_type": "闖紅燈", "direction": "北向南", "speed_limit": "50", "department": "臺北市政府警察局", "branch": "", "source_dataset": "臺北市政府警察局固定式違規照相設備及區間測速裝置設置地點一覽表", "violation_group": "闖紅燈"}}, {"type": "Feature", "geometry": {"type": "Point", "coordinates": [121.4993992, 25.12158936]}, "properties": {"city": "臺北市", "city_code": 63000, "district": "北投區", "device_id": 106, "road_segment": "大度路", "location": "大業路口", "address": "大度路大業路口", "violation_type": "闖紅燈", "direction": "北向南", "speed_limit": "50", "department": "臺北市政府警察局", "branch": "", "source_dataset": "臺北市政府警察局固定式違規照相設備及區間測速裝置設置地點一覽表", "violation_group": "闖紅燈"}}, {"type": "Feature", "geometry": {"type": "Point", "coordinates": [121.5811719, 25.00894152]}, "properties": {"city": "臺北市", "city_code": 63000, "district": "文山區", "device_id": 107, "road_segment": "信義快速道路", "location": "文山隧道往南出口處", "address": "信義快速道路文山隧道往南出口處", "violation_type": "測速", "direction": "北向南", "speed_limit": "70", "department": "臺北市政府警察局", "branch": "", "source_dataset": "臺北市政府警察局固定式違規照相設備及區間測速裝置設置地點一覽表", "violation_group": "超速"}}, {"type": "Feature", "geometry": {"type": "Point", "coordinates": [121.5913957, 24.99909565]}, "properties": {"city": "臺北市", "city_code": 63000, "district": "文山區", "device_id": 108, "road_segment": "木柵路5段近100之1號", "location": "", "address": "木柵路5段近100之1號", "violation_type": "測速", "direction": "西向東", "speed_limit": "50", "department": "臺北市政府警察局", "branch": "", "source_dataset": "臺北市政府警察局固定式違規照相設備及區間測速裝置設置地點一覽表", "violation_group": "超速"}}, {"type": "Feature", "geometry": {"type": "Point", "coordinates": [121.551479, 24.99169061]}, "properties": {"city": "臺北市", "city_code": 63000, "district": "文山區", "device_id": 109, "road_segment": "辛亥路6段", "location": "懷恩隧道出口處（往木柵）", "address": "辛亥路6段懷恩隧道出口處（往木柵）", "violation_type": "測速", "direction": "北向南", "speed_limit": "50", "department": "臺北市政府警察局", "branch": "", "source_dataset": "臺北市政府警察局固定式違規照相設備及區間測速裝置設置地點一覽表", "violation_group": "超速"}}, {"type": "Feature", "geometry": {"type": "Point", "coordinates": [121.535252, 24.9993046]}, "properties": {"city": "臺北市", "city_code": 63000, "district": "文山區", "device_id": 110, "road_segment": "水源快速道路", "location": "下(離開水快)景福匝道口(上層)(水南)", "address": "水源快速道路下(離開水快)景福匝道口(上層)(水南)", "violation_type": "測速", "direction": "北向南", "speed_limit": "60", "department": "臺北市政府警察局", "branch": "", "source_dataset": "臺北市政府警察局固定式違規照相設備及區間測速裝置設置地點一覽表", "violation_group": "超速"}}, {"type": "Feature", "geometry": {"type": "Point", "coordinates": [121.5407211, 24.99258379]}, "properties": {"city": "臺北市", "city_code": 63000, "district": "文山區", "device_id": 111, "road_segment": "羅斯福路6段226號前", "location": "", "address": "羅斯福路6段226號前", "violation_type": "測速", "direction": "北向南", "speed_limit": "50", "department": "臺北市政府警察局", "branch": "", "source_dataset": "臺北市政府警察局固定式違規照相設備及區間測速裝置設置地點一覽表", "violation_group": "超速"}}, {"type": "Feature", "geometry": {"type": "Point", "coordinates": [121.5573735, 25.0097526]}, "properties": {"city": "臺北市", "city_code": 63000, "district": "文山區", "device_id": 112, "road_segment": "辛亥路4段", "location": "辛亥隧道出口", "address": "辛亥路4段辛亥隧道出口", "violation_type": "測速", "direction": "北向南", "speed_limit": "50", "department": "臺北市政府警察局", "branch": "", "source_dataset": "臺北市政府警察局固定式違規照相設備及區間測速裝置設置地點一覽表", "violation_group": "超速"}}, {"type": "Feature", "geometry": {"type": "Point", "coordinates": [121.5391158, 25.00150067]}, "properties": {"city": "臺北市", "city_code": 63000, "district": "文山區", "device_id": 113, "road_segment": "羅斯福路5段", "location": "240號前(近興隆路口)", "address": "羅斯福路5段240號前(近興隆路口)", "violation_type": "測速", "direction": "北向南", "speed_limit": "50", "department": "臺北市政府警察局", "branch": "", "source_dataset": "臺北市政府警察局固定式違規照相設備及區間測速裝置設置地點一覽表", "violation_group": "超速"}}, {"type": "Feature", "geometry": {"type": "Point", "coordinates": [121.5396629, 24.98975499]}, "properties": {"city": "臺北市", "city_code": 63000, "district": "文山區", "device_id": 114, "road_segment": "羅斯福路6段", "location": "469巷口(近育英街口)", "address": "羅斯福路6段469巷口(近育英街口)", "violation_type": "測速", "direction": "南向北", "speed_limit": "50", "department": "臺北市政府警察局", "branch": "", "source_dataset": "臺北市政府警察局固定式違規照相設備及區間測速裝置設置地點一覽表", "violation_group": "超速"}}, {"type": "Feature", "geometry": {"type": "Point", "coordinates": [121.5540591, 24.98503531]}, "properties": {"city": "臺北市", "city_code": 63000, "district": "文山區", "device_id": 115, "road_segment": "辛亥路7段", "location": "光輝路50巷口", "address": "辛亥路7段光輝路50巷口", "violation_type": "闖紅燈", "direction": "北向南", "speed_limit": "50", "department": "臺北市政府警察局", "branch": "", "source_dataset": "臺北市政府警察局固定式違規照相設備及區間測速裝置設置地點一覽表", "violation_group": "闖紅燈"}}, {"type": "Feature", "geometry": {"type": "Point", "coordinates": [121.5457883, 24.98669111]}, "properties": {"city": "臺北市", "city_code": 63000, "district": "文山區", "device_id": 116, "road_segment": "木柵路1段", "location": "和興路口", "address": "木柵路1段和興路口", "violation_type": "闖紅燈", "direction": "西向東", "speed_limit": "50", "department": "臺北市政府警察局", "branch": "", "source_dataset": "臺北市政府警察局固定式違規照相設備及區間測速裝置設置地點一覽表", "violation_group": "闖紅燈"}}, {"type": "Feature", "geometry": {"type": "Point", "coordinates": [121.5844065, 25.00307399]}, "properties": {"city": "臺北市", "city_code": 63000, "district": "文山區", "device_id": 117, "road_segment": "木柵路5段", "location": "萬福橋頭", "address": "木柵路5段萬福橋頭", "violation_type": "闖紅燈", "direction": "東向西", "speed_limit": "50", "department": "臺北市政府警察局", "branch": "", "source_dataset": "臺北市政府警察局固定式違規照相設備及區間測速裝置設置地點一覽表", "violation_group": "闖紅燈"}}, {"type": "Feature", "geometry": {"type": "Point", "coordinates": [121.6132704, 25.05418829]}, "properties": {"city": "臺北市", "city_code": 63000, "district": "南港區", "device_id": 118, "road_segment": "市民大道8段", "location": "東南街口", "address": "市民大道8段東南街口", "violation_type": "測速", "direction": "東向西", "speed_limit": "50", "department": "臺北市政府警察局", "branch": "", "source_dataset": "臺北市政府警察局固定式違規照相設備及區間測速裝置設置地點一覽表", "violation_group": "超速"}}, {"type": "Feature", "geometry": {"type": "Point", "coordinates": [121.6115478, 25.05263792]}, "properties": {"city": "臺北市", "city_code": 63000, "district": "南港區", "device_id": 119, "road_segment": "忠孝東路7段511號前", "location": "", "address": "忠孝東路7段511號前", "violation_type": "測速", "direction": "西向東", "speed_limit": "50", "department": "臺北市政府警察局", "branch": "", "source_dataset": "臺北市政府警察局固定式違規照相設備及區間測速裝置設置地點一覽表", "violation_group": "超速"}}, {"type": "Feature", "geometry": {"type": "Point", "coordinates": [121.5917964, 25.0509968]}, "properties": {"city": "臺北市", "city_code": 63000, "district": "南港區", "device_id": 120, "road_segment": "市民大道7段", "location": "近昆陽街口", "address": "市民大道7段近昆陽街口", "violation_type": "測速", "direction": "東往西", "speed_limit": "50", "department": "臺北市政府警察局", "branch": "", "source_dataset": "臺北市政府警察局固定式違規照相設備及區間測速裝置設置地點一覽表", "violation_group": "超速"}}, {"type": "Feature", "geometry": {"type": "Point", "coordinates": [121.6140194, 25.0573762]}, "properties": {"city": "臺北市", "city_code": 63000, "district": "南港區", "device_id": 121, "road_segment": "三重路19-5號前", "location": "", "address": "三重路19-5號前", "violation_type": "測速", "direction": "北向南", "speed_limit": "50", "department": "臺北市政府警察局", "branch": "", "source_dataset": "臺北市政府警察局固定式違規照相設備及區間測速裝置設置地點一覽表", "violation_group": "超速"}}, {"type": "Feature", "geometry": {"type": "Point", "coordinates": [121.586234, 25.04997103]}, "properties": {"city": "臺北市", "city_code": 63000, "district": "南港區", "device_id": 122, "road_segment": "市民大道7段", "location": "東新街 往東約100公尺處(忠孝東路6段159巷口)", "address": "市民大道7段東新街 往東約100公尺處(忠孝東路6段159巷口)", "violation_type": "測速", "direction": "西向東", "speed_limit": "50", "department": "臺北市政府警察局", "branch": "", "source_dataset": "臺北市政府警察局固定式違規照相設備及區間測速裝置設置地點一覽表", "violation_group": "超速"}}, {"type": "Feature", "geometry": {"type": "Point", "coordinates": [121.6123379, 25.05393791]}, "properties": {"city": "臺北市", "city_code": 63000, "district": "南港區", "device_id": 123, "road_segment": "市民大道8段500號前", "location": "", "address": "市民大道8段500號前", "violation_type": "測速", "direction": "西往東", "speed_limit": "50", "department": "臺北市政府警察局", "branch": "", "source_dataset": "臺北市政府警察局固定式違規照相設備及區間測速裝置設置地點一覽表", "violation_group": "超速"}}, {"type": "Feature", "geometry": {"type": "Point", "coordinates": [121.5868439, 25.0487819]}, "properties": {"city": "臺北市", "city_code": 63000, "district": "南港區", "device_id": 124, "road_segment": "忠孝東路6段", "location": "159巷口", "address": "忠孝東路6段159巷口", "violation_type": "測速(兼闖紅燈)", "direction": "東向西", "speed_limit": "50", "department": "臺北市政府警察局", "branch": "", "source_dataset": "臺北市政府警察局固定式違規照相設備及區間測速裝置設置地點一覽表", "violation_group": "複合取締"}}, {"type": "Feature", "geometry": {"type": "Point", "coordinates": [121.6002407, 25.07784255]}, "properties": {"city": "臺北市", "city_code": 63000, "district": "內湖區", "device_id": 125, "road_segment": "金湖路200號前", "location": "", "address": "金湖路200號前", "violation_type": "測速", "direction": "南向北", "speed_limit": "50", "department": "臺北市政府警察局", "branch": "", "source_dataset": "臺北市政府警察局固定式違規照相設備及區間測速裝置設置地點一覽表", "violation_group": "超速"}}, {"type": "Feature", "geometry": {"type": "Point", "coordinates": [121.5809448, 25.07845548]}, "properties": {"city": "臺北市", "city_code": 63000, "district": "內湖區", "device_id": 126, "road_segment": "文德路", "location": "66巷口", "address": "文德路66巷口", "violation_type": "測速", "direction": "西向東", "speed_limit": "50", "department": "臺北市政府警察局", "branch": "", "source_dataset": "臺北市政府警察局固定式違規照相設備及區間測速裝置設置地點一覽表", "violation_group": "超速"}}, {"type": "Feature", "geometry": {"type": "Point", "coordinates": [121.5863778, 25.05977875]}, "properties": {"city": "臺北市", "city_code": 63000, "district": "內湖區", "device_id": 127, "road_segment": "環東大道", "location": "南京東路6段368巷口上方", "address": "環東大道南京東路6段368巷口上方", "violation_type": "測速", "direction": "東向西", "speed_limit": "80", "department": "臺北市政府警察局", "branch": "", "source_dataset": "臺北市政府警察局固定式違規照相設備及區間測速裝置設置地點一覽表", "violation_group": "超速"}}, {"type": "Feature", "geometry": {"type": "Point", "coordinates": [121.5785384, 25.05339912]}, "properties": {"city": "臺北市", "city_code": 63000, "district": "內湖區", "device_id": 128, "road_segment": "潭美街", "location": "新明路460巷", "address": "潭美街新明路460巷", "violation_type": "測速", "direction": "西向東", "speed_limit": "40", "department": "臺北市政府警察局", "branch": "", "source_dataset": "臺北市政府警察局固定式違規照相設備及區間測速裝置設置地點一覽表", "violation_group": "超速"}}, {"type": "Feature", "geometry": {"type": "Point", "coordinates": [121.5832953, 25.06103681]}, "properties": {"city": "臺北市", "city_code": 63000, "district": "內湖區", "device_id": 129, "road_segment": "行善路233號前", "location": "", "address": "行善路233號前", "violation_type": "測速", "direction": "西向東", "speed_limit": "50", "department": "臺北市政府警察局", "branch": "", "source_dataset": "臺北市政府警察局固定式違規照相設備及區間測速裝置設置地點一覽表", "violation_group": "超速"}}, {"type": "Feature", "geometry": {"type": "Point", "coordinates": [121.5899919, 25.07465666]}, "properties": {"city": "臺北市", "city_code": 63000, "district": "內湖區", "device_id": 130, "road_segment": "成功路2段373號前", "location": "", "address": "成功路2段373號前", "violation_type": "測速", "direction": "北向南", "speed_limit": "50", "department": "臺北市政府警察局", "branch": "", "source_dataset": "臺北市政府警察局固定式違規照相設備及區間測速裝置設置地點一覽表", "violation_group": "超速"}}, {"type": "Feature", "geometry": {"type": "Point", "coordinates": [121.5700568, 25.08177943]}, "properties": {"city": "臺北市", "city_code": 63000, "district": "內湖區", "device_id": 131, "road_segment": "內湖路1段324號前", "location": "", "address": "內湖路1段324號前", "violation_type": "測速", "direction": "西向東", "speed_limit": "50", "department": "臺北市政府警察局", "branch": "", "source_dataset": "臺北市政府警察局固定式違規照相設備及區間測速裝置設置地點一覽表", "violation_group": "超速"}}, {"type": "Feature", "geometry": {"type": "Point", "coordinates": [121.6040906, 25.08303808]}, "properties": {"city": "臺北市", "city_code": 63000, "district": "內湖區", "device_id": 132, "road_segment": "成功路5段", "location": "152巷口", "address": "成功路5段152巷口", "violation_type": "測速", "direction": "西向東", "speed_limit": "50", "department": "臺北市政府警察局", "branch": "", "source_dataset": "臺北市政府警察局固定式違規照相設備及區間測速裝置設置地點一覽表", "violation_group": "超速"}}, {"type": "Feature", "geometry": {"type": "Point", "coordinates": [121.6042394, 25.07128214]}, "properties": {"city": "臺北市", "city_code": 63000, "district": "內湖區", "device_id": 133, "road_segment": "民權東路6段", "location": "423巷口", "address": "民權東路6段423巷口", "violation_type": "測速", "direction": "東向西", "speed_limit": "50", "department": "臺北市政府警察局", "branch": "", "source_dataset": "臺北市政府警察局固定式違規照相設備及區間測速裝置設置地點一覽表", "violation_group": "超速"}}, {"type": "Feature", "geometry": {"type": "Point", "coordinates": [121.5856236, 25.0561559]}, "properties": {"city": "臺北市", "city_code": 63000, "district": "內湖區", "device_id": 134, "road_segment": "潭美街223號對面", "location": "", "address": "潭美街223號對面", "violation_type": "測速", "direction": "東西雙向", "speed_limit": "40", "department": "臺北市政府警察局", "branch": "", "source_dataset": "臺北市政府警察局固定式違規照相設備及區間測速裝置設置地點一覽表", "violation_group": "超速"}}, {"type": "Feature", "geometry": {"type": "Point", "coordinates": [121.5996961, 25.06679101]}, "properties": {"city": "臺北市", "city_code": 63000, "district": "內湖區", "device_id": 135, "road_segment": "民權東路6段228號前", "location": "", "address": "民權東路6段228號前", "violation_type": "測速", "direction": "西向東", "speed_limit": "50", "department": "臺北市政府警察局", "branch": "", "source_dataset": "臺北市政府警察局固定式違規照相設備及區間測速裝置設置地點一覽表", "violation_group": "超速"}}, {"type": "Feature", "geometry": {"type": "Point", "coordinates": [121.5794224, 25.07356672]}, "properties": {"city": "臺北市", "city_code": 63000, "district": "內湖區", "device_id": 136, "road_segment": "瑞光路199號前", "location": "近陽光街口", "address": "瑞光路199號前近陽光街口", "violation_type": "闖紅燈", "direction": "南向北", "speed_limit": "50", "department": "臺北市政府警察局", "branch": "", "source_dataset": "臺北市政府警察局固定式違規照相設備及區間測速裝置設置地點一覽表", "violation_group": "闖紅燈"}}, {"type": "Feature", "geometry": {"type": "Point", "coordinates": [121.5904926, 25.06581593]}, "properties": {"city": "臺北市", "city_code": 63000, "district": "內湖區", "device_id": 137, "road_segment": "成功路2段", "location": "250巷口", "address": "成功路2段250巷口", "violation_type": "闖紅燈", "direction": "往內湖方向", "speed_limit": "50", "department": "臺北市政府警察局", "branch": "", "source_dataset": "臺北市政府警察局固定式違規照相設備及區間測速裝置設置地點一覽表", "violation_group": "闖紅燈"}}, {"type": "Feature", "geometry": {"type": "Point", "coordinates": [121.5692319, 25.08647666]}, "properties": {"city": "臺北市", "city_code": 63000, "district": "內湖區", "device_id": 138, "road_segment": "環山路1段", "location": "136巷口", "address": "環山路1段136巷口", "violation_type": "闖紅燈", "direction": "東向西", "speed_limit": "50", "department": "臺北市政府警察局", "branch": "", "source_dataset": "臺北市政府警察局固定式違規照相設備及區間測速裝置設置地點一覽表", "violation_group": "闖紅燈"}}, {"type": "Feature", "geometry": {"type": "Point", "coordinates": [121.5632405, 25.08334131]}, "properties": {"city": "臺北市", "city_code": 63000, "district": "內湖區", "device_id": 139, "road_segment": "內湖路1段", "location": "120巷", "address": "內湖路1段120巷", "violation_type": "闖紅燈", "direction": "西向東", "speed_limit": "50", "department": "臺北市政府警察局", "branch": "", "source_dataset": "臺北市政府警察局固定式違規照相設備及區間測速裝置設置地點一覽表", "violation_group": "闖紅燈"}}, {"type": "Feature", "geometry": {"type": "Point", "coordinates": [121.5788821, 25.05560475]}, "properties": {"city": "臺北市", "city_code": 63000, "district": "內湖區", "device_id": 140, "road_segment": "南京東路6段", "location": "新明路426巷口", "address": "南京東路6段新明路426巷口", "violation_type": "闖紅燈", "direction": "西向東", "speed_limit": "40", "department": "臺北市政府警察局", "branch": "", "source_dataset": "臺北市政府警察局固定式違規照相設備及區間測速裝置設置地點一覽表", "violation_group": "闖紅燈"}}, {"type": "Feature", "geometry": {"type": "Point", "coordinates": [121.5880359, 25.06908817]}, "properties": {"city": "臺北市", "city_code": 63000, "district": "內湖區", "device_id": 141, "road_segment": "民權東路6段", "location": "136巷口", "address": "民權東路6段136巷口", "violation_type": "闖紅燈", "direction": "西向東", "speed_limit": "50", "department": "臺北市政府警察局", "branch": "", "source_dataset": "臺北市政府警察局固定式違規照相設備及區間測速裝置設置地點一覽表", "violation_group": "闖紅燈"}}, {"type": "Feature", "geometry": {"type": "Point", "coordinates": [121.5492556, 25.09060141]}, "properties": {"city": "臺北市", "city_code": 63000, "district": "中山、士林區", "device_id": 142, "road_segment": "自強隧道", "location": "", "address": "自強隧道", "violation_type": "區間測速及跨越雙白線", "direction": "南北雙向", "speed_limit": "50", "department": "臺北市政府警察局", "branch": "", "source_dataset": "臺北市政府警察局固定式違規照相設備及區間測速裝置設置地點一覽表", "violation_group": "超速"}}, {"type": "Feature", "geometry": {"type": "Point", "coordinates": [121.5553515, 25.01171385]}, "properties": {"city": "臺北市", "city_code": 63000, "district": "大安、文山區", "device_id": 143, "road_segment": "辛亥隧道", "location": "", "address": "辛亥隧道", "violation_type": "區間測速及跨越雙白線", "direction": "南北雙向", "speed_limit": "50", "department": "臺北市政府警察局", "branch": "", "source_dataset": "臺北市政府警察局固定式違規照相設備及區間測速裝置設置地點一覽表", "violation_group": "超速"}}]}